<?xml version="1.0" encoding="utf-8"?>
<gpx xmlns="http://www.topografix.com/GPX/1/1" version="1.1" creator="">
  <trk>
    <name>Nocturne_2025_marche_10km</name>
    <desc/>
    <trkseg>
      <trkpt lat="49.273114" lon="2.364636"/>
      <trkpt lat="49.27265" lon="2.365819"/>
      <trkpt lat="49.272247" lon="2.366794"/>
      <trkpt lat="49.273721" lon="2.368537"/>
      <trkpt lat="49.275296" lon="2.370044"/>
      <trkpt lat="49.276792" lon="2.372154"/>
      <trkpt lat="49.276418" lon="2.374525"/>
      <trkpt lat="49.277293" lon="2.377208"/>
      <trkpt lat="49.278177" lon="2.380739"/>
      <trkpt lat="49.278313" lon="2.384712"/>
      <trkpt lat="49.279452" lon="2.385506"/>
      <trkpt lat="49.280404" lon="2.386913"/>
      <trkpt lat="49.281067" lon="2.389193"/>
      <trkpt lat="49.281899" lon="2.391017"/>
      <trkpt lat="49.282188" lon="2.393075"/>
      <trkpt lat="49.283344" lon="2.394065"/>
      <trkpt lat="49.283327" lon="2.394938"/>
      <trkpt lat="49.282775" lon="2.395641"/>
      <trkpt lat="49.282443" lon="2.396241"/>
      <trkpt lat="49.282171" lon="2.397335"/>
      <trkpt lat="49.282537" lon="2.399432"/>
      <trkpt lat="49.282622" lon="2.399927"/>
      <trkpt lat="49.282086" lon="2.400357"/>
      <trkpt lat="49.283276" lon="2.401126"/>
      <trkpt lat="49.284355" lon="2.401399"/>
      <trkpt lat="49.286777" lon="2.402754"/>
      <trkpt lat="49.289943" lon="2.404448"/>
      <trkpt lat="49.292568" lon="2.402545"/>
      <trkpt lat="49.296801" lon="2.398645"/>
      <trkpt lat="49.2991" lon="2.397709"/>
      <trkpt lat="49.298611" lon="2.395962"/>
      <trkpt lat="49.297879" lon="2.393529"/>
      <trkpt lat="49.294847" lon="2.391469"/>
      <trkpt lat="49.294054" lon="2.390565"/>
      <trkpt lat="49.294094" lon="2.389442"/>
      <trkpt lat="49.293626" lon="2.3881"/>
      <trkpt lat="49.293789" lon="2.385916"/>
      <trkpt lat="49.294135" lon="2.38551"/>
      <trkpt lat="49.293993" lon="2.384481"/>
      <trkpt lat="49.294196" lon="2.383982"/>
      <trkpt lat="49.294644" lon="2.38264"/>
      <trkpt lat="49.293342" lon="2.380051"/>
      <trkpt lat="49.2909" lon="2.379364"/>
      <trkpt lat="49.287542" lon="2.379177"/>
      <trkpt lat="49.284591" lon="2.375215"/>
      <trkpt lat="49.284388" lon="2.373905"/>
      <trkpt lat="49.284184" lon="2.373312"/>
      <trkpt lat="49.28453" lon="2.371783"/>
      <trkpt lat="49.284225" lon="2.370379"/>
      <trkpt lat="49.282658" lon="2.367665"/>
      <trkpt lat="49.283452" lon="2.366354"/>
      <trkpt lat="49.283574" lon="2.36495"/>
      <trkpt lat="49.282068" lon="2.36467"/>
      <trkpt lat="49.281009" lon="2.364264"/>
      <trkpt lat="49.28046" lon="2.364638"/>
      <trkpt lat="49.279727" lon="2.364451"/>
      <trkpt lat="49.279426" lon="2.364094"/>
      <trkpt lat="49.279327" lon="2.363364"/>
      <trkpt lat="49.278608" lon="2.363653"/>
      <trkpt lat="49.277656" lon="2.363364"/>
      <trkpt lat="49.27647" lon="2.36324"/>
      <trkpt lat="49.27586" lon="2.363433"/>
      <trkpt lat="49.275455" lon="2.363103"/>
      <trkpt lat="49.274826" lon="2.362951"/>
      <trkpt lat="49.273883" lon="2.362992"/>
      <trkpt lat="49.273117" lon="2.364597"/>
    </trkseg>
  </trk>
</gpx>
