<?xml version="1.0" encoding="utf-8"?>
<gpx xmlns="http://www.topografix.com/GPX/1/1" version="1.1" creator="">
  <trk>
    <name>Nocturne_2025_VTT_17km</name>
    <desc/>
    <trkseg>
      <trkpt lat="49.2717" lon="2.36051"/>
      <trkpt lat="49.27182" lon="2.3605"/>
      <trkpt lat="49.27207" lon="2.36048"/>
      <trkpt lat="49.2726" lon="2.36043"/>
      <trkpt lat="49.2726" lon="2.36046"/>
      <trkpt lat="49.27261" lon="2.36056"/>
      <trkpt lat="49.27262" lon="2.36064"/>
      <trkpt lat="49.27265" lon="2.36111"/>
      <trkpt lat="49.27265" lon="2.36114"/>
      <trkpt lat="49.27266" lon="2.36153"/>
      <trkpt lat="49.27266" lon="2.36195"/>
      <trkpt lat="49.27263" lon="2.36224"/>
      <trkpt lat="49.2726" lon="2.3624"/>
      <trkpt lat="49.27256" lon="2.3626"/>
      <trkpt lat="49.27255" lon="2.36265"/>
      <trkpt lat="49.27244" lon="2.363"/>
      <trkpt lat="49.27243" lon="2.36302"/>
      <trkpt lat="49.27238" lon="2.36323"/>
      <trkpt lat="49.27236" lon="2.36355"/>
      <trkpt lat="49.27235" lon="2.36378"/>
      <trkpt lat="49.27234" lon="2.36379"/>
      <trkpt lat="49.27233" lon="2.36394"/>
      <trkpt lat="49.27218" lon="2.36456"/>
      <trkpt lat="49.27217" lon="2.36459"/>
      <trkpt lat="49.2721" lon="2.36495"/>
      <trkpt lat="49.27202" lon="2.36544"/>
      <trkpt lat="49.27198" lon="2.36592"/>
      <trkpt lat="49.27198" lon="2.36594"/>
      <trkpt lat="49.27193" lon="2.36671"/>
      <trkpt lat="49.272422" lon="2.366959"/>
      <trkpt lat="49.272887" lon="2.367413"/>
      <trkpt lat="49.273155" lon="2.367834"/>
      <trkpt lat="49.275227" lon="2.36993"/>
      <trkpt lat="49.276066" lon="2.370967"/>
      <trkpt lat="49.276743" lon="2.372134"/>
      <trkpt lat="49.276792" lon="2.372556"/>
      <trkpt lat="49.276412" lon="2.373809"/>
      <trkpt lat="49.27645" lon="2.37443"/>
      <trkpt lat="49.27651" lon="2.37466"/>
      <trkpt lat="49.27672" lon="2.37529"/>
      <trkpt lat="49.27738" lon="2.37756"/>
      <trkpt lat="49.27789" lon="2.37947"/>
      <trkpt lat="49.27819" lon="2.38072"/>
      <trkpt lat="49.27819" lon="2.38073"/>
      <trkpt lat="49.27819" lon="2.38243"/>
      <trkpt lat="49.27821" lon="2.38326"/>
      <trkpt lat="49.27831" lon="2.38477"/>
      <trkpt lat="49.27908" lon="2.38528"/>
      <trkpt lat="49.27941" lon="2.3855"/>
      <trkpt lat="49.28039" lon="2.38686"/>
      <trkpt lat="49.28079" lon="2.38806"/>
      <trkpt lat="49.28103" lon="2.38915"/>
      <trkpt lat="49.2813" lon="2.38967"/>
      <trkpt lat="49.28161" lon="2.39028"/>
      <trkpt lat="49.28192" lon="2.39111"/>
      <trkpt lat="49.28198" lon="2.392"/>
      <trkpt lat="49.2821" lon="2.3929"/>
      <trkpt lat="49.28228" lon="2.39323"/>
      <trkpt lat="49.28279" lon="2.39367"/>
      <trkpt lat="49.28335" lon="2.39407"/>
      <trkpt lat="49.28333" lon="2.39467"/>
      <trkpt lat="49.2833" lon="2.39492"/>
      <trkpt lat="49.28326" lon="2.39504"/>
      <trkpt lat="49.28314" lon="2.3953"/>
      <trkpt lat="49.28307" lon="2.39538"/>
      <trkpt lat="49.28276" lon="2.39563"/>
      <trkpt lat="49.28263" lon="2.39579"/>
      <trkpt lat="49.28255" lon="2.39594"/>
      <trkpt lat="49.28239" lon="2.3965"/>
      <trkpt lat="49.2823" lon="2.39677"/>
      <trkpt lat="49.28217" lon="2.39723"/>
      <trkpt lat="49.28216" lon="2.39748"/>
      <trkpt lat="49.28225" lon="2.39818"/>
      <trkpt lat="49.28238" lon="2.39891"/>
      <trkpt lat="49.28245" lon="2.39918"/>
      <trkpt lat="49.28258" lon="2.39958"/>
      <trkpt lat="49.2826" lon="2.39976"/>
      <trkpt lat="49.28257" lon="2.39988"/>
      <trkpt lat="49.28251" lon="2.40001"/>
      <trkpt lat="49.28235" lon="2.40016"/>
      <trkpt lat="49.28212" lon="2.40033"/>
      <trkpt lat="49.28211" lon="2.40033"/>
      <trkpt lat="49.28212" lon="2.40033"/>
      <trkpt lat="49.28215" lon="2.40045"/>
      <trkpt lat="49.28202" lon="2.40111"/>
      <trkpt lat="49.282" lon="2.40149"/>
      <trkpt lat="49.28202" lon="2.40171"/>
      <trkpt lat="49.28237" lon="2.40348"/>
      <trkpt lat="49.28245" lon="2.40402"/>
      <trkpt lat="49.28247" lon="2.40447"/>
      <trkpt lat="49.2825" lon="2.40805"/>
      <trkpt lat="49.28248" lon="2.40848"/>
      <trkpt lat="49.28243" lon="2.40889"/>
      <trkpt lat="49.28233" lon="2.40935"/>
      <trkpt lat="49.28222" lon="2.40976"/>
      <trkpt lat="49.28233" lon="2.41024"/>
      <trkpt lat="49.28253" lon="2.41089"/>
      <trkpt lat="49.28268" lon="2.41134"/>
      <trkpt lat="49.28271" lon="2.41142"/>
      <trkpt lat="49.28312" lon="2.41232"/>
      <trkpt lat="49.28353" lon="2.41318"/>
      <trkpt lat="49.28382" lon="2.41373"/>
      <trkpt lat="49.28397" lon="2.41399"/>
      <trkpt lat="49.28417" lon="2.41426"/>
      <trkpt lat="49.2845" lon="2.41466"/>
      <trkpt lat="49.28476" lon="2.41495"/>
      <trkpt lat="49.28558" lon="2.41567"/>
      <trkpt lat="49.28574" lon="2.41584"/>
      <trkpt lat="49.28603" lon="2.41627"/>
      <trkpt lat="49.28622" lon="2.41663"/>
      <trkpt lat="49.2865" lon="2.41724"/>
      <trkpt lat="49.28662" lon="2.41755"/>
      <trkpt lat="49.28669" lon="2.41777"/>
      <trkpt lat="49.28678" lon="2.41824"/>
      <trkpt lat="49.28701" lon="2.41965"/>
      <trkpt lat="49.28714" lon="2.42005"/>
      <trkpt lat="49.28751" lon="2.42094"/>
      <trkpt lat="49.28778" lon="2.42153"/>
      <trkpt lat="49.28844" lon="2.42335"/>
      <trkpt lat="49.28864" lon="2.42389"/>
      <trkpt lat="49.28876" lon="2.42416"/>
      <trkpt lat="49.28924" lon="2.42503"/>
      <trkpt lat="49.28935" lon="2.42537"/>
      <trkpt lat="49.28937" lon="2.42552"/>
      <trkpt lat="49.28934" lon="2.42594"/>
      <trkpt lat="49.28934" lon="2.4261"/>
      <trkpt lat="49.28936" lon="2.42618"/>
      <trkpt lat="49.28988" lon="2.42683"/>
      <trkpt lat="49.29013" lon="2.42749"/>
      <trkpt lat="49.29045" lon="2.42805"/>
      <trkpt lat="49.29065" lon="2.42854"/>
      <trkpt lat="49.29073" lon="2.42887"/>
      <trkpt lat="49.29077" lon="2.42915"/>
      <trkpt lat="49.29081" lon="2.42947"/>
      <trkpt lat="49.29091" lon="2.42985"/>
      <trkpt lat="49.29113" lon="2.43037"/>
      <trkpt lat="49.29123" lon="2.42986"/>
      <trkpt lat="49.29142" lon="2.42911"/>
      <trkpt lat="49.29209" lon="2.42681"/>
      <trkpt lat="49.29272" lon="2.425"/>
      <trkpt lat="49.2932" lon="2.42379"/>
      <trkpt lat="49.29379" lon="2.42289"/>
      <trkpt lat="49.29415" lon="2.42239"/>
      <trkpt lat="49.2947" lon="2.42171"/>
      <trkpt lat="49.29536" lon="2.42063"/>
      <trkpt lat="49.29557" lon="2.42017"/>
      <trkpt lat="49.29602" lon="2.419"/>
      <trkpt lat="49.29717" lon="2.41652"/>
      <trkpt lat="49.298354" lon="2.41482"/>
      <trkpt lat="49.29862" lon="2.413889"/>
      <trkpt lat="49.299089" lon="2.405662"/>
      <trkpt lat="49.299557" lon="2.40237"/>
      <trkpt lat="49.300006" lon="2.400783"/>
      <trkpt lat="49.30077" lon="2.3995"/>
      <trkpt lat="49.30078" lon="2.3995"/>
      <trkpt lat="49.30081" lon="2.39944"/>
      <trkpt lat="49.30142" lon="2.39872"/>
      <trkpt lat="49.30154" lon="2.39851"/>
      <trkpt lat="49.30158" lon="2.39839"/>
      <trkpt lat="49.30162" lon="2.39817"/>
      <trkpt lat="49.30163" lon="2.39761"/>
      <trkpt lat="49.30149" lon="2.39761"/>
      <trkpt lat="49.30153" lon="2.39734"/>
      <trkpt lat="49.30162" lon="2.39673"/>
      <trkpt lat="49.302" lon="2.39421"/>
      <trkpt lat="49.30263" lon="2.39011"/>
      <trkpt lat="49.3024" lon="2.3897"/>
      <trkpt lat="49.30209" lon="2.3895"/>
      <trkpt lat="49.30164" lon="2.38936"/>
      <trkpt lat="49.30086" lon="2.38912"/>
      <trkpt lat="49.30024" lon="2.38851"/>
      <trkpt lat="49.29961" lon="2.38782"/>
      <trkpt lat="49.29892" lon="2.38716"/>
      <trkpt lat="49.29805" lon="2.38628"/>
      <trkpt lat="49.297571" lon="2.385768"/>
      <trkpt lat="49.297285" lon="2.38544"/>
      <trkpt lat="49.29704" lon="2.38513"/>
      <trkpt lat="49.29704" lon="2.38513"/>
      <trkpt lat="49.2969" lon="2.385134"/>
      <trkpt lat="49.296676" lon="2.385648"/>
      <trkpt lat="49.295941" lon="2.384957"/>
      <trkpt lat="49.295829" lon="2.38454"/>
      <trkpt lat="49.296105" lon="2.384201"/>
      <trkpt lat="49.29616" lon="2.38388"/>
      <trkpt lat="49.29606" lon="2.38374"/>
      <trkpt lat="49.29602" lon="2.38368"/>
      <trkpt lat="49.29557" lon="2.38295"/>
      <trkpt lat="49.29518" lon="2.3822"/>
      <trkpt lat="49.29507" lon="2.38201"/>
      <trkpt lat="49.29473" lon="2.38145"/>
      <trkpt lat="49.29432" lon="2.38097"/>
      <trkpt lat="49.29387" lon="2.38064"/>
      <trkpt lat="49.29356" lon="2.38035"/>
      <trkpt lat="49.29335" lon="2.38"/>
      <trkpt lat="49.2937" lon="2.37926"/>
      <trkpt lat="49.29379" lon="2.37915"/>
      <trkpt lat="49.29393" lon="2.37912"/>
      <trkpt lat="49.29499" lon="2.37907"/>
      <trkpt lat="49.29576" lon="2.37912"/>
      <trkpt lat="49.29649" lon="2.3792"/>
      <trkpt lat="49.29742" lon="2.37923"/>
      <trkpt lat="49.29805" lon="2.37913"/>
      <trkpt lat="49.29883" lon="2.37889"/>
      <trkpt lat="49.29913" lon="2.37877"/>
      <trkpt lat="49.29969" lon="2.37863"/>
      <trkpt lat="49.30054" lon="2.37857"/>
      <trkpt lat="49.30131" lon="2.37855"/>
      <trkpt lat="49.30178" lon="2.3785"/>
      <trkpt lat="49.30201" lon="2.37839"/>
      <trkpt lat="49.30216" lon="2.37818"/>
      <trkpt lat="49.30223" lon="2.37792"/>
      <trkpt lat="49.30223" lon="2.37744"/>
      <trkpt lat="49.3022" lon="2.37724"/>
      <trkpt lat="49.3017" lon="2.37692"/>
      <trkpt lat="49.3011" lon="2.37644"/>
      <trkpt lat="49.30074" lon="2.37621"/>
      <trkpt lat="49.30001" lon="2.37571"/>
      <trkpt lat="49.29956" lon="2.3752"/>
      <trkpt lat="49.29852" lon="2.37429"/>
      <trkpt lat="49.29809" lon="2.37365"/>
      <trkpt lat="49.29724" lon="2.37231"/>
      <trkpt lat="49.29661" lon="2.37099"/>
      <trkpt lat="49.29505" lon="2.36843"/>
      <trkpt lat="49.295" lon="2.36822"/>
      <trkpt lat="49.29498" lon="2.36817"/>
      <trkpt lat="49.29492" lon="2.36757"/>
      <trkpt lat="49.29491" lon="2.3671"/>
      <trkpt lat="49.29383" lon="2.3688"/>
      <trkpt lat="49.29375" lon="2.36893"/>
      <trkpt lat="49.2929" lon="2.36987"/>
      <trkpt lat="49.2928" lon="2.36988"/>
      <trkpt lat="49.29262" lon="2.36995"/>
      <trkpt lat="49.292" lon="2.37038"/>
      <trkpt lat="49.29177" lon="2.37044"/>
      <trkpt lat="49.29136" lon="2.37035"/>
      <trkpt lat="49.29116" lon="2.3703"/>
      <trkpt lat="49.29098" lon="2.37033"/>
      <trkpt lat="49.29091" lon="2.37038"/>
      <trkpt lat="49.29081" lon="2.37043"/>
      <trkpt lat="49.2907" lon="2.37055"/>
      <trkpt lat="49.29063" lon="2.37067"/>
      <trkpt lat="49.29055" lon="2.37066"/>
      <trkpt lat="49.29052" lon="2.37061"/>
      <trkpt lat="49.29043" lon="2.37022"/>
      <trkpt lat="49.29035" lon="2.36965"/>
      <trkpt lat="49.29018" lon="2.36921"/>
      <trkpt lat="49.28973" lon="2.36818"/>
      <trkpt lat="49.2896" lon="2.36783"/>
      <trkpt lat="49.28947" lon="2.36735"/>
      <trkpt lat="49.29011" lon="2.36673"/>
      <trkpt lat="49.29023" lon="2.36666"/>
      <trkpt lat="49.29047" lon="2.36659"/>
      <trkpt lat="49.29057" lon="2.36654"/>
      <trkpt lat="49.29067" lon="2.36645"/>
      <trkpt lat="49.29074" lon="2.36635"/>
      <trkpt lat="49.29081" lon="2.3662"/>
      <trkpt lat="49.29087" lon="2.36596"/>
      <trkpt lat="49.29088" lon="2.36589"/>
      <trkpt lat="49.29088" lon="2.36532"/>
      <trkpt lat="49.29088" lon="2.36526"/>
      <trkpt lat="49.29094" lon="2.36507"/>
      <trkpt lat="49.29109" lon="2.3647"/>
      <trkpt lat="49.29125" lon="2.36439"/>
      <trkpt lat="49.29148" lon="2.36408"/>
      <trkpt lat="49.29155" lon="2.36403"/>
      <trkpt lat="49.29115" lon="2.36352"/>
      <trkpt lat="49.29094" lon="2.36325"/>
      <trkpt lat="49.29086" lon="2.36297"/>
      <trkpt lat="49.29068" lon="2.36274"/>
      <trkpt lat="49.29064" lon="2.3627"/>
      <trkpt lat="49.29023" lon="2.36229"/>
      <trkpt lat="49.28945" lon="2.36145"/>
      <trkpt lat="49.28897" lon="2.36081"/>
      <trkpt lat="49.28871" lon="2.36034"/>
      <trkpt lat="49.28832" lon="2.35941"/>
      <trkpt lat="49.28824" lon="2.35916"/>
      <trkpt lat="49.28819" lon="2.35887"/>
      <trkpt lat="49.28819" lon="2.35886"/>
      <trkpt lat="49.28814" lon="2.35866"/>
      <trkpt lat="49.28808" lon="2.35835"/>
      <trkpt lat="49.28802" lon="2.3582"/>
      <trkpt lat="49.28787" lon="2.35803"/>
      <trkpt lat="49.28762" lon="2.35779"/>
      <trkpt lat="49.28721" lon="2.35737"/>
      <trkpt lat="49.28697" lon="2.35725"/>
      <trkpt lat="49.28692" lon="2.35726"/>
      <trkpt lat="49.28661" lon="2.35764"/>
      <trkpt lat="49.28647" lon="2.35792"/>
      <trkpt lat="49.28623" lon="2.3584"/>
      <trkpt lat="49.28606" lon="2.35866"/>
      <trkpt lat="49.28592" lon="2.35874"/>
      <trkpt lat="49.28554" lon="2.35926"/>
      <trkpt lat="49.28532" lon="2.35942"/>
      <trkpt lat="49.28527" lon="2.35949"/>
      <trkpt lat="49.28484" lon="2.35956"/>
      <trkpt lat="49.28404" lon="2.35974"/>
      <trkpt lat="49.28372" lon="2.35968"/>
      <trkpt lat="49.28301" lon="2.35933"/>
      <trkpt lat="49.28258" lon="2.35904"/>
      <trkpt lat="49.28242" lon="2.35893"/>
      <trkpt lat="49.2818" lon="2.35836"/>
      <trkpt lat="49.28107" lon="2.35765"/>
      <trkpt lat="49.28112" lon="2.35762"/>
      <trkpt lat="49.279694" lon="2.356262"/>
      <trkpt lat="49.279635" lon="2.355876"/>
      <trkpt lat="49.279233" lon="2.358009"/>
      <trkpt lat="49.27868" lon="2.358215"/>
      <trkpt lat="49.278185" lon="2.358009"/>
      <trkpt lat="49.277976" lon="2.35905"/>
      <trkpt lat="49.276928" lon="2.359872"/>
      <trkpt lat="49.277113" lon="2.361439"/>
      <trkpt lat="49.276677" lon="2.362005"/>
      <trkpt lat="49.276358" lon="2.362094"/>
      <trkpt lat="49.275202" lon="2.36239"/>
      <trkpt lat="49.274011" lon="2.36257"/>
      <trkpt lat="49.273265" lon="2.363032"/>
      <trkpt lat="49.272804" lon="2.362557"/>
      <trkpt lat="49.272656" lon="2.362415"/>
      <trkpt lat="49.272698" lon="2.361744"/>
      <trkpt lat="49.272617" lon="2.361111"/>
      <trkpt lat="49.2724" lon="2.36109"/>
      <trkpt lat="49.272052" lon="2.361119"/>
    </trkseg>
  </trk>
  <wpt lat="49.285363" lon="2.359673">
    <name>Signaleur (avec permis)</name>
    <sym>3</sym>
    <type>WPT</type>
    <extensions>
      <option option="{&quot;icon&quot;: {&quot;id&quot;: &quot;3&quot;, &quot;i18n&quot;: &quot;Ravitaillement&quot;, &quot;type&quot;: &quot;default&quot;, &quot;classes&quot;: null, &quot;categorie&quot;: &quot;CATICO-1&quot;, &quot;html_code&quot;: &quot;&amp;#x55&quot;, &quot;description&quot;: null, &quot;custom_order&quot;: 5, &quot;def_svg_symbol_id&quot;: &quot;55&quot;}, &quot;type&quot;: &quot;default&quot;, &quot;color&quot;: &quot;#26323d&quot;, &quot;title&quot;: &quot;Signaleur (avec permis)&quot;, &quot;bgColor&quot;: &quot;#ffffff&quot;, &quot;content&quot;: &quot;&quot;, &quot;offsetX&quot;: 0, &quot;offsetY&quot;: 0, &quot;tooltip&quot;: {&quot;show&quot;: true, &quot;direction&quot;: &quot;top&quot;, &quot;permanent&quot;: false}, &quot;visibility&quot;: &quot;public&quot;, &quot;showOnPrint&quot;: true, &quot;showOnPrintMap&quot;: false, &quot;showOnElevation&quot;: false, &quot;cumulatedLocation&quot;: false, &quot;showOnPrintElevation&quot;: false, &quot;stickedDistanceInMeter&quot;: -1, &quot;showTextOnPrintElevation&quot;: false}"/>
    </extensions>
  </wpt>
  <wpt lat="49.285127" lon="2.359524">
    <name>Assistants de parcours</name>
    <sym>1</sym>
    <type>WPT</type>
    <extensions>
      <option option="{&quot;icon&quot;: {&quot;id&quot;: &quot;1&quot;, &quot;i18n&quot;: &quot;Assistants de parcours&quot;, &quot;type&quot;: &quot;default&quot;, &quot;classes&quot;: null, &quot;categorie&quot;: &quot;CATICO-1&quot;, &quot;html_code&quot;: &quot;&amp;#x41&quot;, &quot;description&quot;: null, &quot;custom_order&quot;: 2, &quot;def_svg_symbol_id&quot;: &quot;41&quot;}, &quot;type&quot;: &quot;default&quot;, &quot;color&quot;: &quot;#26323d&quot;, &quot;title&quot;: &quot;Assistants de parcours&quot;, &quot;bgColor&quot;: &quot;#ffffff&quot;, &quot;content&quot;: &quot;&quot;, &quot;offsetX&quot;: 0, &quot;offsetY&quot;: 0, &quot;tooltip&quot;: {&quot;show&quot;: true, &quot;direction&quot;: &quot;top&quot;, &quot;permanent&quot;: false}, &quot;visibility&quot;: &quot;public&quot;, &quot;showOnPrint&quot;: true, &quot;showOnPrintMap&quot;: false, &quot;showOnElevation&quot;: false, &quot;cumulatedLocation&quot;: false, &quot;showOnPrintElevation&quot;: false, &quot;stickedDistanceInMeter&quot;: -1, &quot;showTextOnPrintElevation&quot;: false}"/>
    </extensions>
  </wpt>
  <wpt lat="49.272606" lon="2.36045">
    <name>Assistants de parcours</name>
    <sym>1</sym>
    <type>WPT</type>
    <extensions>
      <option option="{&quot;icon&quot;: {&quot;id&quot;: &quot;1&quot;, &quot;i18n&quot;: &quot;Assistants de parcours&quot;, &quot;type&quot;: &quot;default&quot;, &quot;classes&quot;: null, &quot;categorie&quot;: &quot;CATICO-1&quot;, &quot;html_code&quot;: &quot;&amp;#x41&quot;, &quot;description&quot;: null, &quot;custom_order&quot;: 2, &quot;def_svg_symbol_id&quot;: &quot;41&quot;}, &quot;type&quot;: &quot;default&quot;, &quot;color&quot;: &quot;#26323d&quot;, &quot;title&quot;: &quot;Assistants de parcours&quot;, &quot;bgColor&quot;: &quot;#ffffff&quot;, &quot;content&quot;: &quot;&quot;, &quot;offsetX&quot;: 0, &quot;offsetY&quot;: 0, &quot;tooltip&quot;: {&quot;show&quot;: true, &quot;direction&quot;: &quot;top&quot;, &quot;permanent&quot;: false}, &quot;visibility&quot;: &quot;public&quot;, &quot;showOnPrint&quot;: true, &quot;showOnPrintMap&quot;: false, &quot;showOnElevation&quot;: false, &quot;cumulatedLocation&quot;: false, &quot;showOnPrintElevation&quot;: false, &quot;stickedDistanceInMeter&quot;: -1, &quot;showTextOnPrintElevation&quot;: false}"/>
    </extensions>
  </wpt>
</gpx>
