<?xml version="1.0" encoding="UTF-8" ?>
<gpx version="1.1" xmlns:xsi="http://www.w3.org/2001/XMLSchema-instance"
    xmlns="http://www.topografix.com/GPX/1/1"
    xsi:schemaLocation="http://www.topografix.com/GPX/1/1 http://www.topografix.com/GPX/1/1/gpx.xsd"
    creator="Openrunner - https://www.openrunner.com" >	<trk>
	                   <name>René Gérard 2026 - 48km - 700m D+-23750858</name>
						<trkseg>
					<trkpt lat="49.272170" lon="2.361050">
						<ele>36</ele>
						<time>2026-06-05T16:56:48Z</time>
					</trkpt>
					<trkpt lat="49.272620" lon="2.361070">
						<ele>36</ele>
						<time>2026-06-05T16:56:59Z</time>
					</trkpt>
					<trkpt lat="49.272590" lon="2.360090">
						<ele>36</ele>
						<time>2026-06-05T16:57:13Z</time>
					</trkpt>
					<trkpt lat="49.272590" lon="2.358050">
						<ele>37</ele>
						<time>2026-06-05T16:57:45Z</time>
					</trkpt>
					<trkpt lat="49.272630" lon="2.357420">
						<ele>36</ele>
						<time>2026-06-05T16:57:54Z</time>
					</trkpt>
					<trkpt lat="49.273030" lon="2.355800">
						<ele>42</ele>
						<time>2026-06-05T16:58:21Z</time>
					</trkpt>
					<trkpt lat="49.271550" lon="2.354400">
						<ele>42</ele>
						<time>2026-06-05T16:59:01Z</time>
					</trkpt>
					<trkpt lat="49.272170" lon="2.353430">
						<ele>45</ele>
						<time>2026-06-05T16:59:22Z</time>
					</trkpt>
					<trkpt lat="49.271640" lon="2.351900">
						<ele>45</ele>
						<time>2026-06-05T16:59:48Z</time>
					</trkpt>
					<trkpt lat="49.271700" lon="2.351430">
						<ele>46</ele>
						<time>2026-06-05T16:59:56Z</time>
					</trkpt>
					<trkpt lat="49.270510" lon="2.349750">
						<ele>51</ele>
						<time>2026-06-05T17:00:33Z</time>
					</trkpt>
					<trkpt lat="49.270340" lon="2.349880">
						<ele>55</ele>
						<time>2026-06-05T17:00:38Z</time>
					</trkpt>
					<trkpt lat="49.270120" lon="2.349020">
						<ele>55</ele>
						<time>2026-06-05T17:00:52Z</time>
					</trkpt>
					<trkpt lat="49.270220" lon="2.348520">
						<ele>53</ele>
						<time>2026-06-05T17:01:00Z</time>
					</trkpt>
					<trkpt lat="49.270600" lon="2.348000">
						<ele>54</ele>
						<time>2026-06-05T17:01:12Z</time>
					</trkpt>
					<trkpt lat="49.270900" lon="2.347860">
						<ele>56</ele>
						<time>2026-06-05T17:01:19Z</time>
					</trkpt>
					<trkpt lat="49.271160" lon="2.347600">
						<ele>60</ele>
						<time>2026-06-05T17:01:26Z</time>
					</trkpt>
					<trkpt lat="49.271210" lon="2.347280">
						<ele>64</ele>
						<time>2026-06-05T17:01:31Z</time>
					</trkpt>
					<trkpt lat="49.271690" lon="2.346740">
						<ele>74</ele>
						<time>2026-06-05T17:01:45Z</time>
					</trkpt>
					<trkpt lat="49.272060" lon="2.346340">
						<ele>77</ele>
						<time>2026-06-05T17:01:56Z</time>
					</trkpt>
					<trkpt lat="49.273340" lon="2.345420">
						<ele>85</ele>
						<time>2026-06-05T17:02:29Z</time>
					</trkpt>
					<trkpt lat="49.272020" lon="2.340820">
						<ele>90</ele>
						<time>2026-06-05T17:03:45Z</time>
					</trkpt>
					<trkpt lat="49.270220" lon="2.336260">
						<ele>93</ele>
						<time>2026-06-05T17:05:07Z</time>
					</trkpt>
					<trkpt lat="49.268320" lon="2.331880">
						<ele>97</ele>
						<time>2026-06-05T17:06:27Z</time>
					</trkpt>
					<trkpt lat="49.268430" lon="2.331090">
						<ele>98</ele>
						<time>2026-06-05T17:06:39Z</time>
					</trkpt>
					<trkpt lat="49.268550" lon="2.330640">
						<ele>99</ele>
						<time>2026-06-05T17:06:46Z</time>
					</trkpt>
					<trkpt lat="49.268730" lon="2.329590">
						<ele>99</ele>
						<time>2026-06-05T17:07:03Z</time>
					</trkpt>
					<trkpt lat="49.268820" lon="2.329280">
						<ele>100</ele>
						<time>2026-06-05T17:07:08Z</time>
					</trkpt>
					<trkpt lat="49.268910" lon="2.328780">
						<ele>101</ele>
						<time>2026-06-05T17:07:16Z</time>
					</trkpt>
					<trkpt lat="49.269020" lon="2.328430">
						<ele>102</ele>
						<time>2026-06-05T17:07:22Z</time>
					</trkpt>
					<trkpt lat="49.269040" lon="2.328200">
						<ele>102</ele>
						<time>2026-06-05T17:07:26Z</time>
					</trkpt>
					<trkpt lat="49.269310" lon="2.326960">
						<ele>104</ele>
						<time>2026-06-05T17:07:45Z</time>
					</trkpt>
					<trkpt lat="49.269470" lon="2.326080">
						<ele>106</ele>
						<time>2026-06-05T17:07:59Z</time>
					</trkpt>
					<trkpt lat="49.269470" lon="2.325920">
						<ele>107</ele>
						<time>2026-06-05T17:08:02Z</time>
					</trkpt>
					<trkpt lat="49.269550" lon="2.325610">
						<ele>108</ele>
						<time>2026-06-05T17:08:07Z</time>
					</trkpt>
					<trkpt lat="49.269650" lon="2.324910">
						<ele>110</ele>
						<time>2026-06-05T17:08:18Z</time>
					</trkpt>
					<trkpt lat="49.269700" lon="2.324750">
						<ele>110</ele>
						<time>2026-06-05T17:08:21Z</time>
					</trkpt>
					<trkpt lat="49.270050" lon="2.322960">
						<ele>110</ele>
						<time>2026-06-05T17:08:49Z</time>
					</trkpt>
					<trkpt lat="49.270210" lon="2.322300">
						<ele>111</ele>
						<time>2026-06-05T17:09:00Z</time>
					</trkpt>
					<trkpt lat="49.270250" lon="2.321990">
						<ele>111</ele>
						<time>2026-06-05T17:09:05Z</time>
					</trkpt>
					<trkpt lat="49.270240" lon="2.321840">
						<ele>111</ele>
						<time>2026-06-05T17:09:07Z</time>
					</trkpt>
					<trkpt lat="49.270360" lon="2.321490">
						<ele>110</ele>
						<time>2026-06-05T17:09:13Z</time>
					</trkpt>
					<trkpt lat="49.270540" lon="2.320480">
						<ele>109</ele>
						<time>2026-06-05T17:09:29Z</time>
					</trkpt>
					<trkpt lat="49.270890" lon="2.319000">
						<ele>106</ele>
						<time>2026-06-05T17:09:53Z</time>
					</trkpt>
					<trkpt lat="49.271050" lon="2.318140">
						<ele>104</ele>
						<time>2026-06-05T17:10:06Z</time>
					</trkpt>
					<trkpt lat="49.271050" lon="2.317980">
						<ele>104</ele>
						<time>2026-06-05T17:10:09Z</time>
					</trkpt>
					<trkpt lat="49.270950" lon="2.317660">
						<ele>104</ele>
						<time>2026-06-05T17:10:14Z</time>
					</trkpt>
					<trkpt lat="49.270660" lon="2.317020">
						<ele>106</ele>
						<time>2026-06-05T17:10:26Z</time>
					</trkpt>
					<trkpt lat="49.270500" lon="2.316430">
						<ele>107</ele>
						<time>2026-06-05T17:10:36Z</time>
					</trkpt>
					<trkpt lat="49.270360" lon="2.316170">
						<ele>108</ele>
						<time>2026-06-05T17:10:41Z</time>
					</trkpt>
					<trkpt lat="49.270020" lon="2.315130">
						<ele>110</ele>
						<time>2026-06-05T17:10:59Z</time>
					</trkpt>
					<trkpt lat="49.269960" lon="2.314760">
						<ele>110</ele>
						<time>2026-06-05T17:11:05Z</time>
					</trkpt>
					<trkpt lat="49.269720" lon="2.314210">
						<ele>111</ele>
						<time>2026-06-05T17:11:15Z</time>
					</trkpt>
					<trkpt lat="49.269560" lon="2.313720">
						<ele>112</ele>
						<time>2026-06-05T17:11:23Z</time>
					</trkpt>
					<trkpt lat="49.269410" lon="2.313490">
						<ele>112</ele>
						<time>2026-06-05T17:11:28Z</time>
					</trkpt>
					<trkpt lat="49.269230" lon="2.313300">
						<ele>113</ele>
						<time>2026-06-05T17:11:33Z</time>
					</trkpt>
					<trkpt lat="49.268760" lon="2.312970">
						<ele>113</ele>
						<time>2026-06-05T17:11:45Z</time>
					</trkpt>
					<trkpt lat="49.268150" lon="2.312460">
						<ele>112</ele>
						<time>2026-06-05T17:12:01Z</time>
					</trkpt>
					<trkpt lat="49.267670" lon="2.312180">
						<ele>111</ele>
						<time>2026-06-05T17:12:13Z</time>
					</trkpt>
					<trkpt lat="49.266930" lon="2.311600">
						<ele>108</ele>
						<time>2026-06-05T17:12:33Z</time>
					</trkpt>
					<trkpt lat="49.266660" lon="2.311460">
						<ele>108</ele>
						<time>2026-06-05T17:12:39Z</time>
					</trkpt>
					<trkpt lat="49.266450" lon="2.311300">
						<ele>108</ele>
						<time>2026-06-05T17:12:45Z</time>
					</trkpt>
					<trkpt lat="49.266350" lon="2.311190">
						<ele>108</ele>
						<time>2026-06-05T17:12:48Z</time>
					</trkpt>
					<trkpt lat="49.266230" lon="2.311120">
						<ele>108</ele>
						<time>2026-06-05T17:12:51Z</time>
					</trkpt>
					<trkpt lat="49.266130" lon="2.311000">
						<ele>108</ele>
						<time>2026-06-05T17:12:54Z</time>
					</trkpt>
					<trkpt lat="49.265540" lon="2.310590">
						<ele>108</ele>
						<time>2026-06-05T17:13:09Z</time>
					</trkpt>
					<trkpt lat="49.266240" lon="2.307680">
						<ele>104</ele>
						<time>2026-06-05T17:13:56Z</time>
					</trkpt>
					<trkpt lat="49.266290" lon="2.306110">
						<ele>104</ele>
						<time>2026-06-05T17:14:20Z</time>
					</trkpt>
					<trkpt lat="49.266160" lon="2.304630">
						<ele>105</ele>
						<time>2026-06-05T17:14:43Z</time>
					</trkpt>
					<trkpt lat="49.266290" lon="2.302590">
						<ele>96</ele>
						<time>2026-06-05T17:15:14Z</time>
					</trkpt>
					<trkpt lat="49.266530" lon="2.301610">
						<ele>93</ele>
						<time>2026-06-05T17:15:30Z</time>
					</trkpt>
					<trkpt lat="49.266970" lon="2.300420">
						<ele>87</ele>
						<time>2026-06-05T17:15:51Z</time>
					</trkpt>
					<trkpt lat="49.267370" lon="2.299610">
						<ele>77</ele>
						<time>2026-06-05T17:16:06Z</time>
					</trkpt>
					<trkpt lat="49.267650" lon="2.298850">
						<ele>68</ele>
						<time>2026-06-05T17:16:20Z</time>
					</trkpt>
					<trkpt lat="49.267700" lon="2.298340">
						<ele>67</ele>
						<time>2026-06-05T17:16:27Z</time>
					</trkpt>
					<trkpt lat="49.267130" lon="2.296520">
						<ele>71</ele>
						<time>2026-06-05T17:16:58Z</time>
					</trkpt>
					<trkpt lat="49.267010" lon="2.295840">
						<ele>76</ele>
						<time>2026-06-05T17:17:09Z</time>
					</trkpt>
					<trkpt lat="49.267050" lon="2.294440">
						<ele>78</ele>
						<time>2026-06-05T17:17:30Z</time>
					</trkpt>
					<trkpt lat="49.269680" lon="2.290010">
						<ele>73</ele>
						<time>2026-06-05T17:19:02Z</time>
					</trkpt>
					<trkpt lat="49.269480" lon="2.289780">
						<ele>74</ele>
						<time>2026-06-05T17:19:07Z</time>
					</trkpt>
					<trkpt lat="49.269100" lon="2.289660">
						<ele>74</ele>
						<time>2026-06-05T17:19:17Z</time>
					</trkpt>
					<trkpt lat="49.267890" lon="2.290310">
						<ele>77</ele>
						<time>2026-06-05T17:19:46Z</time>
					</trkpt>
					<trkpt lat="49.267380" lon="2.290380">
						<ele>78</ele>
						<time>2026-06-05T17:19:58Z</time>
					</trkpt>
					<trkpt lat="49.266690" lon="2.290150">
						<ele>81</ele>
						<time>2026-06-05T17:20:15Z</time>
					</trkpt>
					<trkpt lat="49.265620" lon="2.289600">
						<ele>90</ele>
						<time>2026-06-05T17:20:41Z</time>
					</trkpt>
					<trkpt lat="49.264710" lon="2.289410">
						<ele>97</ele>
						<time>2026-06-05T17:21:03Z</time>
					</trkpt>
					<trkpt lat="49.264280" lon="2.289460">
						<ele>97</ele>
						<time>2026-06-05T17:21:13Z</time>
					</trkpt>
					<trkpt lat="49.263980" lon="2.289160">
						<ele>97</ele>
						<time>2026-06-05T17:21:21Z</time>
					</trkpt>
					<trkpt lat="49.263190" lon="2.288780">
						<ele>96</ele>
						<time>2026-06-05T17:21:40Z</time>
					</trkpt>
					<trkpt lat="49.262820" lon="2.287780">
						<ele>97</ele>
						<time>2026-06-05T17:21:58Z</time>
					</trkpt>
					<trkpt lat="49.262630" lon="2.287140">
						<ele>96</ele>
						<time>2026-06-05T17:22:09Z</time>
					</trkpt>
					<trkpt lat="49.262500" lon="2.286390">
						<ele>100</ele>
						<time>2026-06-05T17:22:21Z</time>
					</trkpt>
					<trkpt lat="49.262440" lon="2.286220">
						<ele>101</ele>
						<time>2026-06-05T17:22:23Z</time>
					</trkpt>
					<trkpt lat="49.262420" lon="2.286070">
						<ele>103</ele>
						<time>2026-06-05T17:22:26Z</time>
					</trkpt>
					<trkpt lat="49.262160" lon="2.285380">
						<ele>105</ele>
						<time>2026-06-05T17:22:38Z</time>
					</trkpt>
					<trkpt lat="49.262050" lon="2.285290">
						<ele>104</ele>
						<time>2026-06-05T17:22:41Z</time>
					</trkpt>
					<trkpt lat="49.261740" lon="2.284410">
						<ele>102</ele>
						<time>2026-06-05T17:22:56Z</time>
					</trkpt>
					<trkpt lat="49.261500" lon="2.283260">
						<ele>106</ele>
						<time>2026-06-05T17:23:15Z</time>
					</trkpt>
					<trkpt lat="49.260940" lon="2.281700">
						<ele>107</ele>
						<time>2026-06-05T17:23:42Z</time>
					</trkpt>
					<trkpt lat="49.260910" lon="2.281540">
						<ele>107</ele>
						<time>2026-06-05T17:23:44Z</time>
					</trkpt>
					<trkpt lat="49.260820" lon="2.281300">
						<ele>107</ele>
						<time>2026-06-05T17:23:48Z</time>
					</trkpt>
					<trkpt lat="49.260750" lon="2.281200">
						<ele>108</ele>
						<time>2026-06-05T17:23:51Z</time>
					</trkpt>
					<trkpt lat="49.260440" lon="2.280340">
						<ele>113</ele>
						<time>2026-06-05T17:24:06Z</time>
					</trkpt>
					<trkpt lat="49.260150" lon="2.279680">
						<ele>113</ele>
						<time>2026-06-05T17:24:18Z</time>
					</trkpt>
					<trkpt lat="49.260080" lon="2.279420">
						<ele>114</ele>
						<time>2026-06-05T17:24:22Z</time>
					</trkpt>
					<trkpt lat="49.259990" lon="2.278880">
						<ele>115</ele>
						<time>2026-06-05T17:24:31Z</time>
					</trkpt>
					<trkpt lat="49.259890" lon="2.277270">
						<ele>124</ele>
						<time>2026-06-05T17:24:55Z</time>
					</trkpt>
					<trkpt lat="49.259880" lon="2.275790">
						<ele>131</ele>
						<time>2026-06-05T17:25:18Z</time>
					</trkpt>
					<trkpt lat="49.259890" lon="2.275210">
						<ele>136</ele>
						<time>2026-06-05T17:25:27Z</time>
					</trkpt>
					<trkpt lat="49.259920" lon="2.274920">
						<ele>138</ele>
						<time>2026-06-05T17:25:31Z</time>
					</trkpt>
					<trkpt lat="49.260000" lon="2.274600">
						<ele>141</ele>
						<time>2026-06-05T17:25:36Z</time>
					</trkpt>
					<trkpt lat="49.260280" lon="2.273840">
						<ele>151</ele>
						<time>2026-06-05T17:25:50Z</time>
					</trkpt>
					<trkpt lat="49.260450" lon="2.273180">
						<ele>157</ele>
						<time>2026-06-05T17:26:00Z</time>
					</trkpt>
					<trkpt lat="49.260800" lon="2.272310">
						<ele>161</ele>
						<time>2026-06-05T17:26:16Z</time>
					</trkpt>
					<trkpt lat="49.260930" lon="2.271900">
						<ele>166</ele>
						<time>2026-06-05T17:26:23Z</time>
					</trkpt>
					<trkpt lat="49.261300" lon="2.271080">
						<ele>178</ele>
						<time>2026-06-05T17:26:38Z</time>
					</trkpt>
					<trkpt lat="49.261390" lon="2.270620">
						<ele>181</ele>
						<time>2026-06-05T17:26:45Z</time>
					</trkpt>
					<trkpt lat="49.261370" lon="2.270050">
						<ele>182</ele>
						<time>2026-06-05T17:26:54Z</time>
					</trkpt>
					<trkpt lat="49.261410" lon="2.269930">
						<ele>181</ele>
						<time>2026-06-05T17:26:56Z</time>
					</trkpt>
					<trkpt lat="49.261570" lon="2.269910">
						<ele>181</ele>
						<time>2026-06-05T17:27:00Z</time>
					</trkpt>
					<trkpt lat="49.261760" lon="2.269960">
						<ele>181</ele>
						<time>2026-06-05T17:27:04Z</time>
					</trkpt>
					<trkpt lat="49.262040" lon="2.269980">
						<ele>181</ele>
						<time>2026-06-05T17:27:11Z</time>
					</trkpt>
					<trkpt lat="49.262230" lon="2.270030">
						<ele>182</ele>
						<time>2026-06-05T17:27:15Z</time>
					</trkpt>
					<trkpt lat="49.262700" lon="2.270240">
						<ele>183</ele>
						<time>2026-06-05T17:27:27Z</time>
					</trkpt>
					<trkpt lat="49.262780" lon="2.270340">
						<ele>184</ele>
						<time>2026-06-05T17:27:29Z</time>
					</trkpt>
					<trkpt lat="49.262960" lon="2.270470">
						<ele>184</ele>
						<time>2026-06-05T17:27:34Z</time>
					</trkpt>
					<trkpt lat="49.263040" lon="2.270560">
						<ele>185</ele>
						<time>2026-06-05T17:27:36Z</time>
					</trkpt>
					<trkpt lat="49.263140" lon="2.270570">
						<ele>185</ele>
						<time>2026-06-05T17:27:39Z</time>
					</trkpt>
					<trkpt lat="49.263430" lon="2.270680">
						<ele>186</ele>
						<time>2026-06-05T17:27:46Z</time>
					</trkpt>
					<trkpt lat="49.263530" lon="2.270740">
						<ele>186</ele>
						<time>2026-06-05T17:27:48Z</time>
					</trkpt>
					<trkpt lat="49.263630" lon="2.270760">
						<ele>186</ele>
						<time>2026-06-05T17:27:50Z</time>
					</trkpt>
					<trkpt lat="49.263740" lon="2.270830">
						<ele>187</ele>
						<time>2026-06-05T17:27:53Z</time>
					</trkpt>
					<trkpt lat="49.264130" lon="2.270770">
						<ele>187</ele>
						<time>2026-06-05T17:28:02Z</time>
					</trkpt>
					<trkpt lat="49.264350" lon="2.270820">
						<ele>186</ele>
						<time>2026-06-05T17:28:08Z</time>
					</trkpt>
					<trkpt lat="49.264440" lon="2.270900">
						<ele>186</ele>
						<time>2026-06-05T17:28:10Z</time>
					</trkpt>
					<trkpt lat="49.264540" lon="2.271060">
						<ele>187</ele>
						<time>2026-06-05T17:28:13Z</time>
					</trkpt>
					<trkpt lat="49.264660" lon="2.271130">
						<ele>187</ele>
						<time>2026-06-05T17:28:16Z</time>
					</trkpt>
					<trkpt lat="49.264770" lon="2.271160">
						<ele>186</ele>
						<time>2026-06-05T17:28:19Z</time>
					</trkpt>
					<trkpt lat="49.264970" lon="2.271490">
						<ele>188</ele>
						<time>2026-06-05T17:28:26Z</time>
					</trkpt>
					<trkpt lat="49.265260" lon="2.271740">
						<ele>188</ele>
						<time>2026-06-05T17:28:34Z</time>
					</trkpt>
					<trkpt lat="49.265410" lon="2.271940">
						<ele>187</ele>
						<time>2026-06-05T17:28:38Z</time>
					</trkpt>
					<trkpt lat="49.265520" lon="2.272000">
						<ele>186</ele>
						<time>2026-06-05T17:28:41Z</time>
					</trkpt>
					<trkpt lat="49.265810" lon="2.272280">
						<ele>185</ele>
						<time>2026-06-05T17:28:49Z</time>
					</trkpt>
					<trkpt lat="49.265910" lon="2.272390">
						<ele>184</ele>
						<time>2026-06-05T17:28:52Z</time>
					</trkpt>
					<trkpt lat="49.265990" lon="2.272570">
						<ele>183</ele>
						<time>2026-06-05T17:28:55Z</time>
					</trkpt>
					<trkpt lat="49.266350" lon="2.272830">
						<ele>178</ele>
						<time>2026-06-05T17:29:04Z</time>
					</trkpt>
					<trkpt lat="49.266640" lon="2.273140">
						<ele>173</ele>
						<time>2026-06-05T17:29:13Z</time>
					</trkpt>
					<trkpt lat="49.266740" lon="2.273150">
						<ele>172</ele>
						<time>2026-06-05T17:29:15Z</time>
					</trkpt>
					<trkpt lat="49.266820" lon="2.273240">
						<ele>170</ele>
						<time>2026-06-05T17:29:17Z</time>
					</trkpt>
					<trkpt lat="49.266950" lon="2.273320">
						<ele>169</ele>
						<time>2026-06-05T17:29:21Z</time>
					</trkpt>
					<trkpt lat="49.267040" lon="2.273260">
						<ele>169</ele>
						<time>2026-06-05T17:29:23Z</time>
					</trkpt>
					<trkpt lat="49.267410" lon="2.273300">
						<ele>167</ele>
						<time>2026-06-05T17:29:32Z</time>
					</trkpt>
					<trkpt lat="49.267560" lon="2.273360">
						<ele>165</ele>
						<time>2026-06-05T17:29:35Z</time>
					</trkpt>
					<trkpt lat="49.267840" lon="2.273390">
						<ele>161</ele>
						<time>2026-06-05T17:29:42Z</time>
					</trkpt>
					<trkpt lat="49.268120" lon="2.273570">
						<ele>154</ele>
						<time>2026-06-05T17:29:49Z</time>
					</trkpt>
					<trkpt lat="49.268510" lon="2.274120">
						<ele>141</ele>
						<time>2026-06-05T17:30:01Z</time>
					</trkpt>
					<trkpt lat="49.268730" lon="2.274270">
						<ele>138</ele>
						<time>2026-06-05T17:30:07Z</time>
					</trkpt>
					<trkpt lat="49.269010" lon="2.274410">
						<ele>136</ele>
						<time>2026-06-05T17:30:14Z</time>
					</trkpt>
					<trkpt lat="49.269480" lon="2.274790">
						<ele>131</ele>
						<time>2026-06-05T17:30:26Z</time>
					</trkpt>
					<trkpt lat="49.270310" lon="2.275270">
						<ele>123</ele>
						<time>2026-06-05T17:30:47Z</time>
					</trkpt>
					<trkpt lat="49.270550" lon="2.275380">
						<ele>122</ele>
						<time>2026-06-05T17:30:53Z</time>
					</trkpt>
					<trkpt lat="49.270770" lon="2.275430">
						<ele>121</ele>
						<time>2026-06-05T17:30:58Z</time>
					</trkpt>
					<trkpt lat="49.270940" lon="2.275340">
						<ele>118</ele>
						<time>2026-06-05T17:31:02Z</time>
					</trkpt>
					<trkpt lat="49.271050" lon="2.275350">
						<ele>116</ele>
						<time>2026-06-05T17:31:05Z</time>
					</trkpt>
					<trkpt lat="49.271180" lon="2.275420">
						<ele>114</ele>
						<time>2026-06-05T17:31:08Z</time>
					</trkpt>
					<trkpt lat="49.271840" lon="2.276020">
						<ele>107</ele>
						<time>2026-06-05T17:31:26Z</time>
					</trkpt>
					<trkpt lat="49.272420" lon="2.276450">
						<ele>104</ele>
						<time>2026-06-05T17:31:41Z</time>
					</trkpt>
					<trkpt lat="49.272900" lon="2.276710">
						<ele>102</ele>
						<time>2026-06-05T17:31:53Z</time>
					</trkpt>
					<trkpt lat="49.273010" lon="2.276720">
						<ele>101</ele>
						<time>2026-06-05T17:31:55Z</time>
					</trkpt>
					<trkpt lat="49.273140" lon="2.276810">
						<ele>99</ele>
						<time>2026-06-05T17:31:59Z</time>
					</trkpt>
					<trkpt lat="49.273260" lon="2.276810">
						<ele>98</ele>
						<time>2026-06-05T17:32:02Z</time>
					</trkpt>
					<trkpt lat="49.273400" lon="2.276900">
						<ele>96</ele>
						<time>2026-06-05T17:32:05Z</time>
					</trkpt>
					<trkpt lat="49.273520" lon="2.276930">
						<ele>95</ele>
						<time>2026-06-05T17:32:08Z</time>
					</trkpt>
					<trkpt lat="49.273830" lon="2.277270">
						<ele>91</ele>
						<time>2026-06-05T17:32:17Z</time>
					</trkpt>
					<trkpt lat="49.274200" lon="2.277780">
						<ele>86</ele>
						<time>2026-06-05T17:32:28Z</time>
					</trkpt>
					<trkpt lat="49.274240" lon="2.277660">
						<ele>86</ele>
						<time>2026-06-05T17:32:30Z</time>
					</trkpt>
					<trkpt lat="49.274370" lon="2.277580">
						<ele>85</ele>
						<time>2026-06-05T17:32:34Z</time>
					</trkpt>
					<trkpt lat="49.274600" lon="2.277230">
						<ele>83</ele>
						<time>2026-06-05T17:32:41Z</time>
					</trkpt>
					<trkpt lat="49.274700" lon="2.276940">
						<ele>82</ele>
						<time>2026-06-05T17:32:46Z</time>
					</trkpt>
					<trkpt lat="49.274570" lon="2.276350">
						<ele>83</ele>
						<time>2026-06-05T17:32:56Z</time>
					</trkpt>
					<trkpt lat="49.274510" lon="2.276200">
						<ele>83</ele>
						<time>2026-06-05T17:32:58Z</time>
					</trkpt>
					<trkpt lat="49.274480" lon="2.275830">
						<ele>84</ele>
						<time>2026-06-05T17:33:04Z</time>
					</trkpt>
					<trkpt lat="49.274400" lon="2.275690">
						<ele>85</ele>
						<time>2026-06-05T17:33:07Z</time>
					</trkpt>
					<trkpt lat="49.274360" lon="2.275560">
						<ele>85</ele>
						<time>2026-06-05T17:33:09Z</time>
					</trkpt>
					<trkpt lat="49.274350" lon="2.275410">
						<ele>86</ele>
						<time>2026-06-05T17:33:11Z</time>
					</trkpt>
					<trkpt lat="49.274260" lon="2.275110">
						<ele>88</ele>
						<time>2026-06-05T17:33:17Z</time>
					</trkpt>
					<trkpt lat="49.274120" lon="2.274810">
						<ele>89</ele>
						<time>2026-06-05T17:33:22Z</time>
					</trkpt>
					<trkpt lat="49.274110" lon="2.274670">
						<ele>90</ele>
						<time>2026-06-05T17:33:24Z</time>
					</trkpt>
					<trkpt lat="49.273960" lon="2.274120">
						<ele>93</ele>
						<time>2026-06-05T17:33:33Z</time>
					</trkpt>
					<trkpt lat="49.273800" lon="2.273380">
						<ele>98</ele>
						<time>2026-06-05T17:33:45Z</time>
					</trkpt>
					<trkpt lat="49.273770" lon="2.272900">
						<ele>101</ele>
						<time>2026-06-05T17:33:53Z</time>
					</trkpt>
					<trkpt lat="49.273670" lon="2.272450">
						<ele>103</ele>
						<time>2026-06-05T17:34:00Z</time>
					</trkpt>
					<trkpt lat="49.273620" lon="2.271990">
						<ele>108</ele>
						<time>2026-06-05T17:34:07Z</time>
					</trkpt>
					<trkpt lat="49.273620" lon="2.271660">
						<ele>111</ele>
						<time>2026-06-05T17:34:12Z</time>
					</trkpt>
					<trkpt lat="49.273580" lon="2.271510">
						<ele>112</ele>
						<time>2026-06-05T17:34:14Z</time>
					</trkpt>
					<trkpt lat="49.273580" lon="2.271310">
						<ele>114</ele>
						<time>2026-06-05T17:34:17Z</time>
					</trkpt>
					<trkpt lat="49.273500" lon="2.270580">
						<ele>118</ele>
						<time>2026-06-05T17:34:29Z</time>
					</trkpt>
					<trkpt lat="49.273520" lon="2.270230">
						<ele>121</ele>
						<time>2026-06-05T17:34:34Z</time>
					</trkpt>
					<trkpt lat="49.273490" lon="2.270050">
						<ele>121</ele>
						<time>2026-06-05T17:34:37Z</time>
					</trkpt>
					<trkpt lat="49.273520" lon="2.269880">
						<ele>123</ele>
						<time>2026-06-05T17:34:40Z</time>
					</trkpt>
					<trkpt lat="49.273510" lon="2.269720">
						<ele>124</ele>
						<time>2026-06-05T17:34:42Z</time>
					</trkpt>
					<trkpt lat="49.273550" lon="2.269240">
						<ele>127</ele>
						<time>2026-06-05T17:34:49Z</time>
					</trkpt>
					<trkpt lat="49.273590" lon="2.269070">
						<ele>128</ele>
						<time>2026-06-05T17:34:52Z</time>
					</trkpt>
					<trkpt lat="49.273590" lon="2.268870">
						<ele>129</ele>
						<time>2026-06-05T17:34:55Z</time>
					</trkpt>
					<trkpt lat="49.273720" lon="2.268290">
						<ele>134</ele>
						<time>2026-06-05T17:35:05Z</time>
					</trkpt>
					<trkpt lat="49.273720" lon="2.267430">
						<ele>143</ele>
						<time>2026-06-05T17:35:18Z</time>
					</trkpt>
					<trkpt lat="49.273760" lon="2.267560">
						<ele>142</ele>
						<time>2026-06-05T17:35:20Z</time>
					</trkpt>
					<trkpt lat="49.273930" lon="2.268570">
						<ele>133</ele>
						<time>2026-06-05T17:35:36Z</time>
					</trkpt>
					<trkpt lat="49.274120" lon="2.269180">
						<ele>130</ele>
						<time>2026-06-05T17:35:46Z</time>
					</trkpt>
					<trkpt lat="49.274180" lon="2.269670">
						<ele>127</ele>
						<time>2026-06-05T17:35:54Z</time>
					</trkpt>
					<trkpt lat="49.274260" lon="2.270080">
						<ele>124</ele>
						<time>2026-06-05T17:36:00Z</time>
					</trkpt>
					<trkpt lat="49.274440" lon="2.270530">
						<ele>121</ele>
						<time>2026-06-05T17:36:08Z</time>
					</trkpt>
					<trkpt lat="49.274580" lon="2.270690">
						<ele>120</ele>
						<time>2026-06-05T17:36:12Z</time>
					</trkpt>
					<trkpt lat="49.274700" lon="2.270770">
						<ele>119</ele>
						<time>2026-06-05T17:36:15Z</time>
					</trkpt>
					<trkpt lat="49.274780" lon="2.270880">
						<ele>118</ele>
						<time>2026-06-05T17:36:18Z</time>
					</trkpt>
					<trkpt lat="49.275270" lon="2.271280">
						<ele>111</ele>
						<time>2026-06-05T17:36:31Z</time>
					</trkpt>
					<trkpt lat="49.275700" lon="2.271740">
						<ele>104</ele>
						<time>2026-06-05T17:36:43Z</time>
					</trkpt>
					<trkpt lat="49.275890" lon="2.271970">
						<ele>101</ele>
						<time>2026-06-05T17:36:49Z</time>
					</trkpt>
					<trkpt lat="49.275950" lon="2.272090">
						<ele>100</ele>
						<time>2026-06-05T17:36:51Z</time>
					</trkpt>
					<trkpt lat="49.276160" lon="2.272310">
						<ele>97</ele>
						<time>2026-06-05T17:36:57Z</time>
					</trkpt>
					<trkpt lat="49.276420" lon="2.272770">
						<ele>93</ele>
						<time>2026-06-05T17:37:06Z</time>
					</trkpt>
					<trkpt lat="49.276610" lon="2.272950">
						<ele>90</ele>
						<time>2026-06-05T17:37:11Z</time>
					</trkpt>
					<trkpt lat="49.276740" lon="2.273200">
						<ele>89</ele>
						<time>2026-06-05T17:37:16Z</time>
					</trkpt>
					<trkpt lat="49.276860" lon="2.273250">
						<ele>87</ele>
						<time>2026-06-05T17:37:19Z</time>
					</trkpt>
					<trkpt lat="49.276980" lon="2.272950">
						<ele>86</ele>
						<time>2026-06-05T17:37:25Z</time>
					</trkpt>
					<trkpt lat="49.277020" lon="2.272660">
						<ele>86</ele>
						<time>2026-06-05T17:37:29Z</time>
					</trkpt>
					<trkpt lat="49.277010" lon="2.272490">
						<ele>87</ele>
						<time>2026-06-05T17:37:32Z</time>
					</trkpt>
					<trkpt lat="49.277090" lon="2.272370">
						<ele>87</ele>
						<time>2026-06-05T17:37:34Z</time>
					</trkpt>
					<trkpt lat="49.277060" lon="2.272160">
						<ele>88</ele>
						<time>2026-06-05T17:37:38Z</time>
					</trkpt>
					<trkpt lat="49.277130" lon="2.272050">
						<ele>88</ele>
						<time>2026-06-05T17:37:40Z</time>
					</trkpt>
					<trkpt lat="49.277160" lon="2.271910">
						<ele>88</ele>
						<time>2026-06-05T17:37:42Z</time>
					</trkpt>
					<trkpt lat="49.277160" lon="2.271450">
						<ele>90</ele>
						<time>2026-06-05T17:37:49Z</time>
					</trkpt>
					<trkpt lat="49.277370" lon="2.270710">
						<ele>89</ele>
						<time>2026-06-05T17:38:02Z</time>
					</trkpt>
					<trkpt lat="49.277490" lon="2.270630">
						<ele>87</ele>
						<time>2026-06-05T17:38:05Z</time>
					</trkpt>
					<trkpt lat="49.277530" lon="2.270450">
						<ele>86</ele>
						<time>2026-06-05T17:38:07Z</time>
					</trkpt>
					<trkpt lat="49.277830" lon="2.269900">
						<ele>84</ele>
						<time>2026-06-05T17:38:18Z</time>
					</trkpt>
					<trkpt lat="49.278000" lon="2.269650">
						<ele>84</ele>
						<time>2026-06-05T17:38:24Z</time>
					</trkpt>
					<trkpt lat="49.279270" lon="2.268550">
						<ele>89</ele>
						<time>2026-06-05T17:38:58Z</time>
					</trkpt>
					<trkpt lat="49.279470" lon="2.268350">
						<ele>89</ele>
						<time>2026-06-05T17:39:04Z</time>
					</trkpt>
					<trkpt lat="49.279550" lon="2.268220">
						<ele>89</ele>
						<time>2026-06-05T17:39:06Z</time>
					</trkpt>
					<trkpt lat="49.279850" lon="2.267920">
						<ele>89</ele>
						<time>2026-06-05T17:39:15Z</time>
					</trkpt>
					<trkpt lat="49.280020" lon="2.267670">
						<ele>89</ele>
						<time>2026-06-05T17:39:20Z</time>
					</trkpt>
					<trkpt lat="49.280120" lon="2.267340">
						<ele>90</ele>
						<time>2026-06-05T17:39:26Z</time>
					</trkpt>
					<trkpt lat="49.280200" lon="2.267180">
						<ele>90</ele>
						<time>2026-06-05T17:39:29Z</time>
					</trkpt>
					<trkpt lat="49.280270" lon="2.266960">
						<ele>90</ele>
						<time>2026-06-05T17:39:32Z</time>
					</trkpt>
					<trkpt lat="49.280420" lon="2.266720">
						<ele>89</ele>
						<time>2026-06-05T17:39:38Z</time>
					</trkpt>
					<trkpt lat="49.280550" lon="2.266290">
						<ele>89</ele>
						<time>2026-06-05T17:39:45Z</time>
					</trkpt>
					<trkpt lat="49.280590" lon="2.265990">
						<ele>89</ele>
						<time>2026-06-05T17:39:49Z</time>
					</trkpt>
					<trkpt lat="49.280660" lon="2.265860">
						<ele>89</ele>
						<time>2026-06-05T17:39:52Z</time>
					</trkpt>
					<trkpt lat="49.280710" lon="2.265460">
						<ele>89</ele>
						<time>2026-06-05T17:39:58Z</time>
					</trkpt>
					<trkpt lat="49.280800" lon="2.265160">
						<ele>88</ele>
						<time>2026-06-05T17:40:03Z</time>
					</trkpt>
					<trkpt lat="49.280890" lon="2.264970">
						<ele>88</ele>
						<time>2026-06-05T17:40:07Z</time>
					</trkpt>
					<trkpt lat="49.281020" lon="2.265000">
						<ele>87</ele>
						<time>2026-06-05T17:40:10Z</time>
					</trkpt>
					<trkpt lat="49.281210" lon="2.265180">
						<ele>86</ele>
						<time>2026-06-05T17:40:15Z</time>
					</trkpt>
					<trkpt lat="49.281330" lon="2.265350">
						<ele>85</ele>
						<time>2026-06-05T17:40:19Z</time>
					</trkpt>
					<trkpt lat="49.281750" lon="2.266080">
						<ele>83</ele>
						<time>2026-06-05T17:40:34Z</time>
					</trkpt>
					<trkpt lat="49.282050" lon="2.266760">
						<ele>82</ele>
						<time>2026-06-05T17:40:46Z</time>
					</trkpt>
					<trkpt lat="49.282170" lon="2.267260">
						<ele>81</ele>
						<time>2026-06-05T17:40:54Z</time>
					</trkpt>
					<trkpt lat="49.282220" lon="2.267750">
						<ele>80</ele>
						<time>2026-06-05T17:41:02Z</time>
					</trkpt>
					<trkpt lat="49.282270" lon="2.267900">
						<ele>80</ele>
						<time>2026-06-05T17:41:04Z</time>
					</trkpt>
					<trkpt lat="49.282390" lon="2.267880">
						<ele>79</ele>
						<time>2026-06-05T17:41:07Z</time>
					</trkpt>
					<trkpt lat="49.282560" lon="2.267670">
						<ele>78</ele>
						<time>2026-06-05T17:41:12Z</time>
					</trkpt>
					<trkpt lat="49.282800" lon="2.267240">
						<ele>78</ele>
						<time>2026-06-05T17:41:21Z</time>
					</trkpt>
					<trkpt lat="49.282990" lon="2.267060">
						<ele>77</ele>
						<time>2026-06-05T17:41:26Z</time>
					</trkpt>
					<trkpt lat="49.283160" lon="2.266820">
						<ele>77</ele>
						<time>2026-06-05T17:41:32Z</time>
					</trkpt>
					<trkpt lat="49.283710" lon="2.266220">
						<ele>78</ele>
						<time>2026-06-05T17:41:47Z</time>
					</trkpt>
					<trkpt lat="49.283830" lon="2.266050">
						<ele>78</ele>
						<time>2026-06-05T17:41:51Z</time>
					</trkpt>
					<trkpt lat="49.284240" lon="2.265650">
						<ele>78</ele>
						<time>2026-06-05T17:42:03Z</time>
					</trkpt>
					<trkpt lat="49.284770" lon="2.265480">
						<ele>78</ele>
						<time>2026-06-05T17:42:15Z</time>
					</trkpt>
					<trkpt lat="49.284970" lon="2.265480">
						<ele>78</ele>
						<time>2026-06-05T17:42:20Z</time>
					</trkpt>
					<trkpt lat="49.285100" lon="2.265440">
						<ele>78</ele>
						<time>2026-06-05T17:42:23Z</time>
					</trkpt>
					<trkpt lat="49.285420" lon="2.265410">
						<ele>78</ele>
						<time>2026-06-05T17:42:30Z</time>
					</trkpt>
					<trkpt lat="49.285540" lon="2.265370">
						<ele>79</ele>
						<time>2026-06-05T17:42:33Z</time>
					</trkpt>
					<trkpt lat="49.285630" lon="2.265310">
						<ele>79</ele>
						<time>2026-06-05T17:42:36Z</time>
					</trkpt>
					<trkpt lat="49.285830" lon="2.265300">
						<ele>79</ele>
						<time>2026-06-05T17:42:40Z</time>
					</trkpt>
					<trkpt lat="49.285930" lon="2.265230">
						<ele>79</ele>
						<time>2026-06-05T17:42:43Z</time>
					</trkpt>
					<trkpt lat="49.286340" lon="2.265080">
						<ele>79</ele>
						<time>2026-06-05T17:42:53Z</time>
					</trkpt>
					<trkpt lat="49.286480" lon="2.264990">
						<ele>79</ele>
						<time>2026-06-05T17:42:56Z</time>
					</trkpt>
					<trkpt lat="49.286840" lon="2.264820">
						<ele>80</ele>
						<time>2026-06-05T17:43:05Z</time>
					</trkpt>
					<trkpt lat="49.287090" lon="2.264780">
						<ele>80</ele>
						<time>2026-06-05T17:43:11Z</time>
					</trkpt>
					<trkpt lat="49.287370" lon="2.264680">
						<ele>80</ele>
						<time>2026-06-05T17:43:18Z</time>
					</trkpt>
					<trkpt lat="49.288030" lon="2.264550">
						<ele>80</ele>
						<time>2026-06-05T17:43:33Z</time>
					</trkpt>
					<trkpt lat="49.288250" lon="2.264540">
						<ele>81</ele>
						<time>2026-06-05T17:43:38Z</time>
					</trkpt>
					<trkpt lat="49.288410" lon="2.264500">
						<ele>81</ele>
						<time>2026-06-05T17:43:42Z</time>
					</trkpt>
					<trkpt lat="49.288830" lon="2.264360">
						<ele>82</ele>
						<time>2026-06-05T17:43:52Z</time>
					</trkpt>
					<trkpt lat="49.288930" lon="2.264270">
						<ele>82</ele>
						<time>2026-06-05T17:43:55Z</time>
					</trkpt>
					<trkpt lat="49.288900" lon="2.264110">
						<ele>83</ele>
						<time>2026-06-05T17:43:57Z</time>
					</trkpt>
					<trkpt lat="49.288420" lon="2.263120">
						<ele>84</ele>
						<time>2026-06-05T17:44:16Z</time>
					</trkpt>
					<trkpt lat="49.288350" lon="2.262770">
						<ele>84</ele>
						<time>2026-06-05T17:44:22Z</time>
					</trkpt>
					<trkpt lat="49.288210" lon="2.262480">
						<ele>85</ele>
						<time>2026-06-05T17:44:27Z</time>
					</trkpt>
					<trkpt lat="49.288110" lon="2.262070">
						<ele>86</ele>
						<time>2026-06-05T17:44:34Z</time>
					</trkpt>
					<trkpt lat="49.287980" lon="2.261820">
						<ele>87</ele>
						<time>2026-06-05T17:44:39Z</time>
					</trkpt>
					<trkpt lat="49.287900" lon="2.261720">
						<ele>87</ele>
						<time>2026-06-05T17:44:41Z</time>
					</trkpt>
					<trkpt lat="49.287870" lon="2.261580">
						<ele>87</ele>
						<time>2026-06-05T17:44:43Z</time>
					</trkpt>
					<trkpt lat="49.287760" lon="2.261310">
						<ele>88</ele>
						<time>2026-06-05T17:44:48Z</time>
					</trkpt>
					<trkpt lat="49.287560" lon="2.261210">
						<ele>87</ele>
						<time>2026-06-05T17:44:53Z</time>
					</trkpt>
					<trkpt lat="49.287540" lon="2.261040">
						<ele>88</ele>
						<time>2026-06-05T17:44:56Z</time>
					</trkpt>
					<trkpt lat="49.287480" lon="2.260920">
						<ele>89</ele>
						<time>2026-06-05T17:44:58Z</time>
					</trkpt>
					<trkpt lat="49.287380" lon="2.260870">
						<ele>89</ele>
						<time>2026-06-05T17:45:01Z</time>
					</trkpt>
					<trkpt lat="49.287320" lon="2.260740">
						<ele>89</ele>
						<time>2026-06-05T17:45:03Z</time>
					</trkpt>
					<trkpt lat="49.287240" lon="2.260640">
						<ele>89</ele>
						<time>2026-06-05T17:45:05Z</time>
					</trkpt>
					<trkpt lat="49.287180" lon="2.260460">
						<ele>90</ele>
						<time>2026-06-05T17:45:08Z</time>
					</trkpt>
					<trkpt lat="49.287090" lon="2.260360">
						<ele>90</ele>
						<time>2026-06-05T17:45:11Z</time>
					</trkpt>
					<trkpt lat="49.287040" lon="2.260210">
						<ele>90</ele>
						<time>2026-06-05T17:45:14Z</time>
					</trkpt>
					<trkpt lat="49.286960" lon="2.260100">
						<ele>90</ele>
						<time>2026-06-05T17:45:16Z</time>
					</trkpt>
					<trkpt lat="49.286850" lon="2.259850">
						<ele>90</ele>
						<time>2026-06-05T17:45:21Z</time>
					</trkpt>
					<trkpt lat="49.286720" lon="2.259630">
						<ele>90</ele>
						<time>2026-06-05T17:45:25Z</time>
					</trkpt>
					<trkpt lat="49.286550" lon="2.259170">
						<ele>91</ele>
						<time>2026-06-05T17:45:33Z</time>
					</trkpt>
					<trkpt lat="49.286420" lon="2.259090">
						<ele>92</ele>
						<time>2026-06-05T17:45:37Z</time>
					</trkpt>
					<trkpt lat="49.286330" lon="2.258930">
						<ele>92</ele>
						<time>2026-06-05T17:45:40Z</time>
					</trkpt>
					<trkpt lat="49.286240" lon="2.258660">
						<ele>93</ele>
						<time>2026-06-05T17:45:44Z</time>
					</trkpt>
					<trkpt lat="49.286210" lon="2.258330">
						<ele>94</ele>
						<time>2026-06-05T17:45:50Z</time>
					</trkpt>
					<trkpt lat="49.286140" lon="2.258230">
						<ele>94</ele>
						<time>2026-06-05T17:45:52Z</time>
					</trkpt>
					<trkpt lat="49.286100" lon="2.258110">
						<ele>95</ele>
						<time>2026-06-05T17:45:54Z</time>
					</trkpt>
					<trkpt lat="49.286080" lon="2.257940">
						<ele>96</ele>
						<time>2026-06-05T17:45:56Z</time>
					</trkpt>
					<trkpt lat="49.286280" lon="2.257520">
						<ele>97</ele>
						<time>2026-06-05T17:46:04Z</time>
					</trkpt>
					<trkpt lat="49.286470" lon="2.257190">
						<ele>98</ele>
						<time>2026-06-05T17:46:11Z</time>
					</trkpt>
					<trkpt lat="49.286530" lon="2.257010">
						<ele>99</ele>
						<time>2026-06-05T17:46:14Z</time>
					</trkpt>
					<trkpt lat="49.286670" lon="2.256760">
						<ele>100</ele>
						<time>2026-06-05T17:46:19Z</time>
					</trkpt>
					<trkpt lat="49.286760" lon="2.256660">
						<ele>100</ele>
						<time>2026-06-05T17:46:22Z</time>
					</trkpt>
					<trkpt lat="49.287020" lon="2.256140">
						<ele>101</ele>
						<time>2026-06-05T17:46:32Z</time>
					</trkpt>
					<trkpt lat="49.287250" lon="2.255770">
						<ele>101</ele>
						<time>2026-06-05T17:46:40Z</time>
					</trkpt>
					<trkpt lat="49.287240" lon="2.255600">
						<ele>101</ele>
						<time>2026-06-05T17:46:42Z</time>
					</trkpt>
					<trkpt lat="49.287310" lon="2.256010">
						<ele>101</ele>
						<time>2026-06-05T17:46:49Z</time>
					</trkpt>
					<trkpt lat="49.287300" lon="2.256170">
						<ele>101</ele>
						<time>2026-06-05T17:46:51Z</time>
					</trkpt>
					<trkpt lat="49.287420" lon="2.256460">
						<ele>101</ele>
						<time>2026-06-05T17:46:56Z</time>
					</trkpt>
					<trkpt lat="49.287440" lon="2.256610">
						<ele>101</ele>
						<time>2026-06-05T17:46:59Z</time>
					</trkpt>
					<trkpt lat="49.287500" lon="2.256720">
						<ele>101</ele>
						<time>2026-06-05T17:47:01Z</time>
					</trkpt>
					<trkpt lat="49.287640" lon="2.257230">
						<ele>101</ele>
						<time>2026-06-05T17:47:09Z</time>
					</trkpt>
					<trkpt lat="49.287860" lon="2.257630">
						<ele>101</ele>
						<time>2026-06-05T17:47:17Z</time>
					</trkpt>
					<trkpt lat="49.287890" lon="2.257760">
						<ele>101</ele>
						<time>2026-06-05T17:47:19Z</time>
					</trkpt>
					<trkpt lat="49.288140" lon="2.258100">
						<ele>102</ele>
						<time>2026-06-05T17:47:27Z</time>
					</trkpt>
					<trkpt lat="49.288340" lon="2.258440">
						<ele>103</ele>
						<time>2026-06-05T17:47:34Z</time>
					</trkpt>
					<trkpt lat="49.288420" lon="2.258640">
						<ele>102</ele>
						<time>2026-06-05T17:47:38Z</time>
					</trkpt>
					<trkpt lat="49.288570" lon="2.258880">
						<ele>101</ele>
						<time>2026-06-05T17:47:43Z</time>
					</trkpt>
					<trkpt lat="49.288600" lon="2.259020">
						<ele>100</ele>
						<time>2026-06-05T17:47:45Z</time>
					</trkpt>
					<trkpt lat="49.288830" lon="2.259540">
						<ele>99</ele>
						<time>2026-06-05T17:47:54Z</time>
					</trkpt>
					<trkpt lat="49.289130" lon="2.260040">
						<ele>98</ele>
						<time>2026-06-05T17:48:05Z</time>
					</trkpt>
					<trkpt lat="49.289270" lon="2.260510">
						<ele>94</ele>
						<time>2026-06-05T17:48:13Z</time>
					</trkpt>
					<trkpt lat="49.289440" lon="2.260930">
						<ele>91</ele>
						<time>2026-06-05T17:48:20Z</time>
					</trkpt>
					<trkpt lat="49.289660" lon="2.261590">
						<ele>89</ele>
						<time>2026-06-05T17:48:32Z</time>
					</trkpt>
					<trkpt lat="49.289810" lon="2.261890">
						<ele>88</ele>
						<time>2026-06-05T17:48:37Z</time>
					</trkpt>
					<trkpt lat="49.290180" lon="2.262540">
						<ele>86</ele>
						<time>2026-06-05T17:48:50Z</time>
					</trkpt>
					<trkpt lat="49.290710" lon="2.263290">
						<ele>85</ele>
						<time>2026-06-05T17:49:07Z</time>
					</trkpt>
					<trkpt lat="49.290770" lon="2.263420">
						<ele>85</ele>
						<time>2026-06-05T17:49:10Z</time>
					</trkpt>
					<trkpt lat="49.290970" lon="2.263670">
						<ele>84</ele>
						<time>2026-06-05T17:49:16Z</time>
					</trkpt>
					<trkpt lat="49.291310" lon="2.263960">
						<ele>82</ele>
						<time>2026-06-05T17:49:25Z</time>
					</trkpt>
					<trkpt lat="49.291890" lon="2.264330">
						<ele>80</ele>
						<time>2026-06-05T17:49:39Z</time>
					</trkpt>
					<trkpt lat="49.292130" lon="2.264520">
						<ele>80</ele>
						<time>2026-06-05T17:49:46Z</time>
					</trkpt>
					<trkpt lat="49.292270" lon="2.264570">
						<ele>79</ele>
						<time>2026-06-05T17:49:49Z</time>
					</trkpt>
					<trkpt lat="49.292480" lon="2.264690">
						<ele>78</ele>
						<time>2026-06-05T17:49:54Z</time>
					</trkpt>
					<trkpt lat="49.292860" lon="2.264560">
						<ele>77</ele>
						<time>2026-06-05T17:50:03Z</time>
					</trkpt>
					<trkpt lat="49.293000" lon="2.264460">
						<ele>76</ele>
						<time>2026-06-05T17:50:07Z</time>
					</trkpt>
					<trkpt lat="49.293170" lon="2.264280">
						<ele>75</ele>
						<time>2026-06-05T17:50:12Z</time>
					</trkpt>
					<trkpt lat="49.293530" lon="2.263770">
						<ele>74</ele>
						<time>2026-06-05T17:50:23Z</time>
					</trkpt>
					<trkpt lat="49.293670" lon="2.263490">
						<ele>74</ele>
						<time>2026-06-05T17:50:29Z</time>
					</trkpt>
					<trkpt lat="49.293830" lon="2.263250">
						<ele>75</ele>
						<time>2026-06-05T17:50:34Z</time>
					</trkpt>
					<trkpt lat="49.293990" lon="2.262910">
						<ele>75</ele>
						<time>2026-06-05T17:50:40Z</time>
					</trkpt>
					<trkpt lat="49.294130" lon="2.262400">
						<ele>76</ele>
						<time>2026-06-05T17:50:49Z</time>
					</trkpt>
					<trkpt lat="49.294190" lon="2.262050">
						<ele>77</ele>
						<time>2026-06-05T17:50:54Z</time>
					</trkpt>
					<trkpt lat="49.294190" lon="2.261900">
						<ele>77</ele>
						<time>2026-06-05T17:50:57Z</time>
					</trkpt>
					<trkpt lat="49.294340" lon="2.261100">
						<ele>78</ele>
						<time>2026-06-05T17:51:09Z</time>
					</trkpt>
					<trkpt lat="49.294430" lon="2.260800">
						<ele>79</ele>
						<time>2026-06-05T17:51:14Z</time>
					</trkpt>
					<trkpt lat="49.294520" lon="2.260650">
						<ele>79</ele>
						<time>2026-06-05T17:51:17Z</time>
					</trkpt>
					<trkpt lat="49.294560" lon="2.260510">
						<ele>80</ele>
						<time>2026-06-05T17:51:20Z</time>
					</trkpt>
					<trkpt lat="49.294460" lon="2.260410">
						<ele>80</ele>
						<time>2026-06-05T17:51:22Z</time>
					</trkpt>
					<trkpt lat="49.294060" lon="2.260170">
						<ele>80</ele>
						<time>2026-06-05T17:51:33Z</time>
					</trkpt>
					<trkpt lat="49.293880" lon="2.260030">
						<ele>80</ele>
						<time>2026-06-05T17:51:37Z</time>
					</trkpt>
					<trkpt lat="49.293540" lon="2.259640">
						<ele>80</ele>
						<time>2026-06-05T17:51:47Z</time>
					</trkpt>
					<trkpt lat="49.293280" lon="2.259490">
						<ele>80</ele>
						<time>2026-06-05T17:51:54Z</time>
					</trkpt>
					<trkpt lat="49.292980" lon="2.259240">
						<ele>80</ele>
						<time>2026-06-05T17:52:02Z</time>
					</trkpt>
					<trkpt lat="49.292820" lon="2.259040">
						<ele>81</ele>
						<time>2026-06-05T17:52:06Z</time>
					</trkpt>
					<trkpt lat="49.292580" lon="2.258660">
						<ele>82</ele>
						<time>2026-06-05T17:52:14Z</time>
					</trkpt>
					<trkpt lat="49.292400" lon="2.258290">
						<ele>83</ele>
						<time>2026-06-05T17:52:22Z</time>
					</trkpt>
					<trkpt lat="49.292340" lon="2.258100">
						<ele>84</ele>
						<time>2026-06-05T17:52:25Z</time>
					</trkpt>
					<trkpt lat="49.292260" lon="2.257980">
						<ele>85</ele>
						<time>2026-06-05T17:52:27Z</time>
					</trkpt>
					<trkpt lat="49.292160" lon="2.257710">
						<ele>86</ele>
						<time>2026-06-05T17:52:32Z</time>
					</trkpt>
					<trkpt lat="49.292060" lon="2.257580">
						<ele>86</ele>
						<time>2026-06-05T17:52:35Z</time>
					</trkpt>
					<trkpt lat="49.292020" lon="2.257450">
						<ele>87</ele>
						<time>2026-06-05T17:52:37Z</time>
					</trkpt>
					<trkpt lat="49.291780" lon="2.256960">
						<ele>87</ele>
						<time>2026-06-05T17:52:47Z</time>
					</trkpt>
					<trkpt lat="49.291690" lon="2.256870">
						<ele>88</ele>
						<time>2026-06-05T17:52:49Z</time>
					</trkpt>
					<trkpt lat="49.291430" lon="2.256220">
						<ele>90</ele>
						<time>2026-06-05T17:53:01Z</time>
					</trkpt>
					<trkpt lat="49.291230" lon="2.255900">
						<ele>92</ele>
						<time>2026-06-05T17:53:08Z</time>
					</trkpt>
					<trkpt lat="49.291120" lon="2.255590">
						<ele>93</ele>
						<time>2026-06-05T17:53:13Z</time>
					</trkpt>
					<trkpt lat="49.290990" lon="2.255350">
						<ele>95</ele>
						<time>2026-06-05T17:53:18Z</time>
					</trkpt>
					<trkpt lat="49.290840" lon="2.254960">
						<ele>96</ele>
						<time>2026-06-05T17:53:25Z</time>
					</trkpt>
					<trkpt lat="49.290700" lon="2.254750">
						<ele>96</ele>
						<time>2026-06-05T17:53:29Z</time>
					</trkpt>
					<trkpt lat="49.290650" lon="2.254600">
						<ele>97</ele>
						<time>2026-06-05T17:53:32Z</time>
					</trkpt>
					<trkpt lat="49.290360" lon="2.254030">
						<ele>98</ele>
						<time>2026-06-05T17:53:43Z</time>
					</trkpt>
					<trkpt lat="49.289980" lon="2.252840">
						<ele>100</ele>
						<time>2026-06-05T17:54:03Z</time>
					</trkpt>
					<trkpt lat="49.289740" lon="2.252310">
						<ele>103</ele>
						<time>2026-06-05T17:54:13Z</time>
					</trkpt>
					<trkpt lat="49.289680" lon="2.252000">
						<ele>105</ele>
						<time>2026-06-05T17:54:18Z</time>
					</trkpt>
					<trkpt lat="49.289780" lon="2.251880">
						<ele>106</ele>
						<time>2026-06-05T17:54:21Z</time>
					</trkpt>
					<trkpt lat="49.289880" lon="2.251560">
						<ele>109</ele>
						<time>2026-06-05T17:54:26Z</time>
					</trkpt>
					<trkpt lat="49.289970" lon="2.251220">
						<ele>111</ele>
						<time>2026-06-05T17:54:32Z</time>
					</trkpt>
					<trkpt lat="49.290020" lon="2.250780">
						<ele>113</ele>
						<time>2026-06-05T17:54:38Z</time>
					</trkpt>
					<trkpt lat="49.289950" lon="2.250120">
						<ele>116</ele>
						<time>2026-06-05T17:54:49Z</time>
					</trkpt>
					<trkpt lat="49.289970" lon="2.249970">
						<ele>117</ele>
						<time>2026-06-05T17:54:51Z</time>
					</trkpt>
					<trkpt lat="49.289940" lon="2.249800">
						<ele>117</ele>
						<time>2026-06-05T17:54:54Z</time>
					</trkpt>
					<trkpt lat="49.289950" lon="2.249620">
						<ele>118</ele>
						<time>2026-06-05T17:54:56Z</time>
					</trkpt>
					<trkpt lat="49.289850" lon="2.249110">
						<ele>119</ele>
						<time>2026-06-05T17:55:04Z</time>
					</trkpt>
					<trkpt lat="49.289890" lon="2.248850">
						<ele>119</ele>
						<time>2026-06-05T17:55:09Z</time>
					</trkpt>
					<trkpt lat="49.289880" lon="2.248520">
						<ele>119</ele>
						<time>2026-06-05T17:55:14Z</time>
					</trkpt>
					<trkpt lat="49.289830" lon="2.248380">
						<ele>119</ele>
						<time>2026-06-05T17:55:16Z</time>
					</trkpt>
					<trkpt lat="49.289820" lon="2.248220">
						<ele>119</ele>
						<time>2026-06-05T17:55:18Z</time>
					</trkpt>
					<trkpt lat="49.289770" lon="2.248070">
						<ele>119</ele>
						<time>2026-06-05T17:55:21Z</time>
					</trkpt>
					<trkpt lat="49.289720" lon="2.247720">
						<ele>118</ele>
						<time>2026-06-05T17:55:26Z</time>
					</trkpt>
					<trkpt lat="49.289720" lon="2.247130">
						<ele>115</ele>
						<time>2026-06-05T17:55:35Z</time>
					</trkpt>
					<trkpt lat="49.289620" lon="2.246400">
						<ele>114</ele>
						<time>2026-06-05T17:55:47Z</time>
					</trkpt>
					<trkpt lat="49.289680" lon="2.245650">
						<ele>111</ele>
						<time>2026-06-05T17:55:58Z</time>
					</trkpt>
					<trkpt lat="49.289660" lon="2.245390">
						<ele>110</ele>
						<time>2026-06-05T17:56:02Z</time>
					</trkpt>
					<trkpt lat="49.289760" lon="2.244630">
						<ele>108</ele>
						<time>2026-06-05T17:56:14Z</time>
					</trkpt>
					<trkpt lat="49.289840" lon="2.244280">
						<ele>107</ele>
						<time>2026-06-05T17:56:20Z</time>
					</trkpt>
					<trkpt lat="49.289920" lon="2.244070">
						<ele>105</ele>
						<time>2026-06-05T17:56:23Z</time>
					</trkpt>
					<trkpt lat="49.290090" lon="2.243390">
						<ele>103</ele>
						<time>2026-06-05T17:56:35Z</time>
					</trkpt>
					<trkpt lat="49.290170" lon="2.243280">
						<ele>103</ele>
						<time>2026-06-05T17:56:37Z</time>
					</trkpt>
					<trkpt lat="49.290230" lon="2.243010">
						<ele>104</ele>
						<time>2026-06-05T17:56:41Z</time>
					</trkpt>
					<trkpt lat="49.290450" lon="2.242520">
						<ele>104</ele>
						<time>2026-06-05T17:56:50Z</time>
					</trkpt>
					<trkpt lat="49.290580" lon="2.242540">
						<ele>103</ele>
						<time>2026-06-05T17:56:54Z</time>
					</trkpt>
					<trkpt lat="49.290590" lon="2.242400">
						<ele>103</ele>
						<time>2026-06-05T17:56:56Z</time>
					</trkpt>
					<trkpt lat="49.290710" lon="2.242200">
						<ele>104</ele>
						<time>2026-06-05T17:57:00Z</time>
					</trkpt>
					<trkpt lat="49.290870" lon="2.242000">
						<ele>104</ele>
						<time>2026-06-05T17:57:05Z</time>
					</trkpt>
					<trkpt lat="49.291200" lon="2.241670">
						<ele>106</ele>
						<time>2026-06-05T17:57:14Z</time>
					</trkpt>
					<trkpt lat="49.291520" lon="2.241450">
						<ele>109</ele>
						<time>2026-06-05T17:57:22Z</time>
					</trkpt>
					<trkpt lat="49.292060" lon="2.240990">
						<ele>111</ele>
						<time>2026-06-05T17:57:36Z</time>
					</trkpt>
					<trkpt lat="49.292320" lon="2.240720">
						<ele>112</ele>
						<time>2026-06-05T17:57:44Z</time>
					</trkpt>
					<trkpt lat="49.292540" lon="2.240450">
						<ele>111</ele>
						<time>2026-06-05T17:57:50Z</time>
					</trkpt>
					<trkpt lat="49.292880" lon="2.239900">
						<ele>110</ele>
						<time>2026-06-05T17:58:02Z</time>
					</trkpt>
					<trkpt lat="49.292960" lon="2.239940">
						<ele>110</ele>
						<time>2026-06-05T17:58:04Z</time>
					</trkpt>
					<trkpt lat="49.292930" lon="2.240100">
						<ele>110</ele>
						<time>2026-06-05T17:58:06Z</time>
					</trkpt>
					<trkpt lat="49.292430" lon="2.240800">
						<ele>112</ele>
						<time>2026-06-05T17:58:22Z</time>
					</trkpt>
					<trkpt lat="49.292460" lon="2.241020">
						<ele>112</ele>
						<time>2026-06-05T17:58:26Z</time>
					</trkpt>
					<trkpt lat="49.293760" lon="2.242690">
						<ele>105</ele>
						<time>2026-06-05T17:59:05Z</time>
					</trkpt>
					<trkpt lat="49.295020" lon="2.244190">
						<ele>100</ele>
						<time>2026-06-05T17:59:43Z</time>
					</trkpt>
					<trkpt lat="49.296420" lon="2.245950">
						<ele>94</ele>
						<time>2026-06-05T18:00:25Z</time>
					</trkpt>
					<trkpt lat="49.297640" lon="2.248290">
						<ele>91</ele>
						<time>2026-06-05T18:01:10Z</time>
					</trkpt>
					<trkpt lat="49.298540" lon="2.248680">
						<ele>89</ele>
						<time>2026-06-05T18:01:32Z</time>
					</trkpt>
					<trkpt lat="49.299490" lon="2.248780">
						<ele>85</ele>
						<time>2026-06-05T18:01:54Z</time>
					</trkpt>
					<trkpt lat="49.299760" lon="2.249040">
						<ele>85</ele>
						<time>2026-06-05T18:02:02Z</time>
					</trkpt>
					<trkpt lat="49.299950" lon="2.249150">
						<ele>84</ele>
						<time>2026-06-05T18:02:07Z</time>
					</trkpt>
					<trkpt lat="49.300230" lon="2.249040">
						<ele>84</ele>
						<time>2026-06-05T18:02:13Z</time>
					</trkpt>
					<trkpt lat="49.300480" lon="2.249790">
						<ele>83</ele>
						<time>2026-06-05T18:02:26Z</time>
					</trkpt>
					<trkpt lat="49.300960" lon="2.248690">
						<ele>82</ele>
						<time>2026-06-05T18:02:46Z</time>
					</trkpt>
					<trkpt lat="49.301260" lon="2.248350">
						<ele>82</ele>
						<time>2026-06-05T18:02:55Z</time>
					</trkpt>
					<trkpt lat="49.301380" lon="2.248610">
						<ele>82</ele>
						<time>2026-06-05T18:03:00Z</time>
					</trkpt>
					<trkpt lat="49.301700" lon="2.249470">
						<ele>81</ele>
						<time>2026-06-05T18:03:15Z</time>
					</trkpt>
					<trkpt lat="49.301710" lon="2.249980">
						<ele>81</ele>
						<time>2026-06-05T18:03:23Z</time>
					</trkpt>
					<trkpt lat="49.302030" lon="2.251000">
						<ele>81</ele>
						<time>2026-06-05T18:03:40Z</time>
					</trkpt>
					<trkpt lat="49.301920" lon="2.252320">
						<ele>79</ele>
						<time>2026-06-05T18:04:00Z</time>
					</trkpt>
					<trkpt lat="49.301860" lon="2.252770">
						<ele>79</ele>
						<time>2026-06-05T18:04:07Z</time>
					</trkpt>
					<trkpt lat="49.301770" lon="2.253130">
						<ele>79</ele>
						<time>2026-06-05T18:04:13Z</time>
					</trkpt>
					<trkpt lat="49.301610" lon="2.254340">
						<ele>78</ele>
						<time>2026-06-05T18:04:32Z</time>
					</trkpt>
					<trkpt lat="49.300990" lon="2.255720">
						<ele>79</ele>
						<time>2026-06-05T18:04:58Z</time>
					</trkpt>
					<trkpt lat="49.300630" lon="2.256710">
						<ele>81</ele>
						<time>2026-06-05T18:05:15Z</time>
					</trkpt>
					<trkpt lat="49.300460" lon="2.257610">
						<ele>84</ele>
						<time>2026-06-05T18:05:29Z</time>
					</trkpt>
					<trkpt lat="49.300250" lon="2.258010">
						<ele>82</ele>
						<time>2026-06-05T18:05:37Z</time>
					</trkpt>
					<trkpt lat="49.300110" lon="2.259830">
						<ele>85</ele>
						<time>2026-06-05T18:06:05Z</time>
					</trkpt>
					<trkpt lat="49.299500" lon="2.262170">
						<ele>82</ele>
						<time>2026-06-05T18:06:43Z</time>
					</trkpt>
					<trkpt lat="49.299330" lon="2.262540">
						<ele>79</ele>
						<time>2026-06-05T18:06:50Z</time>
					</trkpt>
					<trkpt lat="49.299710" lon="2.263930">
						<ele>86</ele>
						<time>2026-06-05T18:07:13Z</time>
					</trkpt>
					<trkpt lat="49.299790" lon="2.265100">
						<ele>90</ele>
						<time>2026-06-05T18:07:31Z</time>
					</trkpt>
					<trkpt lat="49.299700" lon="2.265360">
						<ele>90</ele>
						<time>2026-06-05T18:07:35Z</time>
					</trkpt>
					<trkpt lat="49.299450" lon="2.265890">
						<ele>90</ele>
						<time>2026-06-05T18:07:45Z</time>
					</trkpt>
					<trkpt lat="49.299360" lon="2.266180">
						<ele>90</ele>
						<time>2026-06-05T18:07:50Z</time>
					</trkpt>
					<trkpt lat="49.299180" lon="2.267350">
						<ele>92</ele>
						<time>2026-06-05T18:08:09Z</time>
					</trkpt>
					<trkpt lat="49.299270" lon="2.267960">
						<ele>95</ele>
						<time>2026-06-05T18:08:18Z</time>
					</trkpt>
					<trkpt lat="49.299710" lon="2.270100">
						<ele>106</ele>
						<time>2026-06-05T18:08:52Z</time>
					</trkpt>
					<trkpt lat="49.300180" lon="2.271390">
						<ele>107</ele>
						<time>2026-06-05T18:09:15Z</time>
					</trkpt>
					<trkpt lat="49.309150" lon="2.265540">
						<ele>122</ele>
						<time>2026-06-05T18:13:02Z</time>
					</trkpt>
					<trkpt lat="49.319680" lon="2.259020">
						<ele>116</ele>
						<time>2026-06-05T18:17:28Z</time>
					</trkpt>
					<trkpt lat="49.323420" lon="2.256000">
						<ele>111</ele>
						<time>2026-06-05T18:19:06Z</time>
					</trkpt>
					<trkpt lat="49.323130" lon="2.257000">
						<ele>110</ele>
						<time>2026-06-05T18:19:23Z</time>
					</trkpt>
					<trkpt lat="49.325860" lon="2.262630">
						<ele>113</ele>
						<time>2026-06-05T18:21:10Z</time>
					</trkpt>
					<trkpt lat="49.326340" lon="2.263530">
						<ele>112</ele>
						<time>2026-06-05T18:21:27Z</time>
					</trkpt>
					<trkpt lat="49.326560" lon="2.264320">
						<ele>113</ele>
						<time>2026-06-05T18:21:41Z</time>
					</trkpt>
					<trkpt lat="49.326720" lon="2.265800">
						<ele>112</ele>
						<time>2026-06-05T18:22:03Z</time>
					</trkpt>
					<trkpt lat="49.329110" lon="2.266360">
						<ele>109</ele>
						<time>2026-06-05T18:23:00Z</time>
					</trkpt>
					<trkpt lat="49.329990" lon="2.266510">
						<ele>109</ele>
						<time>2026-06-05T18:23:20Z</time>
					</trkpt>
					<trkpt lat="49.330250" lon="2.267400">
						<ele>112</ele>
						<time>2026-06-05T18:23:35Z</time>
					</trkpt>
					<trkpt lat="49.330560" lon="2.267820">
						<ele>111</ele>
						<time>2026-06-05T18:23:45Z</time>
					</trkpt>
					<trkpt lat="49.330910" lon="2.268150">
						<ele>111</ele>
						<time>2026-06-05T18:23:55Z</time>
					</trkpt>
					<trkpt lat="49.331120" lon="2.268040">
						<ele>112</ele>
						<time>2026-06-05T18:24:00Z</time>
					</trkpt>
					<trkpt lat="49.331370" lon="2.267690">
						<ele>112</ele>
						<time>2026-06-05T18:24:08Z</time>
					</trkpt>
					<trkpt lat="49.331280" lon="2.268870">
						<ele>111</ele>
						<time>2026-06-05T18:24:26Z</time>
					</trkpt>
					<trkpt lat="49.330920" lon="2.270250">
						<ele>105</ele>
						<time>2026-06-05T18:24:48Z</time>
					</trkpt>
					<trkpt lat="49.330820" lon="2.270540">
						<ele>104</ele>
						<time>2026-06-05T18:24:53Z</time>
					</trkpt>
					<trkpt lat="49.330870" lon="2.271160">
						<ele>102</ele>
						<time>2026-06-05T18:25:03Z</time>
					</trkpt>
					<trkpt lat="49.331030" lon="2.271490">
						<ele>100</ele>
						<time>2026-06-05T18:25:09Z</time>
					</trkpt>
					<trkpt lat="49.330620" lon="2.273790">
						<ele>109</ele>
						<time>2026-06-05T18:25:45Z</time>
					</trkpt>
					<trkpt lat="49.330020" lon="2.276550">
						<ele>106</ele>
						<time>2026-06-05T18:26:30Z</time>
					</trkpt>
					<trkpt lat="49.329730" lon="2.277570">
						<ele>106</ele>
						<time>2026-06-05T18:26:47Z</time>
					</trkpt>
					<trkpt lat="49.329130" lon="2.279110">
						<ele>101</ele>
						<time>2026-06-05T18:27:14Z</time>
					</trkpt>
					<trkpt lat="49.327970" lon="2.278550">
						<ele>104</ele>
						<time>2026-06-05T18:27:42Z</time>
					</trkpt>
					<trkpt lat="49.325330" lon="2.276040">
						<ele>107</ele>
						<time>2026-06-05T18:28:55Z</time>
					</trkpt>
					<trkpt lat="49.323060" lon="2.273350">
						<ele>111</ele>
						<time>2026-06-05T18:30:02Z</time>
					</trkpt>
					<trkpt lat="49.320100" lon="2.273340">
						<ele>114</ele>
						<time>2026-06-05T18:31:11Z</time>
					</trkpt>
					<trkpt lat="49.317550" lon="2.273050">
						<ele>110</ele>
						<time>2026-06-05T18:32:11Z</time>
					</trkpt>
					<trkpt lat="49.317000" lon="2.272440">
						<ele>109</ele>
						<time>2026-06-05T18:32:27Z</time>
					</trkpt>
					<trkpt lat="49.316610" lon="2.271360">
						<ele>108</ele>
						<time>2026-06-05T18:32:45Z</time>
					</trkpt>
					<trkpt lat="49.316470" lon="2.271320">
						<ele>107</ele>
						<time>2026-06-05T18:32:49Z</time>
					</trkpt>
					<trkpt lat="49.316340" lon="2.271400">
						<ele>106</ele>
						<time>2026-06-05T18:32:52Z</time>
					</trkpt>
					<trkpt lat="49.316340" lon="2.271620">
						<ele>106</ele>
						<time>2026-06-05T18:32:55Z</time>
					</trkpt>
					<trkpt lat="49.316440" lon="2.271940">
						<ele>106</ele>
						<time>2026-06-05T18:33:01Z</time>
					</trkpt>
					<trkpt lat="49.316480" lon="2.272380">
						<ele>105</ele>
						<time>2026-06-05T18:33:07Z</time>
					</trkpt>
					<trkpt lat="49.316470" lon="2.272570">
						<ele>104</ele>
						<time>2026-06-05T18:33:10Z</time>
					</trkpt>
					<trkpt lat="49.316410" lon="2.272710">
						<ele>103</ele>
						<time>2026-06-05T18:33:13Z</time>
					</trkpt>
					<trkpt lat="49.316980" lon="2.274570">
						<ele>98</ele>
						<time>2026-06-05T18:33:44Z</time>
					</trkpt>
					<trkpt lat="49.317780" lon="2.276250">
						<ele>89</ele>
						<time>2026-06-05T18:34:16Z</time>
					</trkpt>
					<trkpt lat="49.318460" lon="2.276770">
						<ele>79</ele>
						<time>2026-06-05T18:34:34Z</time>
					</trkpt>
					<trkpt lat="49.319150" lon="2.277680">
						<ele>72</ele>
						<time>2026-06-05T18:34:55Z</time>
					</trkpt>
					<trkpt lat="49.319430" lon="2.278470">
						<ele>69</ele>
						<time>2026-06-05T18:35:09Z</time>
					</trkpt>
					<trkpt lat="49.319850" lon="2.278840">
						<ele>67</ele>
						<time>2026-06-05T18:35:20Z</time>
					</trkpt>
					<trkpt lat="49.320850" lon="2.279340">
						<ele>67</ele>
						<time>2026-06-05T18:35:44Z</time>
					</trkpt>
					<trkpt lat="49.322160" lon="2.279530">
						<ele>73</ele>
						<time>2026-06-05T18:36:15Z</time>
					</trkpt>
					<trkpt lat="49.322760" lon="2.279790">
						<ele>73</ele>
						<time>2026-06-05T18:36:30Z</time>
					</trkpt>
					<trkpt lat="49.323380" lon="2.280580">
						<ele>74</ele>
						<time>2026-06-05T18:36:49Z</time>
					</trkpt>
					<trkpt lat="49.323730" lon="2.280960">
						<ele>73</ele>
						<time>2026-06-05T18:36:59Z</time>
					</trkpt>
					<trkpt lat="49.324520" lon="2.282590">
						<ele>71</ele>
						<time>2026-06-05T18:37:29Z</time>
					</trkpt>
					<trkpt lat="49.324500" lon="2.282680">
						<ele>73</ele>
						<time>2026-06-05T18:37:31Z</time>
					</trkpt>
					<trkpt lat="49.323940" lon="2.282490">
						<ele>82</ele>
						<time>2026-06-05T18:37:44Z</time>
					</trkpt>
					<trkpt lat="49.322820" lon="2.281520">
						<ele>94</ele>
						<time>2026-06-05T18:38:14Z</time>
					</trkpt>
					<trkpt lat="49.322590" lon="2.281350">
						<ele>95</ele>
						<time>2026-06-05T18:38:20Z</time>
					</trkpt>
					<trkpt lat="49.322240" lon="2.281260">
						<ele>96</ele>
						<time>2026-06-05T18:38:29Z</time>
					</trkpt>
					<trkpt lat="49.321330" lon="2.281350">
						<ele>100</ele>
						<time>2026-06-05T18:38:50Z</time>
					</trkpt>
					<trkpt lat="49.320480" lon="2.281800">
						<ele>103</ele>
						<time>2026-06-05T18:39:11Z</time>
					</trkpt>
					<trkpt lat="49.320620" lon="2.282240">
						<ele>105</ele>
						<time>2026-06-05T18:39:18Z</time>
					</trkpt>
					<trkpt lat="49.320970" lon="2.283180">
						<ele>108</ele>
						<time>2026-06-05T18:39:35Z</time>
					</trkpt>
					<trkpt lat="49.321630" lon="2.284400">
						<ele>113</ele>
						<time>2026-06-05T18:39:59Z</time>
					</trkpt>
					<trkpt lat="49.323910" lon="2.289180">
						<ele>110</ele>
						<time>2026-06-05T18:41:29Z</time>
					</trkpt>
					<trkpt lat="49.322760" lon="2.290750">
						<ele>108</ele>
						<time>2026-06-05T18:42:05Z</time>
					</trkpt>
					<trkpt lat="49.322340" lon="2.291230">
						<ele>103</ele>
						<time>2026-06-05T18:42:17Z</time>
					</trkpt>
					<trkpt lat="49.322070" lon="2.291330">
						<ele>101</ele>
						<time>2026-06-05T18:42:24Z</time>
					</trkpt>
					<trkpt lat="49.322010" lon="2.291430">
						<ele>101</ele>
						<time>2026-06-05T18:42:26Z</time>
					</trkpt>
					<trkpt lat="49.322050" lon="2.291570">
						<ele>100</ele>
						<time>2026-06-05T18:42:28Z</time>
					</trkpt>
					<trkpt lat="49.322310" lon="2.291880">
						<ele>97</ele>
						<time>2026-06-05T18:42:36Z</time>
					</trkpt>
					<trkpt lat="49.322130" lon="2.292580">
						<ele>94</ele>
						<time>2026-06-05T18:42:47Z</time>
					</trkpt>
					<trkpt lat="49.322110" lon="2.293010">
						<ele>95</ele>
						<time>2026-06-05T18:42:54Z</time>
					</trkpt>
					<trkpt lat="49.321990" lon="2.293320">
						<ele>97</ele>
						<time>2026-06-05T18:42:59Z</time>
					</trkpt>
					<trkpt lat="49.321960" lon="2.293560">
						<ele>97</ele>
						<time>2026-06-05T18:43:03Z</time>
					</trkpt>
					<trkpt lat="49.321630" lon="2.294230">
						<ele>101</ele>
						<time>2026-06-05T18:43:16Z</time>
					</trkpt>
					<trkpt lat="49.320310" lon="2.298440">
						<ele>99</ele>
						<time>2026-06-05T18:44:27Z</time>
					</trkpt>
					<trkpt lat="49.319810" lon="2.298140">
						<ele>106</ele>
						<time>2026-06-05T18:44:40Z</time>
					</trkpt>
					<trkpt lat="49.319200" lon="2.297410">
						<ele>109</ele>
						<time>2026-06-05T18:44:58Z</time>
					</trkpt>
					<trkpt lat="49.318740" lon="2.297060">
						<ele>110</ele>
						<time>2026-06-05T18:45:10Z</time>
					</trkpt>
					<trkpt lat="49.316860" lon="2.294360">
						<ele>113</ele>
						<time>2026-06-05T18:46:10Z</time>
					</trkpt>
					<trkpt lat="49.317120" lon="2.297110">
						<ele>112</ele>
						<time>2026-06-05T18:46:52Z</time>
					</trkpt>
					<trkpt lat="49.317060" lon="2.297520">
						<ele>112</ele>
						<time>2026-06-05T18:46:58Z</time>
					</trkpt>
					<trkpt lat="49.317190" lon="2.297990">
						<ele>112</ele>
						<time>2026-06-05T18:47:06Z</time>
					</trkpt>
					<trkpt lat="49.317440" lon="2.300030">
						<ele>112</ele>
						<time>2026-06-05T18:47:38Z</time>
					</trkpt>
					<trkpt lat="49.315450" lon="2.301020">
						<ele>112</ele>
						<time>2026-06-05T18:48:27Z</time>
					</trkpt>
					<trkpt lat="49.315320" lon="2.301190">
						<ele>112</ele>
						<time>2026-06-05T18:48:31Z</time>
					</trkpt>
					<trkpt lat="49.314160" lon="2.305740">
						<ele>106</ele>
						<time>2026-06-05T18:49:45Z</time>
					</trkpt>
					<trkpt lat="49.312800" lon="2.309020">
						<ele>101</ele>
						<time>2026-06-05T18:50:44Z</time>
					</trkpt>
					<trkpt lat="49.311940" lon="2.310370">
						<ele>96</ele>
						<time>2026-06-05T18:51:13Z</time>
					</trkpt>
					<trkpt lat="49.311630" lon="2.310650">
						<ele>95</ele>
						<time>2026-06-05T18:51:21Z</time>
					</trkpt>
					<trkpt lat="49.311300" lon="2.311150">
						<ele>93</ele>
						<time>2026-06-05T18:51:32Z</time>
					</trkpt>
					<trkpt lat="49.311130" lon="2.311810">
						<ele>92</ele>
						<time>2026-06-05T18:51:43Z</time>
					</trkpt>
					<trkpt lat="49.311030" lon="2.312530">
						<ele>91</ele>
						<time>2026-06-05T18:51:54Z</time>
					</trkpt>
					<trkpt lat="49.310870" lon="2.313290">
						<ele>89</ele>
						<time>2026-06-05T18:52:06Z</time>
					</trkpt>
					<trkpt lat="49.310850" lon="2.313900">
						<ele>84</ele>
						<time>2026-06-05T18:52:16Z</time>
					</trkpt>
					<trkpt lat="49.310940" lon="2.314600">
						<ele>79</ele>
						<time>2026-06-05T18:52:26Z</time>
					</trkpt>
					<trkpt lat="49.311280" lon="2.315620">
						<ele>74</ele>
						<time>2026-06-05T18:52:44Z</time>
					</trkpt>
					<trkpt lat="49.311430" lon="2.316270">
						<ele>69</ele>
						<time>2026-06-05T18:52:54Z</time>
					</trkpt>
					<trkpt lat="49.311410" lon="2.316510">
						<ele>68</ele>
						<time>2026-06-05T18:52:58Z</time>
					</trkpt>
					<trkpt lat="49.311190" lon="2.316820">
						<ele>65</ele>
						<time>2026-06-05T18:53:05Z</time>
					</trkpt>
					<trkpt lat="49.310880" lon="2.317130">
						<ele>62</ele>
						<time>2026-06-05T18:53:14Z</time>
					</trkpt>
					<trkpt lat="49.310790" lon="2.317350">
						<ele>60</ele>
						<time>2026-06-05T18:53:18Z</time>
					</trkpt>
					<trkpt lat="49.310770" lon="2.317630">
						<ele>59</ele>
						<time>2026-06-05T18:53:22Z</time>
					</trkpt>
					<trkpt lat="49.311080" lon="2.318620">
						<ele>54</ele>
						<time>2026-06-05T18:53:39Z</time>
					</trkpt>
					<trkpt lat="49.311150" lon="2.318930">
						<ele>52</ele>
						<time>2026-06-05T18:53:44Z</time>
					</trkpt>
					<trkpt lat="49.311120" lon="2.319750">
						<ele>49</ele>
						<time>2026-06-05T18:53:56Z</time>
					</trkpt>
					<trkpt lat="49.310750" lon="2.319930">
						<ele>48</ele>
						<time>2026-06-05T18:54:05Z</time>
					</trkpt>
					<trkpt lat="49.310450" lon="2.319970">
						<ele>47</ele>
						<time>2026-06-05T18:54:12Z</time>
					</trkpt>
					<trkpt lat="49.310190" lon="2.319730">
						<ele>47</ele>
						<time>2026-06-05T18:54:19Z</time>
					</trkpt>
					<trkpt lat="49.309350" lon="2.317710">
						<ele>50</ele>
						<time>2026-06-05T18:54:56Z</time>
					</trkpt>
					<trkpt lat="49.309030" lon="2.317490">
						<ele>50</ele>
						<time>2026-06-05T18:55:04Z</time>
					</trkpt>
					<trkpt lat="49.308870" lon="2.317140">
						<ele>50</ele>
						<time>2026-06-05T18:55:11Z</time>
					</trkpt>
					<trkpt lat="49.307780" lon="2.316680">
						<ele>64</ele>
						<time>2026-06-05T18:55:37Z</time>
					</trkpt>
					<trkpt lat="49.307420" lon="2.316390">
						<ele>71</ele>
						<time>2026-06-05T18:55:46Z</time>
					</trkpt>
					<trkpt lat="49.307190" lon="2.315760">
						<ele>74</ele>
						<time>2026-06-05T18:55:57Z</time>
					</trkpt>
					<trkpt lat="49.307010" lon="2.315370">
						<ele>78</ele>
						<time>2026-06-05T18:56:05Z</time>
					</trkpt>
					<trkpt lat="49.306850" lon="2.314740">
						<ele>82</ele>
						<time>2026-06-05T18:56:15Z</time>
					</trkpt>
					<trkpt lat="49.306580" lon="2.314100">
						<ele>88</ele>
						<time>2026-06-05T18:56:27Z</time>
					</trkpt>
					<trkpt lat="49.306130" lon="2.313640">
						<ele>90</ele>
						<time>2026-06-05T18:56:39Z</time>
					</trkpt>
					<trkpt lat="49.305590" lon="2.313380">
						<ele>92</ele>
						<time>2026-06-05T18:56:52Z</time>
					</trkpt>
					<trkpt lat="49.305390" lon="2.313520">
						<ele>94</ele>
						<time>2026-06-05T18:56:58Z</time>
					</trkpt>
					<trkpt lat="49.305020" lon="2.314030">
						<ele>97</ele>
						<time>2026-06-05T18:57:09Z</time>
					</trkpt>
					<trkpt lat="49.301640" lon="2.316670">
						<ele>100</ele>
						<time>2026-06-05T18:58:38Z</time>
					</trkpt>
					<trkpt lat="49.301240" lon="2.317220">
						<ele>96</ele>
						<time>2026-06-05T18:58:50Z</time>
					</trkpt>
					<trkpt lat="49.301170" lon="2.317480">
						<ele>96</ele>
						<time>2026-06-05T18:58:55Z</time>
					</trkpt>
					<trkpt lat="49.301360" lon="2.318090">
						<ele>96</ele>
						<time>2026-06-05T18:59:05Z</time>
					</trkpt>
					<trkpt lat="49.301310" lon="2.318320">
						<ele>95</ele>
						<time>2026-06-05T18:59:09Z</time>
					</trkpt>
					<trkpt lat="49.300250" lon="2.319650">
						<ele>95</ele>
						<time>2026-06-05T18:59:41Z</time>
					</trkpt>
					<trkpt lat="49.300260" lon="2.319900">
						<ele>96</ele>
						<time>2026-06-05T18:59:44Z</time>
					</trkpt>
					<trkpt lat="49.300570" lon="2.321030">
						<ele>96</ele>
						<time>2026-06-05T19:00:03Z</time>
					</trkpt>
					<trkpt lat="49.301280" lon="2.325030">
						<ele>99</ele>
						<time>2026-06-05T19:01:06Z</time>
					</trkpt>
					<trkpt lat="49.301280" lon="2.325310">
						<ele>97</ele>
						<time>2026-06-05T19:01:10Z</time>
					</trkpt>
					<trkpt lat="49.300420" lon="2.325400">
						<ele>95</ele>
						<time>2026-06-05T19:01:31Z</time>
					</trkpt>
					<trkpt lat="49.299620" lon="2.325440">
						<ele>94</ele>
						<time>2026-06-05T19:01:49Z</time>
					</trkpt>
					<trkpt lat="49.298380" lon="2.325710">
						<ele>92</ele>
						<time>2026-06-05T19:02:19Z</time>
					</trkpt>
					<trkpt lat="49.297320" lon="2.326140">
						<ele>89</ele>
						<time>2026-06-05T19:02:44Z</time>
					</trkpt>
					<trkpt lat="49.296490" lon="2.326670">
						<ele>88</ele>
						<time>2026-06-05T19:03:05Z</time>
					</trkpt>
					<trkpt lat="49.295890" lon="2.327880">
						<ele>84</ele>
						<time>2026-06-05T19:03:28Z</time>
					</trkpt>
					<trkpt lat="49.295170" lon="2.327120">
						<ele>90</ele>
						<time>2026-06-05T19:03:49Z</time>
					</trkpt>
					<trkpt lat="49.294640" lon="2.325860">
						<ele>93</ele>
						<time>2026-06-05T19:04:12Z</time>
					</trkpt>
					<trkpt lat="49.293860" lon="2.323300">
						<ele>94</ele>
						<time>2026-06-05T19:04:55Z</time>
					</trkpt>
					<trkpt lat="49.293950" lon="2.320510">
						<ele>97</ele>
						<time>2026-06-05T19:05:37Z</time>
					</trkpt>
					<trkpt lat="49.293790" lon="2.319150">
						<ele>99</ele>
						<time>2026-06-05T19:05:58Z</time>
					</trkpt>
					<trkpt lat="49.293080" lon="2.317510">
						<ele>99</ele>
						<time>2026-06-05T19:06:28Z</time>
					</trkpt>
					<trkpt lat="49.292430" lon="2.316170">
						<ele>101</ele>
						<time>2026-06-05T19:06:54Z</time>
					</trkpt>
					<trkpt lat="49.291630" lon="2.313100">
						<ele>107</ele>
						<time>2026-06-05T19:07:44Z</time>
					</trkpt>
					<trkpt lat="49.290420" lon="2.308800">
						<ele>112</ele>
						<time>2026-06-05T19:08:55Z</time>
					</trkpt>
					<trkpt lat="49.290070" lon="2.307060">
						<ele>112</ele>
						<time>2026-06-05T19:09:23Z</time>
					</trkpt>
					<trkpt lat="49.287960" lon="2.300590">
						<ele>113</ele>
						<time>2026-06-05T19:11:13Z</time>
					</trkpt>
					<trkpt lat="49.280720" lon="2.305150">
						<ele>98</ele>
						<time>2026-06-05T19:14:16Z</time>
					</trkpt>
					<trkpt lat="49.279750" lon="2.306630">
						<ele>91</ele>
						<time>2026-06-05T19:14:48Z</time>
					</trkpt>
					<trkpt lat="49.279700" lon="2.307760">
						<ele>88</ele>
						<time>2026-06-05T19:15:05Z</time>
					</trkpt>
					<trkpt lat="49.279750" lon="2.309480">
						<ele>82</ele>
						<time>2026-06-05T19:15:31Z</time>
					</trkpt>
					<trkpt lat="49.279520" lon="2.309120">
						<ele>80</ele>
						<time>2026-06-05T19:15:39Z</time>
					</trkpt>
					<trkpt lat="49.279270" lon="2.308230">
						<ele>80</ele>
						<time>2026-06-05T19:15:54Z</time>
					</trkpt>
					<trkpt lat="49.279120" lon="2.308300">
						<ele>78</ele>
						<time>2026-06-05T19:15:58Z</time>
					</trkpt>
					<trkpt lat="49.279080" lon="2.308620">
						<ele>76</ele>
						<time>2026-06-05T19:16:02Z</time>
					</trkpt>
					<trkpt lat="49.278970" lon="2.311610">
						<ele>67</ele>
						<time>2026-06-05T19:16:48Z</time>
					</trkpt>
					<trkpt lat="49.279160" lon="2.311830">
						<ele>67</ele>
						<time>2026-06-05T19:16:54Z</time>
					</trkpt>
					<trkpt lat="49.279380" lon="2.312580">
						<ele>64</ele>
						<time>2026-06-05T19:17:06Z</time>
					</trkpt>
					<trkpt lat="49.279300" lon="2.313130">
						<ele>62</ele>
						<time>2026-06-05T19:17:15Z</time>
					</trkpt>
					<trkpt lat="49.279380" lon="2.313870">
						<ele>65</ele>
						<time>2026-06-05T19:17:26Z</time>
					</trkpt>
					<trkpt lat="49.279890" lon="2.314280">
						<ele>71</ele>
						<time>2026-06-05T19:17:40Z</time>
					</trkpt>
					<trkpt lat="49.280020" lon="2.314770">
						<ele>72</ele>
						<time>2026-06-05T19:17:48Z</time>
					</trkpt>
					<trkpt lat="49.280010" lon="2.315430">
						<ele>73</ele>
						<time>2026-06-05T19:17:58Z</time>
					</trkpt>
					<trkpt lat="49.280080" lon="2.315900">
						<ele>75</ele>
						<time>2026-06-05T19:18:05Z</time>
					</trkpt>
					<trkpt lat="49.280330" lon="2.316420">
						<ele>77</ele>
						<time>2026-06-05T19:18:15Z</time>
					</trkpt>
					<trkpt lat="49.280480" lon="2.316900">
						<ele>77</ele>
						<time>2026-06-05T19:18:23Z</time>
					</trkpt>
					<trkpt lat="49.280320" lon="2.318240">
						<ele>70</ele>
						<time>2026-06-05T19:18:44Z</time>
					</trkpt>
					<trkpt lat="49.279920" lon="2.318700">
						<ele>64</ele>
						<time>2026-06-05T19:18:56Z</time>
					</trkpt>
					<trkpt lat="49.279910" lon="2.319030">
						<ele>63</ele>
						<time>2026-06-05T19:19:01Z</time>
					</trkpt>
					<trkpt lat="49.280200" lon="2.320050">
						<ele>61</ele>
						<time>2026-06-05T19:19:17Z</time>
					</trkpt>
					<trkpt lat="49.281290" lon="2.319120">
						<ele>70</ele>
						<time>2026-06-05T19:19:47Z</time>
					</trkpt>
					<trkpt lat="49.281910" lon="2.318990">
						<ele>76</ele>
						<time>2026-06-05T19:20:01Z</time>
					</trkpt>
					<trkpt lat="49.282350" lon="2.319050">
						<ele>81</ele>
						<time>2026-06-05T19:20:12Z</time>
					</trkpt>
					<trkpt lat="49.283560" lon="2.318930">
						<ele>89</ele>
						<time>2026-06-05T19:20:40Z</time>
					</trkpt>
					<trkpt lat="49.285040" lon="2.318550">
						<ele>91</ele>
						<time>2026-06-05T19:21:15Z</time>
					</trkpt>
					<trkpt lat="49.284800" lon="2.319190">
						<ele>93</ele>
						<time>2026-06-05T19:21:26Z</time>
					</trkpt>
					<trkpt lat="49.284640" lon="2.319920">
						<ele>95</ele>
						<time>2026-06-05T19:21:38Z</time>
					</trkpt>
					<trkpt lat="49.283670" lon="2.321130">
						<ele>90</ele>
						<time>2026-06-05T19:22:07Z</time>
					</trkpt>
					<trkpt lat="49.282960" lon="2.322410">
						<ele>83</ele>
						<time>2026-06-05T19:22:33Z</time>
					</trkpt>
					<trkpt lat="49.282260" lon="2.323950">
						<ele>75</ele>
						<time>2026-06-05T19:23:01Z</time>
					</trkpt>
					<trkpt lat="49.282110" lon="2.324900">
						<ele>73</ele>
						<time>2026-06-05T19:23:16Z</time>
					</trkpt>
					<trkpt lat="49.282060" lon="2.327010">
						<ele>64</ele>
						<time>2026-06-05T19:23:48Z</time>
					</trkpt>
					<trkpt lat="49.281840" lon="2.327660">
						<ele>61</ele>
						<time>2026-06-05T19:23:59Z</time>
					</trkpt>
					<trkpt lat="49.281290" lon="2.328590">
						<ele>53</ele>
						<time>2026-06-05T19:24:19Z</time>
					</trkpt>
					<trkpt lat="49.281010" lon="2.329110">
						<ele>51</ele>
						<time>2026-06-05T19:24:29Z</time>
					</trkpt>
					<trkpt lat="49.280320" lon="2.331400">
						<ele>54</ele>
						<time>2026-06-05T19:25:07Z</time>
					</trkpt>
					<trkpt lat="49.280290" lon="2.332420">
						<ele>59</ele>
						<time>2026-06-05T19:25:23Z</time>
					</trkpt>
					<trkpt lat="49.280450" lon="2.334370">
						<ele>67</ele>
						<time>2026-06-05T19:25:53Z</time>
					</trkpt>
					<trkpt lat="49.280060" lon="2.336130">
						<ele>73</ele>
						<time>2026-06-05T19:26:21Z</time>
					</trkpt>
					<trkpt lat="49.279910" lon="2.336260">
						<ele>75</ele>
						<time>2026-06-05T19:26:25Z</time>
					</trkpt>
					<trkpt lat="49.279830" lon="2.336170">
						<ele>76</ele>
						<time>2026-06-05T19:26:27Z</time>
					</trkpt>
					<trkpt lat="49.279890" lon="2.335350">
						<ele>77</ele>
						<time>2026-06-05T19:26:40Z</time>
					</trkpt>
					<trkpt lat="49.279850" lon="2.334830">
						<ele>77</ele>
						<time>2026-06-05T19:26:48Z</time>
					</trkpt>
					<trkpt lat="49.279630" lon="2.334120">
						<ele>78</ele>
						<time>2026-06-05T19:27:00Z</time>
					</trkpt>
					<trkpt lat="49.279080" lon="2.333730">
						<ele>79</ele>
						<time>2026-06-05T19:27:14Z</time>
					</trkpt>
					<trkpt lat="49.274100" lon="2.333540">
						<ele>98</ele>
						<time>2026-06-05T19:29:10Z</time>
					</trkpt>
					<trkpt lat="49.277290" lon="2.341910">
						<ele>96</ele>
						<time>2026-06-05T19:31:38Z</time>
					</trkpt>
					<trkpt lat="49.278400" lon="2.344650">
						<ele>94</ele>
						<time>2026-06-05T19:32:27Z</time>
					</trkpt>
					<trkpt lat="49.278970" lon="2.346640">
						<ele>92</ele>
						<time>2026-06-05T19:33:00Z</time>
					</trkpt>
					<trkpt lat="49.279170" lon="2.347630">
						<ele>90</ele>
						<time>2026-06-05T19:33:16Z</time>
					</trkpt>
					<trkpt lat="49.279250" lon="2.348870">
						<ele>88</ele>
						<time>2026-06-05T19:33:35Z</time>
					</trkpt>
					<trkpt lat="49.279740" lon="2.348670">
						<ele>89</ele>
						<time>2026-06-05T19:33:47Z</time>
					</trkpt>
					<trkpt lat="49.281660" lon="2.356750">
						<ele>82</ele>
						<time>2026-06-05T19:35:58Z</time>
					</trkpt>
					<trkpt lat="49.281120" lon="2.357700">
						<ele>70</ele>
						<time>2026-06-05T19:36:17Z</time>
					</trkpt>
					<trkpt lat="49.279670" lon="2.356280">
						<ele>61</ele>
						<time>2026-06-05T19:36:57Z</time>
					</trkpt>
					<trkpt lat="49.279390" lon="2.352940">
						<ele>82</ele>
						<time>2026-06-05T19:37:49Z</time>
					</trkpt>
					<trkpt lat="49.279010" lon="2.353950">
						<ele>79</ele>
						<time>2026-06-05T19:38:06Z</time>
					</trkpt>
					<trkpt lat="49.277700" lon="2.355550">
						<ele>67</ele>
						<time>2026-06-05T19:38:46Z</time>
					</trkpt>
					<trkpt lat="49.277350" lon="2.357700">
						<ele>42</ele>
						<time>2026-06-05T19:39:19Z</time>
					</trkpt>
					<trkpt lat="49.276900" lon="2.357810">
						<ele>40</ele>
						<time>2026-06-05T19:39:30Z</time>
					</trkpt>
					<trkpt lat="49.276820" lon="2.358880">
						<ele>38</ele>
						<time>2026-06-05T19:39:46Z</time>
					</trkpt>
					<trkpt lat="49.277110" lon="2.361510">
						<ele>39</ele>
						<time>2026-06-05T19:40:27Z</time>
					</trkpt>
					<trkpt lat="49.276630" lon="2.362060">
						<ele>38</ele>
						<time>2026-06-05T19:40:41Z</time>
					</trkpt>
					<trkpt lat="49.276030" lon="2.362170">
						<ele>38</ele>
						<time>2026-06-05T19:40:55Z</time>
					</trkpt>
					<trkpt lat="49.274940" lon="2.362570">
						<ele>38</ele>
						<time>2026-06-05T19:41:21Z</time>
					</trkpt>
					<trkpt lat="49.273780" lon="2.362670">
						<ele>35</ele>
						<time>2026-06-05T19:41:48Z</time>
					</trkpt>
					<trkpt lat="49.273320" lon="2.363000">
						<ele>35</ele>
						<time>2026-06-05T19:42:00Z</time>
					</trkpt>
					<trkpt lat="49.272660" lon="2.362490">
						<ele>37</ele>
						<time>2026-06-05T19:42:18Z</time>
					</trkpt>
					<trkpt lat="49.272630" lon="2.361100">
						<ele>36</ele>
						<time>2026-06-05T19:42:39Z</time>
					</trkpt>
					<trkpt lat="49.272120" lon="2.361060">
						<ele>36</ele>
						<time>2026-06-05T19:42:51Z</time>
					</trkpt>
					</trkseg>
				</trk>
			</gpx>