<?xml version="1.0" encoding="UTF-8" ?>
<gpx version="1.1" xmlns:xsi="http://www.w3.org/2001/XMLSchema-instance"
    xmlns="http://www.topografix.com/GPX/1/1"
    xsi:schemaLocation="http://www.topografix.com/GPX/1/1 http://www.topografix.com/GPX/1/1/gpx.xsd"
    creator="Openrunner - https://www.openrunner.com" >	<trk>
	                   <name>René Gérard 2026 - 63km - 800mD+-24167910</name>
						<trkseg>
					<trkpt lat="49.272170" lon="2.361050">
						<ele>36</ele>
						<time>2026-06-05T16:56:39Z</time>
					</trkpt>
					<trkpt lat="49.272620" lon="2.361070">
						<ele>36</ele>
						<time>2026-06-05T16:56:50Z</time>
					</trkpt>
					<trkpt lat="49.272590" lon="2.360090">
						<ele>36</ele>
						<time>2026-06-05T16:57:04Z</time>
					</trkpt>
					<trkpt lat="49.272590" lon="2.358050">
						<ele>37</ele>
						<time>2026-06-05T16:57:36Z</time>
					</trkpt>
					<trkpt lat="49.273070" lon="2.355870">
						<ele>42</ele>
						<time>2026-06-05T16:58:11Z</time>
					</trkpt>
					<trkpt lat="49.272240" lon="2.355160">
						<ele>41</ele>
						<time>2026-06-05T16:58:33Z</time>
					</trkpt>
					<trkpt lat="49.271600" lon="2.354380">
						<ele>42</ele>
						<time>2026-06-05T16:58:52Z</time>
					</trkpt>
					<trkpt lat="49.272230" lon="2.353430">
						<ele>45</ele>
						<time>2026-06-05T16:59:13Z</time>
					</trkpt>
					<trkpt lat="49.271690" lon="2.352000">
						<ele>45</ele>
						<time>2026-06-05T16:59:38Z</time>
					</trkpt>
					<trkpt lat="49.271680" lon="2.351420">
						<ele>46</ele>
						<time>2026-06-05T16:59:47Z</time>
					</trkpt>
					<trkpt lat="49.270510" lon="2.349670">
						<ele>51</ele>
						<time>2026-06-05T17:00:25Z</time>
					</trkpt>
					<trkpt lat="49.270360" lon="2.349860">
						<ele>54</ele>
						<time>2026-06-05T17:00:29Z</time>
					</trkpt>
					<trkpt lat="49.270150" lon="2.349240">
						<ele>56</ele>
						<time>2026-06-05T17:00:40Z</time>
					</trkpt>
					<trkpt lat="49.270130" lon="2.349060">
						<ele>55</ele>
						<time>2026-06-05T17:00:43Z</time>
					</trkpt>
					<trkpt lat="49.270170" lon="2.348710">
						<ele>54</ele>
						<time>2026-06-05T17:00:48Z</time>
					</trkpt>
					<trkpt lat="49.270210" lon="2.348590">
						<ele>53</ele>
						<time>2026-06-05T17:00:50Z</time>
					</trkpt>
					<trkpt lat="49.271450" lon="2.347080">
						<ele>68</ele>
						<time>2026-06-05T17:01:27Z</time>
					</trkpt>
					<trkpt lat="49.273340" lon="2.345450">
						<ele>84</ele>
						<time>2026-06-05T17:02:18Z</time>
					</trkpt>
					<trkpt lat="49.271970" lon="2.340840">
						<ele>89</ele>
						<time>2026-06-05T17:03:35Z</time>
					</trkpt>
					<trkpt lat="49.270220" lon="2.336330">
						<ele>93</ele>
						<time>2026-06-05T17:04:55Z</time>
					</trkpt>
					<trkpt lat="49.268330" lon="2.331920">
						<ele>97</ele>
						<time>2026-06-05T17:06:15Z</time>
					</trkpt>
					<trkpt lat="49.268430" lon="2.331090">
						<ele>98</ele>
						<time>2026-06-05T17:06:28Z</time>
					</trkpt>
					<trkpt lat="49.268550" lon="2.330640">
						<ele>99</ele>
						<time>2026-06-05T17:06:36Z</time>
					</trkpt>
					<trkpt lat="49.268730" lon="2.329590">
						<ele>99</ele>
						<time>2026-06-05T17:06:52Z</time>
					</trkpt>
					<trkpt lat="49.268820" lon="2.329280">
						<ele>100</ele>
						<time>2026-06-05T17:06:57Z</time>
					</trkpt>
					<trkpt lat="49.268910" lon="2.328780">
						<ele>101</ele>
						<time>2026-06-05T17:07:05Z</time>
					</trkpt>
					<trkpt lat="49.269020" lon="2.328430">
						<ele>102</ele>
						<time>2026-06-05T17:07:11Z</time>
					</trkpt>
					<trkpt lat="49.269040" lon="2.328200">
						<ele>102</ele>
						<time>2026-06-05T17:07:15Z</time>
					</trkpt>
					<trkpt lat="49.269310" lon="2.326960">
						<ele>104</ele>
						<time>2026-06-05T17:07:35Z</time>
					</trkpt>
					<trkpt lat="49.269470" lon="2.326080">
						<ele>106</ele>
						<time>2026-06-05T17:07:49Z</time>
					</trkpt>
					<trkpt lat="49.269470" lon="2.325920">
						<ele>107</ele>
						<time>2026-06-05T17:07:51Z</time>
					</trkpt>
					<trkpt lat="49.269550" lon="2.325610">
						<ele>108</ele>
						<time>2026-06-05T17:07:56Z</time>
					</trkpt>
					<trkpt lat="49.269650" lon="2.324910">
						<ele>110</ele>
						<time>2026-06-05T17:08:07Z</time>
					</trkpt>
					<trkpt lat="49.269700" lon="2.324750">
						<ele>110</ele>
						<time>2026-06-05T17:08:10Z</time>
					</trkpt>
					<trkpt lat="49.270050" lon="2.322960">
						<ele>110</ele>
						<time>2026-06-05T17:08:38Z</time>
					</trkpt>
					<trkpt lat="49.270210" lon="2.322300">
						<ele>111</ele>
						<time>2026-06-05T17:08:49Z</time>
					</trkpt>
					<trkpt lat="49.270250" lon="2.321990">
						<ele>111</ele>
						<time>2026-06-05T17:08:54Z</time>
					</trkpt>
					<trkpt lat="49.270240" lon="2.321840">
						<ele>111</ele>
						<time>2026-06-05T17:08:56Z</time>
					</trkpt>
					<trkpt lat="49.270360" lon="2.321490">
						<ele>110</ele>
						<time>2026-06-05T17:09:02Z</time>
					</trkpt>
					<trkpt lat="49.270540" lon="2.320480">
						<ele>109</ele>
						<time>2026-06-05T17:09:18Z</time>
					</trkpt>
					<trkpt lat="49.270890" lon="2.319000">
						<ele>106</ele>
						<time>2026-06-05T17:09:42Z</time>
					</trkpt>
					<trkpt lat="49.271050" lon="2.318140">
						<ele>104</ele>
						<time>2026-06-05T17:09:56Z</time>
					</trkpt>
					<trkpt lat="49.271050" lon="2.317980">
						<ele>104</ele>
						<time>2026-06-05T17:09:58Z</time>
					</trkpt>
					<trkpt lat="49.270950" lon="2.317660">
						<ele>104</ele>
						<time>2026-06-05T17:10:03Z</time>
					</trkpt>
					<trkpt lat="49.270660" lon="2.317020">
						<ele>106</ele>
						<time>2026-06-05T17:10:15Z</time>
					</trkpt>
					<trkpt lat="49.270500" lon="2.316430">
						<ele>107</ele>
						<time>2026-06-05T17:10:25Z</time>
					</trkpt>
					<trkpt lat="49.270360" lon="2.316170">
						<ele>108</ele>
						<time>2026-06-05T17:10:30Z</time>
					</trkpt>
					<trkpt lat="49.270020" lon="2.315130">
						<ele>110</ele>
						<time>2026-06-05T17:10:48Z</time>
					</trkpt>
					<trkpt lat="49.269960" lon="2.314760">
						<ele>110</ele>
						<time>2026-06-05T17:10:54Z</time>
					</trkpt>
					<trkpt lat="49.269720" lon="2.314210">
						<ele>111</ele>
						<time>2026-06-05T17:11:04Z</time>
					</trkpt>
					<trkpt lat="49.269560" lon="2.313720">
						<ele>112</ele>
						<time>2026-06-05T17:11:12Z</time>
					</trkpt>
					<trkpt lat="49.269410" lon="2.313490">
						<ele>112</ele>
						<time>2026-06-05T17:11:17Z</time>
					</trkpt>
					<trkpt lat="49.269230" lon="2.313300">
						<ele>113</ele>
						<time>2026-06-05T17:11:22Z</time>
					</trkpt>
					<trkpt lat="49.268980" lon="2.313130">
						<ele>113</ele>
						<time>2026-06-05T17:11:29Z</time>
					</trkpt>
					<trkpt lat="49.268770" lon="2.312900">
						<ele>113</ele>
						<time>2026-06-05T17:11:35Z</time>
					</trkpt>
					<trkpt lat="49.268440" lon="2.312700">
						<ele>113</ele>
						<time>2026-06-05T17:11:43Z</time>
					</trkpt>
					<trkpt lat="49.268150" lon="2.312460">
						<ele>112</ele>
						<time>2026-06-05T17:11:51Z</time>
					</trkpt>
					<trkpt lat="49.268030" lon="2.312400">
						<ele>112</ele>
						<time>2026-06-05T17:11:54Z</time>
					</trkpt>
					<trkpt lat="49.267670" lon="2.312100">
						<ele>110</ele>
						<time>2026-06-05T17:12:03Z</time>
					</trkpt>
					<trkpt lat="49.267160" lon="2.311780">
						<ele>109</ele>
						<time>2026-06-05T17:12:16Z</time>
					</trkpt>
					<trkpt lat="49.266930" lon="2.311600">
						<ele>108</ele>
						<time>2026-06-05T17:12:22Z</time>
					</trkpt>
					<trkpt lat="49.266660" lon="2.311460">
						<ele>108</ele>
						<time>2026-06-05T17:12:29Z</time>
					</trkpt>
					<trkpt lat="49.266450" lon="2.311300">
						<ele>108</ele>
						<time>2026-06-05T17:12:34Z</time>
					</trkpt>
					<trkpt lat="49.266350" lon="2.311190">
						<ele>108</ele>
						<time>2026-06-05T17:12:37Z</time>
					</trkpt>
					<trkpt lat="49.266230" lon="2.311120">
						<ele>108</ele>
						<time>2026-06-05T17:12:40Z</time>
					</trkpt>
					<trkpt lat="49.266130" lon="2.311000">
						<ele>108</ele>
						<time>2026-06-05T17:12:43Z</time>
					</trkpt>
					<trkpt lat="49.265540" lon="2.310590">
						<ele>108</ele>
						<time>2026-06-05T17:12:58Z</time>
					</trkpt>
					<trkpt lat="49.266240" lon="2.307680">
						<ele>104</ele>
						<time>2026-06-05T17:13:45Z</time>
					</trkpt>
					<trkpt lat="49.266290" lon="2.306110">
						<ele>104</ele>
						<time>2026-06-05T17:14:09Z</time>
					</trkpt>
					<trkpt lat="49.266200" lon="2.304010">
						<ele>103</ele>
						<time>2026-06-05T17:14:41Z</time>
					</trkpt>
					<trkpt lat="49.266370" lon="2.301190">
						<ele>92</ele>
						<time>2026-06-05T17:15:25Z</time>
					</trkpt>
					<trkpt lat="49.267330" lon="2.299960">
						<ele>81</ele>
						<time>2026-06-05T17:15:54Z</time>
					</trkpt>
					<trkpt lat="49.267700" lon="2.298340">
						<ele>67</ele>
						<time>2026-06-05T17:16:20Z</time>
					</trkpt>
					<trkpt lat="49.267130" lon="2.296520">
						<ele>71</ele>
						<time>2026-06-05T17:16:51Z</time>
					</trkpt>
					<trkpt lat="49.267010" lon="2.295840">
						<ele>76</ele>
						<time>2026-06-05T17:17:01Z</time>
					</trkpt>
					<trkpt lat="49.267050" lon="2.294440">
						<ele>78</ele>
						<time>2026-06-05T17:17:23Z</time>
					</trkpt>
					<trkpt lat="49.268970" lon="2.291180">
						<ele>71</ele>
						<time>2026-06-05T17:18:30Z</time>
					</trkpt>
					<trkpt lat="49.269760" lon="2.290040">
						<ele>73</ele>
						<time>2026-06-05T17:18:55Z</time>
					</trkpt>
					<trkpt lat="49.269100" lon="2.289660">
						<ele>74</ele>
						<time>2026-06-05T17:19:12Z</time>
					</trkpt>
					<trkpt lat="49.267530" lon="2.290370">
						<ele>78</ele>
						<time>2026-06-05T17:19:50Z</time>
					</trkpt>
					<trkpt lat="49.265620" lon="2.289600">
						<ele>90</ele>
						<time>2026-06-05T17:20:36Z</time>
					</trkpt>
					<trkpt lat="49.264300" lon="2.289430">
						<ele>97</ele>
						<time>2026-06-05T17:21:07Z</time>
					</trkpt>
					<trkpt lat="49.263090" lon="2.288640">
						<ele>97</ele>
						<time>2026-06-05T17:21:38Z</time>
					</trkpt>
					<trkpt lat="49.263020" lon="2.288330">
						<ele>98</ele>
						<time>2026-06-05T17:21:42Z</time>
					</trkpt>
					<trkpt lat="49.262820" lon="2.287780">
						<ele>97</ele>
						<time>2026-06-05T17:21:52Z</time>
					</trkpt>
					<trkpt lat="49.262630" lon="2.287140">
						<ele>96</ele>
						<time>2026-06-05T17:22:03Z</time>
					</trkpt>
					<trkpt lat="49.262500" lon="2.286390">
						<ele>100</ele>
						<time>2026-06-05T17:22:15Z</time>
					</trkpt>
					<trkpt lat="49.262440" lon="2.286220">
						<ele>101</ele>
						<time>2026-06-05T17:22:18Z</time>
					</trkpt>
					<trkpt lat="49.262420" lon="2.286070">
						<ele>103</ele>
						<time>2026-06-05T17:22:20Z</time>
					</trkpt>
					<trkpt lat="49.262160" lon="2.285380">
						<ele>105</ele>
						<time>2026-06-05T17:22:32Z</time>
					</trkpt>
					<trkpt lat="49.262050" lon="2.285290">
						<ele>104</ele>
						<time>2026-06-05T17:22:35Z</time>
					</trkpt>
					<trkpt lat="49.261990" lon="2.285140">
						<ele>104</ele>
						<time>2026-06-05T17:22:38Z</time>
					</trkpt>
					<trkpt lat="49.261740" lon="2.284410">
						<ele>102</ele>
						<time>2026-06-05T17:22:50Z</time>
					</trkpt>
					<trkpt lat="49.261500" lon="2.283260">
						<ele>106</ele>
						<time>2026-06-05T17:23:09Z</time>
					</trkpt>
					<trkpt lat="49.260940" lon="2.281700">
						<ele>107</ele>
						<time>2026-06-05T17:23:36Z</time>
					</trkpt>
					<trkpt lat="49.260910" lon="2.281540">
						<ele>107</ele>
						<time>2026-06-05T17:23:38Z</time>
					</trkpt>
					<trkpt lat="49.260820" lon="2.281300">
						<ele>107</ele>
						<time>2026-06-05T17:23:43Z</time>
					</trkpt>
					<trkpt lat="49.260750" lon="2.281200">
						<ele>108</ele>
						<time>2026-06-05T17:23:45Z</time>
					</trkpt>
					<trkpt lat="49.260620" lon="2.280750">
						<ele>111</ele>
						<time>2026-06-05T17:23:52Z</time>
					</trkpt>
					<trkpt lat="49.260550" lon="2.280650">
						<ele>111</ele>
						<time>2026-06-05T17:23:54Z</time>
					</trkpt>
					<trkpt lat="49.260300" lon="2.280030">
						<ele>113</ele>
						<time>2026-06-05T17:24:06Z</time>
					</trkpt>
					<trkpt lat="49.260190" lon="2.279560">
						<ele>114</ele>
						<time>2026-06-05T17:24:13Z</time>
					</trkpt>
					<trkpt lat="49.260120" lon="2.279460">
						<ele>114</ele>
						<time>2026-06-05T17:24:15Z</time>
					</trkpt>
					<trkpt lat="49.259960" lon="2.278150">
						<ele>119</ele>
						<time>2026-06-05T17:24:36Z</time>
					</trkpt>
					<trkpt lat="49.259890" lon="2.277270">
						<ele>124</ele>
						<time>2026-06-05T17:24:49Z</time>
					</trkpt>
					<trkpt lat="49.259910" lon="2.276990">
						<ele>125</ele>
						<time>2026-06-05T17:24:54Z</time>
					</trkpt>
					<trkpt lat="49.259880" lon="2.276680">
						<ele>127</ele>
						<time>2026-06-05T17:24:58Z</time>
					</trkpt>
					<trkpt lat="49.259880" lon="2.275790">
						<ele>131</ele>
						<time>2026-06-05T17:25:12Z</time>
					</trkpt>
					<trkpt lat="49.259950" lon="2.275080">
						<ele>135</ele>
						<time>2026-06-05T17:25:23Z</time>
					</trkpt>
					<trkpt lat="49.259960" lon="2.274750">
						<ele>139</ele>
						<time>2026-06-05T17:25:28Z</time>
					</trkpt>
					<trkpt lat="49.260030" lon="2.274640">
						<ele>140</ele>
						<time>2026-06-05T17:25:30Z</time>
					</trkpt>
					<trkpt lat="49.260050" lon="2.274460">
						<ele>143</ele>
						<time>2026-06-05T17:25:33Z</time>
					</trkpt>
					<trkpt lat="49.260250" lon="2.274050">
						<ele>149</ele>
						<time>2026-06-05T17:25:41Z</time>
					</trkpt>
					<trkpt lat="49.260280" lon="2.273840">
						<ele>151</ele>
						<time>2026-06-05T17:25:44Z</time>
					</trkpt>
					<trkpt lat="49.260520" lon="2.273120">
						<ele>157</ele>
						<time>2026-06-05T17:25:56Z</time>
					</trkpt>
					<trkpt lat="49.260610" lon="2.272970">
						<ele>157</ele>
						<time>2026-06-05T17:25:59Z</time>
					</trkpt>
					<trkpt lat="49.260720" lon="2.272700">
						<ele>158</ele>
						<time>2026-06-05T17:26:04Z</time>
					</trkpt>
					<trkpt lat="49.260890" lon="2.272410">
						<ele>160</ele>
						<time>2026-06-05T17:26:10Z</time>
					</trkpt>
					<trkpt lat="49.261120" lon="2.271870">
						<ele>168</ele>
						<time>2026-06-05T17:26:20Z</time>
					</trkpt>
					<trkpt lat="49.261170" lon="2.271560">
						<ele>171</ele>
						<time>2026-06-05T17:26:25Z</time>
					</trkpt>
					<trkpt lat="49.261400" lon="2.271090">
						<ele>178</ele>
						<time>2026-06-05T17:26:34Z</time>
					</trkpt>
					<trkpt lat="49.261370" lon="2.270790">
						<ele>181</ele>
						<time>2026-06-05T17:26:39Z</time>
					</trkpt>
					<trkpt lat="49.261390" lon="2.270640">
						<ele>181</ele>
						<time>2026-06-05T17:26:41Z</time>
					</trkpt>
					<trkpt lat="49.261350" lon="2.270330">
						<ele>181</ele>
						<time>2026-06-05T17:26:46Z</time>
					</trkpt>
					<trkpt lat="49.261440" lon="2.270070">
						<ele>181</ele>
						<time>2026-06-05T17:26:50Z</time>
					</trkpt>
					<trkpt lat="49.261540" lon="2.270010">
						<ele>181</ele>
						<time>2026-06-05T17:26:53Z</time>
					</trkpt>
					<trkpt lat="49.261610" lon="2.270100">
						<ele>181</ele>
						<time>2026-06-05T17:26:55Z</time>
					</trkpt>
					<trkpt lat="49.261510" lon="2.270040">
						<ele>181</ele>
						<time>2026-06-05T17:26:57Z</time>
					</trkpt>
					<trkpt lat="49.261200" lon="2.270000">
						<ele>182</ele>
						<time>2026-06-05T17:27:05Z</time>
					</trkpt>
					<trkpt lat="49.261300" lon="2.270010">
						<ele>182</ele>
						<time>2026-06-05T17:27:07Z</time>
					</trkpt>
					<trkpt lat="49.261310" lon="2.269840">
						<ele>181</ele>
						<time>2026-06-05T17:27:10Z</time>
					</trkpt>
					<trkpt lat="49.261410" lon="2.269860">
						<ele>181</ele>
						<time>2026-06-05T17:27:12Z</time>
					</trkpt>
					<trkpt lat="49.261480" lon="2.269950">
						<ele>181</ele>
						<time>2026-06-05T17:27:14Z</time>
					</trkpt>
					<trkpt lat="49.261570" lon="2.269910">
						<ele>181</ele>
						<time>2026-06-05T17:27:16Z</time>
					</trkpt>
					<trkpt lat="49.261890" lon="2.270090">
						<ele>181</ele>
						<time>2026-06-05T17:27:24Z</time>
					</trkpt>
					<trkpt lat="49.262400" lon="2.270150">
						<ele>183</ele>
						<time>2026-06-05T17:27:36Z</time>
					</trkpt>
					<trkpt lat="49.262490" lon="2.270230">
						<ele>184</ele>
						<time>2026-06-05T17:27:39Z</time>
					</trkpt>
					<trkpt lat="49.262780" lon="2.270340">
						<ele>184</ele>
						<time>2026-06-05T17:27:46Z</time>
					</trkpt>
					<trkpt lat="49.262960" lon="2.270470">
						<ele>184</ele>
						<time>2026-06-05T17:27:50Z</time>
					</trkpt>
					<trkpt lat="49.263040" lon="2.270560">
						<ele>185</ele>
						<time>2026-06-05T17:27:53Z</time>
					</trkpt>
					<trkpt lat="49.263140" lon="2.270570">
						<ele>185</ele>
						<time>2026-06-05T17:27:55Z</time>
					</trkpt>
					<trkpt lat="49.263430" lon="2.270680">
						<ele>186</ele>
						<time>2026-06-05T17:28:02Z</time>
					</trkpt>
					<trkpt lat="49.263530" lon="2.270740">
						<ele>186</ele>
						<time>2026-06-05T17:28:04Z</time>
					</trkpt>
					<trkpt lat="49.263630" lon="2.270760">
						<ele>186</ele>
						<time>2026-06-05T17:28:07Z</time>
					</trkpt>
					<trkpt lat="49.263740" lon="2.270830">
						<ele>187</ele>
						<time>2026-06-05T17:28:09Z</time>
					</trkpt>
					<trkpt lat="49.264130" lon="2.270770">
						<ele>187</ele>
						<time>2026-06-05T17:28:19Z</time>
					</trkpt>
					<trkpt lat="49.264350" lon="2.270820">
						<ele>186</ele>
						<time>2026-06-05T17:28:24Z</time>
					</trkpt>
					<trkpt lat="49.264440" lon="2.270900">
						<ele>186</ele>
						<time>2026-06-05T17:28:26Z</time>
					</trkpt>
					<trkpt lat="49.264540" lon="2.271060">
						<ele>187</ele>
						<time>2026-06-05T17:28:30Z</time>
					</trkpt>
					<trkpt lat="49.264660" lon="2.271130">
						<ele>187</ele>
						<time>2026-06-05T17:28:33Z</time>
					</trkpt>
					<trkpt lat="49.264770" lon="2.271160">
						<ele>186</ele>
						<time>2026-06-05T17:28:35Z</time>
					</trkpt>
					<trkpt lat="49.264970" lon="2.271490">
						<ele>188</ele>
						<time>2026-06-05T17:28:42Z</time>
					</trkpt>
					<trkpt lat="49.265260" lon="2.271740">
						<ele>188</ele>
						<time>2026-06-05T17:28:50Z</time>
					</trkpt>
					<trkpt lat="49.265410" lon="2.271940">
						<ele>187</ele>
						<time>2026-06-05T17:28:55Z</time>
					</trkpt>
					<trkpt lat="49.265520" lon="2.272000">
						<ele>186</ele>
						<time>2026-06-05T17:28:57Z</time>
					</trkpt>
					<trkpt lat="49.265810" lon="2.272280">
						<ele>185</ele>
						<time>2026-06-05T17:29:05Z</time>
					</trkpt>
					<trkpt lat="49.265910" lon="2.272390">
						<ele>184</ele>
						<time>2026-06-05T17:29:08Z</time>
					</trkpt>
					<trkpt lat="49.265990" lon="2.272570">
						<ele>183</ele>
						<time>2026-06-05T17:29:11Z</time>
					</trkpt>
					<trkpt lat="49.266350" lon="2.272830">
						<ele>178</ele>
						<time>2026-06-05T17:29:21Z</time>
					</trkpt>
					<trkpt lat="49.266640" lon="2.273140">
						<ele>173</ele>
						<time>2026-06-05T17:29:29Z</time>
					</trkpt>
					<trkpt lat="49.266740" lon="2.273150">
						<ele>172</ele>
						<time>2026-06-05T17:29:31Z</time>
					</trkpt>
					<trkpt lat="49.266820" lon="2.273240">
						<ele>170</ele>
						<time>2026-06-05T17:29:34Z</time>
					</trkpt>
					<trkpt lat="49.266950" lon="2.273320">
						<ele>169</ele>
						<time>2026-06-05T17:29:37Z</time>
					</trkpt>
					<trkpt lat="49.267040" lon="2.273260">
						<ele>169</ele>
						<time>2026-06-05T17:29:39Z</time>
					</trkpt>
					<trkpt lat="49.267410" lon="2.273300">
						<ele>167</ele>
						<time>2026-06-05T17:29:48Z</time>
					</trkpt>
					<trkpt lat="49.267560" lon="2.273360">
						<ele>165</ele>
						<time>2026-06-05T17:29:51Z</time>
					</trkpt>
					<trkpt lat="49.267840" lon="2.273390">
						<ele>161</ele>
						<time>2026-06-05T17:29:58Z</time>
					</trkpt>
					<trkpt lat="49.268120" lon="2.273570">
						<ele>154</ele>
						<time>2026-06-05T17:30:05Z</time>
					</trkpt>
					<trkpt lat="49.268510" lon="2.274120">
						<ele>141</ele>
						<time>2026-06-05T17:30:18Z</time>
					</trkpt>
					<trkpt lat="49.268730" lon="2.274270">
						<ele>138</ele>
						<time>2026-06-05T17:30:23Z</time>
					</trkpt>
					<trkpt lat="49.269010" lon="2.274410">
						<ele>136</ele>
						<time>2026-06-05T17:30:30Z</time>
					</trkpt>
					<trkpt lat="49.269480" lon="2.274790">
						<ele>131</ele>
						<time>2026-06-05T17:30:42Z</time>
					</trkpt>
					<trkpt lat="49.270310" lon="2.275270">
						<ele>123</ele>
						<time>2026-06-05T17:31:03Z</time>
					</trkpt>
					<trkpt lat="49.270550" lon="2.275380">
						<ele>122</ele>
						<time>2026-06-05T17:31:09Z</time>
					</trkpt>
					<trkpt lat="49.270770" lon="2.275430">
						<ele>121</ele>
						<time>2026-06-05T17:31:14Z</time>
					</trkpt>
					<trkpt lat="49.270940" lon="2.275340">
						<ele>118</ele>
						<time>2026-06-05T17:31:18Z</time>
					</trkpt>
					<trkpt lat="49.271050" lon="2.275350">
						<ele>116</ele>
						<time>2026-06-05T17:31:21Z</time>
					</trkpt>
					<trkpt lat="49.271180" lon="2.275420">
						<ele>114</ele>
						<time>2026-06-05T17:31:24Z</time>
					</trkpt>
					<trkpt lat="49.271840" lon="2.276020">
						<ele>107</ele>
						<time>2026-06-05T17:31:42Z</time>
					</trkpt>
					<trkpt lat="49.272420" lon="2.276450">
						<ele>104</ele>
						<time>2026-06-05T17:31:57Z</time>
					</trkpt>
					<trkpt lat="49.272900" lon="2.276710">
						<ele>102</ele>
						<time>2026-06-05T17:32:09Z</time>
					</trkpt>
					<trkpt lat="49.273010" lon="2.276720">
						<ele>101</ele>
						<time>2026-06-05T17:32:12Z</time>
					</trkpt>
					<trkpt lat="49.273140" lon="2.276810">
						<ele>99</ele>
						<time>2026-06-05T17:32:15Z</time>
					</trkpt>
					<trkpt lat="49.273260" lon="2.276810">
						<ele>98</ele>
						<time>2026-06-05T17:32:18Z</time>
					</trkpt>
					<trkpt lat="49.273400" lon="2.276900">
						<ele>96</ele>
						<time>2026-06-05T17:32:21Z</time>
					</trkpt>
					<trkpt lat="49.273520" lon="2.276930">
						<ele>95</ele>
						<time>2026-06-05T17:32:24Z</time>
					</trkpt>
					<trkpt lat="49.273830" lon="2.277270">
						<ele>91</ele>
						<time>2026-06-05T17:32:33Z</time>
					</trkpt>
					<trkpt lat="49.274200" lon="2.277780">
						<ele>86</ele>
						<time>2026-06-05T17:32:45Z</time>
					</trkpt>
					<trkpt lat="49.274240" lon="2.277660">
						<ele>86</ele>
						<time>2026-06-05T17:32:47Z</time>
					</trkpt>
					<trkpt lat="49.274370" lon="2.277580">
						<ele>85</ele>
						<time>2026-06-05T17:32:50Z</time>
					</trkpt>
					<trkpt lat="49.274600" lon="2.277230">
						<ele>83</ele>
						<time>2026-06-05T17:32:58Z</time>
					</trkpt>
					<trkpt lat="49.274700" lon="2.276940">
						<ele>82</ele>
						<time>2026-06-05T17:33:03Z</time>
					</trkpt>
					<trkpt lat="49.274570" lon="2.276350">
						<ele>83</ele>
						<time>2026-06-05T17:33:12Z</time>
					</trkpt>
					<trkpt lat="49.274510" lon="2.276200">
						<ele>83</ele>
						<time>2026-06-05T17:33:15Z</time>
					</trkpt>
					<trkpt lat="49.274480" lon="2.275830">
						<ele>84</ele>
						<time>2026-06-05T17:33:20Z</time>
					</trkpt>
					<trkpt lat="49.274400" lon="2.275690">
						<ele>85</ele>
						<time>2026-06-05T17:33:23Z</time>
					</trkpt>
					<trkpt lat="49.274360" lon="2.275560">
						<ele>85</ele>
						<time>2026-06-05T17:33:25Z</time>
					</trkpt>
					<trkpt lat="49.274350" lon="2.275410">
						<ele>86</ele>
						<time>2026-06-05T17:33:28Z</time>
					</trkpt>
					<trkpt lat="49.274260" lon="2.275110">
						<ele>88</ele>
						<time>2026-06-05T17:33:33Z</time>
					</trkpt>
					<trkpt lat="49.274120" lon="2.274810">
						<ele>89</ele>
						<time>2026-06-05T17:33:38Z</time>
					</trkpt>
					<trkpt lat="49.274110" lon="2.274670">
						<ele>90</ele>
						<time>2026-06-05T17:33:41Z</time>
					</trkpt>
					<trkpt lat="49.273960" lon="2.274120">
						<ele>93</ele>
						<time>2026-06-05T17:33:50Z</time>
					</trkpt>
					<trkpt lat="49.273800" lon="2.273380">
						<ele>98</ele>
						<time>2026-06-05T17:34:01Z</time>
					</trkpt>
					<trkpt lat="49.273770" lon="2.272900">
						<ele>101</ele>
						<time>2026-06-05T17:34:09Z</time>
					</trkpt>
					<trkpt lat="49.273670" lon="2.272450">
						<ele>103</ele>
						<time>2026-06-05T17:34:16Z</time>
					</trkpt>
					<trkpt lat="49.273620" lon="2.271990">
						<ele>108</ele>
						<time>2026-06-05T17:34:23Z</time>
					</trkpt>
					<trkpt lat="49.273620" lon="2.271660">
						<ele>111</ele>
						<time>2026-06-05T17:34:28Z</time>
					</trkpt>
					<trkpt lat="49.273580" lon="2.271510">
						<ele>112</ele>
						<time>2026-06-05T17:34:31Z</time>
					</trkpt>
					<trkpt lat="49.273580" lon="2.271310">
						<ele>114</ele>
						<time>2026-06-05T17:34:34Z</time>
					</trkpt>
					<trkpt lat="49.273500" lon="2.270580">
						<ele>118</ele>
						<time>2026-06-05T17:34:45Z</time>
					</trkpt>
					<trkpt lat="49.273520" lon="2.270230">
						<ele>121</ele>
						<time>2026-06-05T17:34:50Z</time>
					</trkpt>
					<trkpt lat="49.273490" lon="2.270050">
						<ele>121</ele>
						<time>2026-06-05T17:34:53Z</time>
					</trkpt>
					<trkpt lat="49.273520" lon="2.269880">
						<ele>123</ele>
						<time>2026-06-05T17:34:56Z</time>
					</trkpt>
					<trkpt lat="49.273510" lon="2.269720">
						<ele>124</ele>
						<time>2026-06-05T17:34:58Z</time>
					</trkpt>
					<trkpt lat="49.273550" lon="2.269240">
						<ele>127</ele>
						<time>2026-06-05T17:35:06Z</time>
					</trkpt>
					<trkpt lat="49.273590" lon="2.269070">
						<ele>128</ele>
						<time>2026-06-05T17:35:08Z</time>
					</trkpt>
					<trkpt lat="49.273590" lon="2.268870">
						<ele>129</ele>
						<time>2026-06-05T17:35:11Z</time>
					</trkpt>
					<trkpt lat="49.273720" lon="2.268290">
						<ele>134</ele>
						<time>2026-06-05T17:35:21Z</time>
					</trkpt>
					<trkpt lat="49.273720" lon="2.267430">
						<ele>143</ele>
						<time>2026-06-05T17:35:34Z</time>
					</trkpt>
					<trkpt lat="49.273760" lon="2.267560">
						<ele>142</ele>
						<time>2026-06-05T17:35:36Z</time>
					</trkpt>
					<trkpt lat="49.273930" lon="2.268570">
						<ele>133</ele>
						<time>2026-06-05T17:35:52Z</time>
					</trkpt>
					<trkpt lat="49.274120" lon="2.269180">
						<ele>130</ele>
						<time>2026-06-05T17:36:02Z</time>
					</trkpt>
					<trkpt lat="49.274180" lon="2.269670">
						<ele>127</ele>
						<time>2026-06-05T17:36:10Z</time>
					</trkpt>
					<trkpt lat="49.274260" lon="2.270080">
						<ele>124</ele>
						<time>2026-06-05T17:36:16Z</time>
					</trkpt>
					<trkpt lat="49.274440" lon="2.270530">
						<ele>121</ele>
						<time>2026-06-05T17:36:24Z</time>
					</trkpt>
					<trkpt lat="49.274580" lon="2.270690">
						<ele>120</ele>
						<time>2026-06-05T17:36:29Z</time>
					</trkpt>
					<trkpt lat="49.274700" lon="2.270770">
						<ele>119</ele>
						<time>2026-06-05T17:36:32Z</time>
					</trkpt>
					<trkpt lat="49.274780" lon="2.270880">
						<ele>118</ele>
						<time>2026-06-05T17:36:34Z</time>
					</trkpt>
					<trkpt lat="49.275270" lon="2.271280">
						<ele>111</ele>
						<time>2026-06-05T17:36:47Z</time>
					</trkpt>
					<trkpt lat="49.275700" lon="2.271740">
						<ele>104</ele>
						<time>2026-06-05T17:36:59Z</time>
					</trkpt>
					<trkpt lat="49.275890" lon="2.271970">
						<ele>101</ele>
						<time>2026-06-05T17:37:05Z</time>
					</trkpt>
					<trkpt lat="49.275950" lon="2.272090">
						<ele>100</ele>
						<time>2026-06-05T17:37:07Z</time>
					</trkpt>
					<trkpt lat="49.276160" lon="2.272310">
						<ele>97</ele>
						<time>2026-06-05T17:37:13Z</time>
					</trkpt>
					<trkpt lat="49.276420" lon="2.272770">
						<ele>93</ele>
						<time>2026-06-05T17:37:22Z</time>
					</trkpt>
					<trkpt lat="49.276610" lon="2.272950">
						<ele>90</ele>
						<time>2026-06-05T17:37:28Z</time>
					</trkpt>
					<trkpt lat="49.276740" lon="2.273200">
						<ele>89</ele>
						<time>2026-06-05T17:37:33Z</time>
					</trkpt>
					<trkpt lat="49.276860" lon="2.273250">
						<ele>87</ele>
						<time>2026-06-05T17:37:35Z</time>
					</trkpt>
					<trkpt lat="49.276980" lon="2.272950">
						<ele>86</ele>
						<time>2026-06-05T17:37:41Z</time>
					</trkpt>
					<trkpt lat="49.277020" lon="2.272660">
						<ele>86</ele>
						<time>2026-06-05T17:37:45Z</time>
					</trkpt>
					<trkpt lat="49.277010" lon="2.272490">
						<ele>87</ele>
						<time>2026-06-05T17:37:48Z</time>
					</trkpt>
					<trkpt lat="49.277090" lon="2.272370">
						<ele>87</ele>
						<time>2026-06-05T17:37:51Z</time>
					</trkpt>
					<trkpt lat="49.277060" lon="2.272160">
						<ele>88</ele>
						<time>2026-06-05T17:37:54Z</time>
					</trkpt>
					<trkpt lat="49.277130" lon="2.272050">
						<ele>88</ele>
						<time>2026-06-05T17:37:56Z</time>
					</trkpt>
					<trkpt lat="49.277160" lon="2.271910">
						<ele>88</ele>
						<time>2026-06-05T17:37:58Z</time>
					</trkpt>
					<trkpt lat="49.277160" lon="2.271450">
						<ele>90</ele>
						<time>2026-06-05T17:38:05Z</time>
					</trkpt>
					<trkpt lat="49.277370" lon="2.270710">
						<ele>89</ele>
						<time>2026-06-05T17:38:18Z</time>
					</trkpt>
					<trkpt lat="49.277490" lon="2.270630">
						<ele>87</ele>
						<time>2026-06-05T17:38:21Z</time>
					</trkpt>
					<trkpt lat="49.277530" lon="2.270450">
						<ele>86</ele>
						<time>2026-06-05T17:38:24Z</time>
					</trkpt>
					<trkpt lat="49.277830" lon="2.269900">
						<ele>84</ele>
						<time>2026-06-05T17:38:35Z</time>
					</trkpt>
					<trkpt lat="49.278000" lon="2.269650">
						<ele>84</ele>
						<time>2026-06-05T17:38:40Z</time>
					</trkpt>
					<trkpt lat="49.279270" lon="2.268550">
						<ele>89</ele>
						<time>2026-06-05T17:39:14Z</time>
					</trkpt>
					<trkpt lat="49.279470" lon="2.268350">
						<ele>89</ele>
						<time>2026-06-05T17:39:20Z</time>
					</trkpt>
					<trkpt lat="49.279550" lon="2.268220">
						<ele>89</ele>
						<time>2026-06-05T17:39:22Z</time>
					</trkpt>
					<trkpt lat="49.279850" lon="2.267920">
						<ele>89</ele>
						<time>2026-06-05T17:39:31Z</time>
					</trkpt>
					<trkpt lat="49.280020" lon="2.267670">
						<ele>89</ele>
						<time>2026-06-05T17:39:36Z</time>
					</trkpt>
					<trkpt lat="49.280120" lon="2.267340">
						<ele>90</ele>
						<time>2026-06-05T17:39:42Z</time>
					</trkpt>
					<trkpt lat="49.280200" lon="2.267180">
						<ele>90</ele>
						<time>2026-06-05T17:39:45Z</time>
					</trkpt>
					<trkpt lat="49.280270" lon="2.266960">
						<ele>90</ele>
						<time>2026-06-05T17:39:49Z</time>
					</trkpt>
					<trkpt lat="49.280420" lon="2.266720">
						<ele>89</ele>
						<time>2026-06-05T17:39:54Z</time>
					</trkpt>
					<trkpt lat="49.280550" lon="2.266290">
						<ele>89</ele>
						<time>2026-06-05T17:40:01Z</time>
					</trkpt>
					<trkpt lat="49.280590" lon="2.265990">
						<ele>89</ele>
						<time>2026-06-05T17:40:06Z</time>
					</trkpt>
					<trkpt lat="49.280660" lon="2.265860">
						<ele>89</ele>
						<time>2026-06-05T17:40:08Z</time>
					</trkpt>
					<trkpt lat="49.280710" lon="2.265460">
						<ele>89</ele>
						<time>2026-06-05T17:40:14Z</time>
					</trkpt>
					<trkpt lat="49.280800" lon="2.265160">
						<ele>88</ele>
						<time>2026-06-05T17:40:19Z</time>
					</trkpt>
					<trkpt lat="49.280890" lon="2.264970">
						<ele>88</ele>
						<time>2026-06-05T17:40:23Z</time>
					</trkpt>
					<trkpt lat="49.281020" lon="2.265000">
						<ele>87</ele>
						<time>2026-06-05T17:40:26Z</time>
					</trkpt>
					<trkpt lat="49.281210" lon="2.265180">
						<ele>86</ele>
						<time>2026-06-05T17:40:31Z</time>
					</trkpt>
					<trkpt lat="49.281330" lon="2.265350">
						<ele>85</ele>
						<time>2026-06-05T17:40:35Z</time>
					</trkpt>
					<trkpt lat="49.281750" lon="2.266080">
						<ele>83</ele>
						<time>2026-06-05T17:40:50Z</time>
					</trkpt>
					<trkpt lat="49.282050" lon="2.266760">
						<ele>82</ele>
						<time>2026-06-05T17:41:02Z</time>
					</trkpt>
					<trkpt lat="49.282170" lon="2.267260">
						<ele>81</ele>
						<time>2026-06-05T17:41:11Z</time>
					</trkpt>
					<trkpt lat="49.282220" lon="2.267750">
						<ele>80</ele>
						<time>2026-06-05T17:41:18Z</time>
					</trkpt>
					<trkpt lat="49.282270" lon="2.267900">
						<ele>80</ele>
						<time>2026-06-05T17:41:21Z</time>
					</trkpt>
					<trkpt lat="49.282390" lon="2.267880">
						<ele>79</ele>
						<time>2026-06-05T17:41:24Z</time>
					</trkpt>
					<trkpt lat="49.282560" lon="2.267670">
						<ele>78</ele>
						<time>2026-06-05T17:41:29Z</time>
					</trkpt>
					<trkpt lat="49.282800" lon="2.267240">
						<ele>78</ele>
						<time>2026-06-05T17:41:37Z</time>
					</trkpt>
					<trkpt lat="49.282990" lon="2.267060">
						<ele>77</ele>
						<time>2026-06-05T17:41:42Z</time>
					</trkpt>
					<trkpt lat="49.283160" lon="2.266820">
						<ele>77</ele>
						<time>2026-06-05T17:41:48Z</time>
					</trkpt>
					<trkpt lat="49.283710" lon="2.266220">
						<ele>78</ele>
						<time>2026-06-05T17:42:04Z</time>
					</trkpt>
					<trkpt lat="49.283830" lon="2.266050">
						<ele>78</ele>
						<time>2026-06-05T17:42:07Z</time>
					</trkpt>
					<trkpt lat="49.284240" lon="2.265650">
						<ele>78</ele>
						<time>2026-06-05T17:42:19Z</time>
					</trkpt>
					<trkpt lat="49.284770" lon="2.265480">
						<ele>78</ele>
						<time>2026-06-05T17:42:31Z</time>
					</trkpt>
					<trkpt lat="49.284970" lon="2.265480">
						<ele>78</ele>
						<time>2026-06-05T17:42:36Z</time>
					</trkpt>
					<trkpt lat="49.285100" lon="2.265440">
						<ele>78</ele>
						<time>2026-06-05T17:42:39Z</time>
					</trkpt>
					<trkpt lat="49.285420" lon="2.265410">
						<ele>78</ele>
						<time>2026-06-05T17:42:47Z</time>
					</trkpt>
					<trkpt lat="49.285540" lon="2.265370">
						<ele>79</ele>
						<time>2026-06-05T17:42:50Z</time>
					</trkpt>
					<trkpt lat="49.285630" lon="2.265310">
						<ele>79</ele>
						<time>2026-06-05T17:42:52Z</time>
					</trkpt>
					<trkpt lat="49.285830" lon="2.265300">
						<ele>79</ele>
						<time>2026-06-05T17:42:57Z</time>
					</trkpt>
					<trkpt lat="49.285930" lon="2.265230">
						<ele>79</ele>
						<time>2026-06-05T17:42:59Z</time>
					</trkpt>
					<trkpt lat="49.286340" lon="2.265080">
						<ele>79</ele>
						<time>2026-06-05T17:43:09Z</time>
					</trkpt>
					<trkpt lat="49.286480" lon="2.264990">
						<ele>79</ele>
						<time>2026-06-05T17:43:12Z</time>
					</trkpt>
					<trkpt lat="49.286840" lon="2.264820">
						<ele>80</ele>
						<time>2026-06-05T17:43:21Z</time>
					</trkpt>
					<trkpt lat="49.287090" lon="2.264780">
						<ele>80</ele>
						<time>2026-06-05T17:43:27Z</time>
					</trkpt>
					<trkpt lat="49.287370" lon="2.264680">
						<ele>80</ele>
						<time>2026-06-05T17:43:34Z</time>
					</trkpt>
					<trkpt lat="49.288030" lon="2.264550">
						<ele>80</ele>
						<time>2026-06-05T17:43:49Z</time>
					</trkpt>
					<trkpt lat="49.288250" lon="2.264540">
						<ele>81</ele>
						<time>2026-06-05T17:43:55Z</time>
					</trkpt>
					<trkpt lat="49.288410" lon="2.264500">
						<ele>81</ele>
						<time>2026-06-05T17:43:58Z</time>
					</trkpt>
					<trkpt lat="49.288830" lon="2.264360">
						<ele>82</ele>
						<time>2026-06-05T17:44:08Z</time>
					</trkpt>
					<trkpt lat="49.288930" lon="2.264270">
						<ele>82</ele>
						<time>2026-06-05T17:44:11Z</time>
					</trkpt>
					<trkpt lat="49.288900" lon="2.264110">
						<ele>83</ele>
						<time>2026-06-05T17:44:14Z</time>
					</trkpt>
					<trkpt lat="49.288420" lon="2.263120">
						<ele>84</ele>
						<time>2026-06-05T17:44:32Z</time>
					</trkpt>
					<trkpt lat="49.288350" lon="2.262770">
						<ele>84</ele>
						<time>2026-06-05T17:44:38Z</time>
					</trkpt>
					<trkpt lat="49.288210" lon="2.262480">
						<ele>85</ele>
						<time>2026-06-05T17:44:43Z</time>
					</trkpt>
					<trkpt lat="49.288110" lon="2.262070">
						<ele>86</ele>
						<time>2026-06-05T17:44:50Z</time>
					</trkpt>
					<trkpt lat="49.287980" lon="2.261820">
						<ele>87</ele>
						<time>2026-06-05T17:44:55Z</time>
					</trkpt>
					<trkpt lat="49.287900" lon="2.261720">
						<ele>87</ele>
						<time>2026-06-05T17:44:57Z</time>
					</trkpt>
					<trkpt lat="49.287870" lon="2.261580">
						<ele>87</ele>
						<time>2026-06-05T17:45:00Z</time>
					</trkpt>
					<trkpt lat="49.287760" lon="2.261310">
						<ele>88</ele>
						<time>2026-06-05T17:45:04Z</time>
					</trkpt>
					<trkpt lat="49.287560" lon="2.261210">
						<ele>87</ele>
						<time>2026-06-05T17:45:09Z</time>
					</trkpt>
					<trkpt lat="49.287540" lon="2.261040">
						<ele>88</ele>
						<time>2026-06-05T17:45:12Z</time>
					</trkpt>
					<trkpt lat="49.287480" lon="2.260920">
						<ele>89</ele>
						<time>2026-06-05T17:45:14Z</time>
					</trkpt>
					<trkpt lat="49.287380" lon="2.260870">
						<ele>89</ele>
						<time>2026-06-05T17:45:17Z</time>
					</trkpt>
					<trkpt lat="49.287320" lon="2.260740">
						<ele>89</ele>
						<time>2026-06-05T17:45:19Z</time>
					</trkpt>
					<trkpt lat="49.287240" lon="2.260640">
						<ele>89</ele>
						<time>2026-06-05T17:45:22Z</time>
					</trkpt>
					<trkpt lat="49.287180" lon="2.260460">
						<ele>90</ele>
						<time>2026-06-05T17:45:25Z</time>
					</trkpt>
					<trkpt lat="49.287090" lon="2.260360">
						<ele>90</ele>
						<time>2026-06-05T17:45:27Z</time>
					</trkpt>
					<trkpt lat="49.287040" lon="2.260210">
						<ele>90</ele>
						<time>2026-06-05T17:45:30Z</time>
					</trkpt>
					<trkpt lat="49.286960" lon="2.260100">
						<ele>90</ele>
						<time>2026-06-05T17:45:32Z</time>
					</trkpt>
					<trkpt lat="49.286850" lon="2.259850">
						<ele>90</ele>
						<time>2026-06-05T17:45:37Z</time>
					</trkpt>
					<trkpt lat="49.286720" lon="2.259630">
						<ele>90</ele>
						<time>2026-06-05T17:45:41Z</time>
					</trkpt>
					<trkpt lat="49.286550" lon="2.259170">
						<ele>91</ele>
						<time>2026-06-05T17:45:50Z</time>
					</trkpt>
					<trkpt lat="49.286420" lon="2.259090">
						<ele>92</ele>
						<time>2026-06-05T17:45:53Z</time>
					</trkpt>
					<trkpt lat="49.286330" lon="2.258930">
						<ele>92</ele>
						<time>2026-06-05T17:45:56Z</time>
					</trkpt>
					<trkpt lat="49.286240" lon="2.258660">
						<ele>93</ele>
						<time>2026-06-05T17:46:01Z</time>
					</trkpt>
					<trkpt lat="49.286210" lon="2.258330">
						<ele>94</ele>
						<time>2026-06-05T17:46:06Z</time>
					</trkpt>
					<trkpt lat="49.286140" lon="2.258230">
						<ele>94</ele>
						<time>2026-06-05T17:46:08Z</time>
					</trkpt>
					<trkpt lat="49.286100" lon="2.258110">
						<ele>95</ele>
						<time>2026-06-05T17:46:10Z</time>
					</trkpt>
					<trkpt lat="49.286080" lon="2.257940">
						<ele>96</ele>
						<time>2026-06-05T17:46:13Z</time>
					</trkpt>
					<trkpt lat="49.286280" lon="2.257520">
						<ele>97</ele>
						<time>2026-06-05T17:46:21Z</time>
					</trkpt>
					<trkpt lat="49.286470" lon="2.257190">
						<ele>98</ele>
						<time>2026-06-05T17:46:27Z</time>
					</trkpt>
					<trkpt lat="49.286530" lon="2.257010">
						<ele>99</ele>
						<time>2026-06-05T17:46:30Z</time>
					</trkpt>
					<trkpt lat="49.286670" lon="2.256760">
						<ele>100</ele>
						<time>2026-06-05T17:46:35Z</time>
					</trkpt>
					<trkpt lat="49.286760" lon="2.256660">
						<ele>100</ele>
						<time>2026-06-05T17:46:38Z</time>
					</trkpt>
					<trkpt lat="49.287020" lon="2.256140">
						<ele>101</ele>
						<time>2026-06-05T17:46:48Z</time>
					</trkpt>
					<trkpt lat="49.287250" lon="2.255770">
						<ele>101</ele>
						<time>2026-06-05T17:46:56Z</time>
					</trkpt>
					<trkpt lat="49.287240" lon="2.255600">
						<ele>101</ele>
						<time>2026-06-05T17:46:58Z</time>
					</trkpt>
					<trkpt lat="49.287310" lon="2.256010">
						<ele>101</ele>
						<time>2026-06-05T17:47:05Z</time>
					</trkpt>
					<trkpt lat="49.287300" lon="2.256170">
						<ele>101</ele>
						<time>2026-06-05T17:47:07Z</time>
					</trkpt>
					<trkpt lat="49.287420" lon="2.256460">
						<ele>101</ele>
						<time>2026-06-05T17:47:12Z</time>
					</trkpt>
					<trkpt lat="49.287440" lon="2.256610">
						<ele>101</ele>
						<time>2026-06-05T17:47:15Z</time>
					</trkpt>
					<trkpt lat="49.287500" lon="2.256720">
						<ele>101</ele>
						<time>2026-06-05T17:47:17Z</time>
					</trkpt>
					<trkpt lat="49.287640" lon="2.257230">
						<ele>101</ele>
						<time>2026-06-05T17:47:25Z</time>
					</trkpt>
					<trkpt lat="49.287860" lon="2.257630">
						<ele>101</ele>
						<time>2026-06-05T17:47:33Z</time>
					</trkpt>
					<trkpt lat="49.287890" lon="2.257760">
						<ele>101</ele>
						<time>2026-06-05T17:47:35Z</time>
					</trkpt>
					<trkpt lat="49.288140" lon="2.258100">
						<ele>102</ele>
						<time>2026-06-05T17:47:43Z</time>
					</trkpt>
					<trkpt lat="49.288340" lon="2.258440">
						<ele>103</ele>
						<time>2026-06-05T17:47:50Z</time>
					</trkpt>
					<trkpt lat="49.288420" lon="2.258640">
						<ele>102</ele>
						<time>2026-06-05T17:47:54Z</time>
					</trkpt>
					<trkpt lat="49.288570" lon="2.258880">
						<ele>101</ele>
						<time>2026-06-05T17:47:59Z</time>
					</trkpt>
					<trkpt lat="49.288600" lon="2.259020">
						<ele>100</ele>
						<time>2026-06-05T17:48:01Z</time>
					</trkpt>
					<trkpt lat="49.288830" lon="2.259540">
						<ele>99</ele>
						<time>2026-06-05T17:48:11Z</time>
					</trkpt>
					<trkpt lat="49.289130" lon="2.260040">
						<ele>98</ele>
						<time>2026-06-05T17:48:21Z</time>
					</trkpt>
					<trkpt lat="49.289270" lon="2.260510">
						<ele>94</ele>
						<time>2026-06-05T17:48:29Z</time>
					</trkpt>
					<trkpt lat="49.289440" lon="2.260930">
						<ele>91</ele>
						<time>2026-06-05T17:48:36Z</time>
					</trkpt>
					<trkpt lat="49.289660" lon="2.261590">
						<ele>89</ele>
						<time>2026-06-05T17:48:48Z</time>
					</trkpt>
					<trkpt lat="49.290180" lon="2.262540">
						<ele>86</ele>
						<time>2026-06-05T17:49:07Z</time>
					</trkpt>
					<trkpt lat="49.290710" lon="2.263290">
						<ele>85</ele>
						<time>2026-06-05T17:49:23Z</time>
					</trkpt>
					<trkpt lat="49.290770" lon="2.263420">
						<ele>85</ele>
						<time>2026-06-05T17:49:26Z</time>
					</trkpt>
					<trkpt lat="49.290970" lon="2.263670">
						<ele>84</ele>
						<time>2026-06-05T17:49:32Z</time>
					</trkpt>
					<trkpt lat="49.291420" lon="2.264040">
						<ele>82</ele>
						<time>2026-06-05T17:49:44Z</time>
					</trkpt>
					<trkpt lat="49.291550" lon="2.264100">
						<ele>81</ele>
						<time>2026-06-05T17:49:47Z</time>
					</trkpt>
					<trkpt lat="49.292130" lon="2.264520">
						<ele>80</ele>
						<time>2026-06-05T17:50:02Z</time>
					</trkpt>
					<trkpt lat="49.292270" lon="2.264570">
						<ele>79</ele>
						<time>2026-06-05T17:50:05Z</time>
					</trkpt>
					<trkpt lat="49.292480" lon="2.264690">
						<ele>78</ele>
						<time>2026-06-05T17:50:11Z</time>
					</trkpt>
					<trkpt lat="49.292860" lon="2.264560">
						<ele>77</ele>
						<time>2026-06-05T17:50:20Z</time>
					</trkpt>
					<trkpt lat="49.293000" lon="2.264460">
						<ele>76</ele>
						<time>2026-06-05T17:50:23Z</time>
					</trkpt>
					<trkpt lat="49.293170" lon="2.264280">
						<ele>75</ele>
						<time>2026-06-05T17:50:28Z</time>
					</trkpt>
					<trkpt lat="49.293530" lon="2.263770">
						<ele>74</ele>
						<time>2026-06-05T17:50:40Z</time>
					</trkpt>
					<trkpt lat="49.293670" lon="2.263490">
						<ele>74</ele>
						<time>2026-06-05T17:50:45Z</time>
					</trkpt>
					<trkpt lat="49.293830" lon="2.263250">
						<ele>75</ele>
						<time>2026-06-05T17:50:50Z</time>
					</trkpt>
					<trkpt lat="49.293990" lon="2.262910">
						<ele>75</ele>
						<time>2026-06-05T17:50:57Z</time>
					</trkpt>
					<trkpt lat="49.294130" lon="2.262400">
						<ele>76</ele>
						<time>2026-06-05T17:51:05Z</time>
					</trkpt>
					<trkpt lat="49.294190" lon="2.262050">
						<ele>77</ele>
						<time>2026-06-05T17:51:11Z</time>
					</trkpt>
					<trkpt lat="49.294190" lon="2.261900">
						<ele>77</ele>
						<time>2026-06-05T17:51:13Z</time>
					</trkpt>
					<trkpt lat="49.294340" lon="2.261100">
						<ele>78</ele>
						<time>2026-06-05T17:51:25Z</time>
					</trkpt>
					<trkpt lat="49.294430" lon="2.260800">
						<ele>79</ele>
						<time>2026-06-05T17:51:30Z</time>
					</trkpt>
					<trkpt lat="49.294520" lon="2.260650">
						<ele>79</ele>
						<time>2026-06-05T17:51:34Z</time>
					</trkpt>
					<trkpt lat="49.294560" lon="2.260510">
						<ele>80</ele>
						<time>2026-06-05T17:51:36Z</time>
					</trkpt>
					<trkpt lat="49.294460" lon="2.260410">
						<ele>80</ele>
						<time>2026-06-05T17:51:39Z</time>
					</trkpt>
					<trkpt lat="49.294060" lon="2.260170">
						<ele>80</ele>
						<time>2026-06-05T17:51:49Z</time>
					</trkpt>
					<trkpt lat="49.293880" lon="2.260030">
						<ele>80</ele>
						<time>2026-06-05T17:51:53Z</time>
					</trkpt>
					<trkpt lat="49.293540" lon="2.259640">
						<ele>80</ele>
						<time>2026-06-05T17:52:03Z</time>
					</trkpt>
					<trkpt lat="49.293280" lon="2.259490">
						<ele>80</ele>
						<time>2026-06-05T17:52:10Z</time>
					</trkpt>
					<trkpt lat="49.292980" lon="2.259240">
						<ele>80</ele>
						<time>2026-06-05T17:52:18Z</time>
					</trkpt>
					<trkpt lat="49.292820" lon="2.259040">
						<ele>81</ele>
						<time>2026-06-05T17:52:23Z</time>
					</trkpt>
					<trkpt lat="49.292580" lon="2.258660">
						<ele>82</ele>
						<time>2026-06-05T17:52:31Z</time>
					</trkpt>
					<trkpt lat="49.292400" lon="2.258290">
						<ele>83</ele>
						<time>2026-06-05T17:52:38Z</time>
					</trkpt>
					<trkpt lat="49.292340" lon="2.258100">
						<ele>84</ele>
						<time>2026-06-05T17:52:41Z</time>
					</trkpt>
					<trkpt lat="49.292260" lon="2.257980">
						<ele>85</ele>
						<time>2026-06-05T17:52:44Z</time>
					</trkpt>
					<trkpt lat="49.292160" lon="2.257710">
						<ele>86</ele>
						<time>2026-06-05T17:52:48Z</time>
					</trkpt>
					<trkpt lat="49.292060" lon="2.257580">
						<ele>86</ele>
						<time>2026-06-05T17:52:51Z</time>
					</trkpt>
					<trkpt lat="49.292020" lon="2.257450">
						<ele>87</ele>
						<time>2026-06-05T17:52:54Z</time>
					</trkpt>
					<trkpt lat="49.291780" lon="2.256960">
						<ele>87</ele>
						<time>2026-06-05T17:53:03Z</time>
					</trkpt>
					<trkpt lat="49.291690" lon="2.256870">
						<ele>88</ele>
						<time>2026-06-05T17:53:05Z</time>
					</trkpt>
					<trkpt lat="49.291430" lon="2.256220">
						<ele>90</ele>
						<time>2026-06-05T17:53:17Z</time>
					</trkpt>
					<trkpt lat="49.291230" lon="2.255900">
						<ele>92</ele>
						<time>2026-06-05T17:53:24Z</time>
					</trkpt>
					<trkpt lat="49.291120" lon="2.255590">
						<ele>93</ele>
						<time>2026-06-05T17:53:29Z</time>
					</trkpt>
					<trkpt lat="49.290990" lon="2.255350">
						<ele>95</ele>
						<time>2026-06-05T17:53:34Z</time>
					</trkpt>
					<trkpt lat="49.290840" lon="2.254960">
						<ele>96</ele>
						<time>2026-06-05T17:53:41Z</time>
					</trkpt>
					<trkpt lat="49.290700" lon="2.254750">
						<ele>96</ele>
						<time>2026-06-05T17:53:45Z</time>
					</trkpt>
					<trkpt lat="49.290650" lon="2.254600">
						<ele>97</ele>
						<time>2026-06-05T17:53:48Z</time>
					</trkpt>
					<trkpt lat="49.290360" lon="2.254030">
						<ele>98</ele>
						<time>2026-06-05T17:53:59Z</time>
					</trkpt>
					<trkpt lat="49.289980" lon="2.252840">
						<ele>100</ele>
						<time>2026-06-05T17:54:19Z</time>
					</trkpt>
					<trkpt lat="49.289740" lon="2.252310">
						<ele>103</ele>
						<time>2026-06-05T17:54:29Z</time>
					</trkpt>
					<trkpt lat="49.289680" lon="2.252000">
						<ele>105</ele>
						<time>2026-06-05T17:54:34Z</time>
					</trkpt>
					<trkpt lat="49.289780" lon="2.251880">
						<ele>106</ele>
						<time>2026-06-05T17:54:37Z</time>
					</trkpt>
					<trkpt lat="49.289880" lon="2.251560">
						<ele>109</ele>
						<time>2026-06-05T17:54:42Z</time>
					</trkpt>
					<trkpt lat="49.289970" lon="2.251220">
						<ele>111</ele>
						<time>2026-06-05T17:54:48Z</time>
					</trkpt>
					<trkpt lat="49.290020" lon="2.250780">
						<ele>113</ele>
						<time>2026-06-05T17:54:55Z</time>
					</trkpt>
					<trkpt lat="49.289950" lon="2.250120">
						<ele>116</ele>
						<time>2026-06-05T17:55:05Z</time>
					</trkpt>
					<trkpt lat="49.289970" lon="2.249970">
						<ele>117</ele>
						<time>2026-06-05T17:55:07Z</time>
					</trkpt>
					<trkpt lat="49.289940" lon="2.249800">
						<ele>117</ele>
						<time>2026-06-05T17:55:10Z</time>
					</trkpt>
					<trkpt lat="49.289950" lon="2.249620">
						<ele>118</ele>
						<time>2026-06-05T17:55:13Z</time>
					</trkpt>
					<trkpt lat="49.289850" lon="2.249110">
						<ele>119</ele>
						<time>2026-06-05T17:55:21Z</time>
					</trkpt>
					<trkpt lat="49.289890" lon="2.248850">
						<ele>119</ele>
						<time>2026-06-05T17:55:25Z</time>
					</trkpt>
					<trkpt lat="49.289880" lon="2.248520">
						<ele>119</ele>
						<time>2026-06-05T17:55:30Z</time>
					</trkpt>
					<trkpt lat="49.289830" lon="2.248380">
						<ele>119</ele>
						<time>2026-06-05T17:55:32Z</time>
					</trkpt>
					<trkpt lat="49.289820" lon="2.248220">
						<ele>119</ele>
						<time>2026-06-05T17:55:35Z</time>
					</trkpt>
					<trkpt lat="49.289770" lon="2.248070">
						<ele>119</ele>
						<time>2026-06-05T17:55:37Z</time>
					</trkpt>
					<trkpt lat="49.289720" lon="2.247720">
						<ele>118</ele>
						<time>2026-06-05T17:55:43Z</time>
					</trkpt>
					<trkpt lat="49.289720" lon="2.247130">
						<ele>115</ele>
						<time>2026-06-05T17:55:52Z</time>
					</trkpt>
					<trkpt lat="49.289620" lon="2.246400">
						<ele>114</ele>
						<time>2026-06-05T17:56:03Z</time>
					</trkpt>
					<trkpt lat="49.289680" lon="2.245650">
						<ele>111</ele>
						<time>2026-06-05T17:56:15Z</time>
					</trkpt>
					<trkpt lat="49.289660" lon="2.245390">
						<ele>110</ele>
						<time>2026-06-05T17:56:19Z</time>
					</trkpt>
					<trkpt lat="49.289760" lon="2.244630">
						<ele>108</ele>
						<time>2026-06-05T17:56:30Z</time>
					</trkpt>
					<trkpt lat="49.289840" lon="2.244280">
						<ele>107</ele>
						<time>2026-06-05T17:56:36Z</time>
					</trkpt>
					<trkpt lat="49.289920" lon="2.244070">
						<ele>105</ele>
						<time>2026-06-05T17:56:40Z</time>
					</trkpt>
					<trkpt lat="49.290090" lon="2.243390">
						<ele>103</ele>
						<time>2026-06-05T17:56:51Z</time>
					</trkpt>
					<trkpt lat="49.290170" lon="2.243280">
						<ele>103</ele>
						<time>2026-06-05T17:56:53Z</time>
					</trkpt>
					<trkpt lat="49.290230" lon="2.243010">
						<ele>104</ele>
						<time>2026-06-05T17:56:58Z</time>
					</trkpt>
					<trkpt lat="49.290450" lon="2.242520">
						<ele>104</ele>
						<time>2026-06-05T17:57:07Z</time>
					</trkpt>
					<trkpt lat="49.290580" lon="2.242540">
						<ele>103</ele>
						<time>2026-06-05T17:57:10Z</time>
					</trkpt>
					<trkpt lat="49.290590" lon="2.242400">
						<ele>103</ele>
						<time>2026-06-05T17:57:12Z</time>
					</trkpt>
					<trkpt lat="49.290710" lon="2.242200">
						<ele>104</ele>
						<time>2026-06-05T17:57:16Z</time>
					</trkpt>
					<trkpt lat="49.290870" lon="2.242000">
						<ele>104</ele>
						<time>2026-06-05T17:57:21Z</time>
					</trkpt>
					<trkpt lat="49.291200" lon="2.241670">
						<ele>106</ele>
						<time>2026-06-05T17:57:30Z</time>
					</trkpt>
					<trkpt lat="49.291520" lon="2.241450">
						<ele>109</ele>
						<time>2026-06-05T17:57:38Z</time>
					</trkpt>
					<trkpt lat="49.292060" lon="2.240990">
						<ele>111</ele>
						<time>2026-06-05T17:57:53Z</time>
					</trkpt>
					<trkpt lat="49.292320" lon="2.240720">
						<ele>112</ele>
						<time>2026-06-05T17:58:00Z</time>
					</trkpt>
					<trkpt lat="49.292510" lon="2.240480">
						<ele>112</ele>
						<time>2026-06-05T17:58:06Z</time>
					</trkpt>
					<trkpt lat="49.292880" lon="2.239890">
						<ele>110</ele>
						<time>2026-06-05T17:58:18Z</time>
					</trkpt>
					<trkpt lat="49.292960" lon="2.239950">
						<ele>110</ele>
						<time>2026-06-05T17:58:20Z</time>
					</trkpt>
					<trkpt lat="49.292880" lon="2.240200">
						<ele>110</ele>
						<time>2026-06-05T17:58:25Z</time>
					</trkpt>
					<trkpt lat="49.292420" lon="2.240820">
						<ele>112</ele>
						<time>2026-06-05T17:58:39Z</time>
					</trkpt>
					<trkpt lat="49.292450" lon="2.241050">
						<ele>111</ele>
						<time>2026-06-05T17:58:42Z</time>
					</trkpt>
					<trkpt lat="49.296450" lon="2.245950">
						<ele>94</ele>
						<time>2026-06-05T18:00:42Z</time>
					</trkpt>
					<trkpt lat="49.297620" lon="2.248300">
						<ele>91</ele>
						<time>2026-06-05T18:01:27Z</time>
					</trkpt>
					<trkpt lat="49.298530" lon="2.248710">
						<ele>89</ele>
						<time>2026-06-05T18:01:49Z</time>
					</trkpt>
					<trkpt lat="49.299500" lon="2.248750">
						<ele>85</ele>
						<time>2026-06-05T18:02:12Z</time>
					</trkpt>
					<trkpt lat="49.299940" lon="2.249180">
						<ele>84</ele>
						<time>2026-06-05T18:02:24Z</time>
					</trkpt>
					<trkpt lat="49.300230" lon="2.249040">
						<ele>84</ele>
						<time>2026-06-05T18:02:31Z</time>
					</trkpt>
					<trkpt lat="49.300470" lon="2.249810">
						<ele>83</ele>
						<time>2026-06-05T18:02:44Z</time>
					</trkpt>
					<trkpt lat="49.300950" lon="2.248720">
						<ele>82</ele>
						<time>2026-06-05T18:03:04Z</time>
					</trkpt>
					<trkpt lat="49.301280" lon="2.248310">
						<ele>82</ele>
						<time>2026-06-05T18:03:14Z</time>
					</trkpt>
					<trkpt lat="49.301700" lon="2.249460">
						<ele>81</ele>
						<time>2026-06-05T18:03:34Z</time>
					</trkpt>
					<trkpt lat="49.301730" lon="2.250060">
						<ele>81</ele>
						<time>2026-06-05T18:03:43Z</time>
					</trkpt>
					<trkpt lat="49.302040" lon="2.251010">
						<ele>81</ele>
						<time>2026-06-05T18:03:59Z</time>
					</trkpt>
					<trkpt lat="49.301840" lon="2.252820">
						<ele>79</ele>
						<time>2026-06-05T18:04:27Z</time>
					</trkpt>
					<trkpt lat="49.301600" lon="2.254500">
						<ele>79</ele>
						<time>2026-06-05T18:04:54Z</time>
					</trkpt>
					<trkpt lat="49.300910" lon="2.255880">
						<ele>79</ele>
						<time>2026-06-05T18:05:20Z</time>
					</trkpt>
					<trkpt lat="49.300450" lon="2.257620">
						<ele>84</ele>
						<time>2026-06-05T18:05:49Z</time>
					</trkpt>
					<trkpt lat="49.300250" lon="2.258040">
						<ele>82</ele>
						<time>2026-06-05T18:05:57Z</time>
					</trkpt>
					<trkpt lat="49.300130" lon="2.259840">
						<ele>85</ele>
						<time>2026-06-05T18:06:24Z</time>
					</trkpt>
					<trkpt lat="49.299390" lon="2.262480">
						<ele>81</ele>
						<time>2026-06-05T18:07:08Z</time>
					</trkpt>
					<trkpt lat="49.299710" lon="2.263930">
						<ele>86</ele>
						<time>2026-06-05T18:07:31Z</time>
					</trkpt>
					<trkpt lat="49.299790" lon="2.265080">
						<ele>90</ele>
						<time>2026-06-05T18:07:49Z</time>
					</trkpt>
					<trkpt lat="49.299380" lon="2.266160">
						<ele>90</ele>
						<time>2026-06-05T18:08:08Z</time>
					</trkpt>
					<trkpt lat="49.299170" lon="2.267370">
						<ele>92</ele>
						<time>2026-06-05T18:08:27Z</time>
					</trkpt>
					<trkpt lat="49.299560" lon="2.269370">
						<ele>104</ele>
						<time>2026-06-05T18:08:59Z</time>
					</trkpt>
					<trkpt lat="49.300180" lon="2.271390">
						<ele>107</ele>
						<time>2026-06-05T18:09:33Z</time>
					</trkpt>
					<trkpt lat="49.307630" lon="2.266690">
						<ele>123</ele>
						<time>2026-06-05T18:12:41Z</time>
					</trkpt>
					<trkpt lat="49.319680" lon="2.259020">
						<ele>116</ele>
						<time>2026-06-05T18:17:46Z</time>
					</trkpt>
					<trkpt lat="49.323430" lon="2.256020">
						<ele>111</ele>
						<time>2026-06-05T18:19:24Z</time>
					</trkpt>
					<trkpt lat="49.323130" lon="2.257000">
						<ele>110</ele>
						<time>2026-06-05T18:19:41Z</time>
					</trkpt>
					<trkpt lat="49.326340" lon="2.263540">
						<ele>112</ele>
						<time>2026-06-05T18:21:45Z</time>
					</trkpt>
					<trkpt lat="49.326550" lon="2.264360">
						<ele>113</ele>
						<time>2026-06-05T18:21:59Z</time>
					</trkpt>
					<trkpt lat="49.326720" lon="2.265800">
						<ele>112</ele>
						<time>2026-06-05T18:22:21Z</time>
					</trkpt>
					<trkpt lat="49.328710" lon="2.266260">
						<ele>109</ele>
						<time>2026-06-05T18:23:08Z</time>
					</trkpt>
					<trkpt lat="49.330000" lon="2.266480">
						<ele>109</ele>
						<time>2026-06-05T18:23:38Z</time>
					</trkpt>
					<trkpt lat="49.330260" lon="2.267420">
						<ele>112</ele>
						<time>2026-06-05T18:23:54Z</time>
					</trkpt>
					<trkpt lat="49.330650" lon="2.267920">
						<ele>111</ele>
						<time>2026-06-05T18:24:06Z</time>
					</trkpt>
					<trkpt lat="49.330920" lon="2.268140">
						<ele>111</ele>
						<time>2026-06-05T18:24:13Z</time>
					</trkpt>
					<trkpt lat="49.331130" lon="2.268000">
						<ele>112</ele>
						<time>2026-06-05T18:24:18Z</time>
					</trkpt>
					<trkpt lat="49.331360" lon="2.267680">
						<ele>112</ele>
						<time>2026-06-05T18:24:26Z</time>
					</trkpt>
					<trkpt lat="49.331260" lon="2.268930">
						<ele>111</ele>
						<time>2026-06-05T18:24:45Z</time>
					</trkpt>
					<trkpt lat="49.331030" lon="2.269890">
						<ele>107</ele>
						<time>2026-06-05T18:25:00Z</time>
					</trkpt>
					<trkpt lat="49.330820" lon="2.270530">
						<ele>104</ele>
						<time>2026-06-05T18:25:11Z</time>
					</trkpt>
					<trkpt lat="49.330880" lon="2.271210">
						<ele>101</ele>
						<time>2026-06-05T18:25:22Z</time>
					</trkpt>
					<trkpt lat="49.331040" lon="2.271490">
						<ele>100</ele>
						<time>2026-06-05T18:25:27Z</time>
					</trkpt>
					<trkpt lat="49.330620" lon="2.273790">
						<ele>109</ele>
						<time>2026-06-05T18:26:04Z</time>
					</trkpt>
					<trkpt lat="49.330060" lon="2.276440">
						<ele>107</ele>
						<time>2026-06-05T18:26:46Z</time>
					</trkpt>
					<trkpt lat="49.329130" lon="2.279110">
						<ele>101</ele>
						<time>2026-06-05T18:27:32Z</time>
					</trkpt>
					<trkpt lat="49.327980" lon="2.278570">
						<ele>104</ele>
						<time>2026-06-05T18:28:00Z</time>
					</trkpt>
					<trkpt lat="49.325230" lon="2.275910">
						<ele>107</ele>
						<time>2026-06-05T18:29:16Z</time>
					</trkpt>
					<trkpt lat="49.322990" lon="2.273320">
						<ele>111</ele>
						<time>2026-06-05T18:30:22Z</time>
					</trkpt>
					<trkpt lat="49.320090" lon="2.273320">
						<ele>114</ele>
						<time>2026-06-05T18:31:29Z</time>
					</trkpt>
					<trkpt lat="49.317550" lon="2.273050">
						<ele>110</ele>
						<time>2026-06-05T18:32:29Z</time>
					</trkpt>
					<trkpt lat="49.317000" lon="2.272440">
						<ele>109</ele>
						<time>2026-06-05T18:32:45Z</time>
					</trkpt>
					<trkpt lat="49.316620" lon="2.271340">
						<ele>108</ele>
						<time>2026-06-05T18:33:04Z</time>
					</trkpt>
					<trkpt lat="49.316460" lon="2.271300">
						<ele>107</ele>
						<time>2026-06-05T18:33:07Z</time>
					</trkpt>
					<trkpt lat="49.316330" lon="2.271450">
						<ele>106</ele>
						<time>2026-06-05T18:33:11Z</time>
					</trkpt>
					<trkpt lat="49.316450" lon="2.271980">
						<ele>106</ele>
						<time>2026-06-05T18:33:20Z</time>
					</trkpt>
					<trkpt lat="49.316490" lon="2.272480">
						<ele>104</ele>
						<time>2026-06-05T18:33:27Z</time>
					</trkpt>
					<trkpt lat="49.316410" lon="2.272710">
						<ele>103</ele>
						<time>2026-06-05T18:33:31Z</time>
					</trkpt>
					<trkpt lat="49.316960" lon="2.274530">
						<ele>98</ele>
						<time>2026-06-05T18:34:02Z</time>
					</trkpt>
					<trkpt lat="49.317780" lon="2.276250">
						<ele>89</ele>
						<time>2026-06-05T18:34:34Z</time>
					</trkpt>
					<trkpt lat="49.318480" lon="2.276770">
						<ele>79</ele>
						<time>2026-06-05T18:34:53Z</time>
					</trkpt>
					<trkpt lat="49.319150" lon="2.277670">
						<ele>73</ele>
						<time>2026-06-05T18:35:13Z</time>
					</trkpt>
					<trkpt lat="49.319420" lon="2.278470">
						<ele>69</ele>
						<time>2026-06-05T18:35:27Z</time>
					</trkpt>
					<trkpt lat="49.319860" lon="2.278830">
						<ele>67</ele>
						<time>2026-06-05T18:35:39Z</time>
					</trkpt>
					<trkpt lat="49.320850" lon="2.279350">
						<ele>68</ele>
						<time>2026-06-05T18:36:03Z</time>
					</trkpt>
					<trkpt lat="49.322140" lon="2.279530">
						<ele>73</ele>
						<time>2026-06-05T18:36:33Z</time>
					</trkpt>
					<trkpt lat="49.322750" lon="2.279780">
						<ele>73</ele>
						<time>2026-06-05T18:36:48Z</time>
					</trkpt>
					<trkpt lat="49.323520" lon="2.280710">
						<ele>74</ele>
						<time>2026-06-05T18:37:11Z</time>
					</trkpt>
					<trkpt lat="49.323840" lon="2.281170">
						<ele>73</ele>
						<time>2026-06-05T18:37:21Z</time>
					</trkpt>
					<trkpt lat="49.324510" lon="2.282620">
						<ele>72</ele>
						<time>2026-06-05T18:37:48Z</time>
					</trkpt>
					<trkpt lat="49.323950" lon="2.282520">
						<ele>82</ele>
						<time>2026-06-05T18:38:01Z</time>
					</trkpt>
					<trkpt lat="49.322590" lon="2.281340">
						<ele>95</ele>
						<time>2026-06-05T18:38:38Z</time>
					</trkpt>
					<trkpt lat="49.322230" lon="2.281240">
						<ele>96</ele>
						<time>2026-06-05T18:38:46Z</time>
					</trkpt>
					<trkpt lat="49.321320" lon="2.281360">
						<ele>100</ele>
						<time>2026-06-05T18:39:08Z</time>
					</trkpt>
					<trkpt lat="49.320490" lon="2.281820">
						<ele>103</ele>
						<time>2026-06-05T18:39:28Z</time>
					</trkpt>
					<trkpt lat="49.320850" lon="2.282880">
						<ele>107</ele>
						<time>2026-06-05T18:39:47Z</time>
					</trkpt>
					<trkpt lat="49.323910" lon="2.289160">
						<ele>110</ele>
						<time>2026-06-05T18:41:46Z</time>
					</trkpt>
					<trkpt lat="49.323310" lon="2.290010">
						<ele>110</ele>
						<time>2026-06-05T18:42:05Z</time>
					</trkpt>
					<trkpt lat="49.322330" lon="2.291240">
						<ele>103</ele>
						<time>2026-06-05T18:42:35Z</time>
					</trkpt>
					<trkpt lat="49.322090" lon="2.291350">
						<ele>101</ele>
						<time>2026-06-05T18:42:40Z</time>
					</trkpt>
					<trkpt lat="49.321990" lon="2.291450">
						<ele>100</ele>
						<time>2026-06-05T18:42:43Z</time>
					</trkpt>
					<trkpt lat="49.322290" lon="2.291920">
						<ele>97</ele>
						<time>2026-06-05T18:42:53Z</time>
					</trkpt>
					<trkpt lat="49.322150" lon="2.292600">
						<ele>94</ele>
						<time>2026-06-05T18:43:04Z</time>
					</trkpt>
					<trkpt lat="49.322100" lon="2.293040">
						<ele>95</ele>
						<time>2026-06-05T18:43:11Z</time>
					</trkpt>
					<trkpt lat="49.321980" lon="2.293360">
						<ele>98</ele>
						<time>2026-06-05T18:43:17Z</time>
					</trkpt>
					<trkpt lat="49.321970" lon="2.293580">
						<ele>97</ele>
						<time>2026-06-05T18:43:20Z</time>
					</trkpt>
					<trkpt lat="49.321650" lon="2.294230">
						<ele>101</ele>
						<time>2026-06-05T18:43:32Z</time>
					</trkpt>
					<trkpt lat="49.320310" lon="2.298470">
						<ele>99</ele>
						<time>2026-06-05T18:44:44Z</time>
					</trkpt>
					<trkpt lat="49.319810" lon="2.298140">
						<ele>106</ele>
						<time>2026-06-05T18:44:57Z</time>
					</trkpt>
					<trkpt lat="49.319200" lon="2.297450">
						<ele>109</ele>
						<time>2026-06-05T18:45:14Z</time>
					</trkpt>
					<trkpt lat="49.318720" lon="2.297010">
						<ele>110</ele>
						<time>2026-06-05T18:45:27Z</time>
					</trkpt>
					<trkpt lat="49.316830" lon="2.294360">
						<ele>113</ele>
						<time>2026-06-05T18:46:27Z</time>
					</trkpt>
					<trkpt lat="49.317130" lon="2.297070">
						<ele>112</ele>
						<time>2026-06-05T18:47:09Z</time>
					</trkpt>
					<trkpt lat="49.317020" lon="2.297510">
						<ele>112</ele>
						<time>2026-06-05T18:47:16Z</time>
					</trkpt>
					<trkpt lat="49.317190" lon="2.298010">
						<ele>112</ele>
						<time>2026-06-05T18:47:25Z</time>
					</trkpt>
					<trkpt lat="49.317410" lon="2.300050">
						<ele>112</ele>
						<time>2026-06-05T18:47:56Z</time>
					</trkpt>
					<trkpt lat="49.315450" lon="2.301020">
						<ele>112</ele>
						<time>2026-06-05T18:48:44Z</time>
					</trkpt>
					<trkpt lat="49.314240" lon="2.305430">
						<ele>107</ele>
						<time>2026-06-05T18:49:57Z</time>
					</trkpt>
					<trkpt lat="49.312850" lon="2.308950">
						<ele>101</ele>
						<time>2026-06-05T18:51:00Z</time>
					</trkpt>
					<trkpt lat="49.311900" lon="2.310360">
						<ele>96</ele>
						<time>2026-06-05T18:51:31Z</time>
					</trkpt>
					<trkpt lat="49.311280" lon="2.311210">
						<ele>93</ele>
						<time>2026-06-05T18:51:50Z</time>
					</trkpt>
					<trkpt lat="49.310860" lon="2.313290">
						<ele>89</ele>
						<time>2026-06-05T18:52:23Z</time>
					</trkpt>
					<trkpt lat="49.310940" lon="2.314600">
						<ele>79</ele>
						<time>2026-06-05T18:52:43Z</time>
					</trkpt>
					<trkpt lat="49.311410" lon="2.316190">
						<ele>70</ele>
						<time>2026-06-05T18:53:10Z</time>
					</trkpt>
					<trkpt lat="49.311380" lon="2.316520">
						<ele>67</ele>
						<time>2026-06-05T18:53:15Z</time>
					</trkpt>
					<trkpt lat="49.310770" lon="2.317380">
						<ele>60</ele>
						<time>2026-06-05T18:53:34Z</time>
					</trkpt>
					<trkpt lat="49.311130" lon="2.319040">
						<ele>51</ele>
						<time>2026-06-05T18:54:01Z</time>
					</trkpt>
					<trkpt lat="49.311090" lon="2.319760">
						<ele>49</ele>
						<time>2026-06-05T18:54:12Z</time>
					</trkpt>
					<trkpt lat="49.310690" lon="2.319960">
						<ele>48</ele>
						<time>2026-06-05T18:54:22Z</time>
					</trkpt>
					<trkpt lat="49.310320" lon="2.319950">
						<ele>47</ele>
						<time>2026-06-05T18:54:31Z</time>
					</trkpt>
					<trkpt lat="49.309320" lon="2.317790">
						<ele>50</ele>
						<time>2026-06-05T18:55:11Z</time>
					</trkpt>
					<trkpt lat="49.308880" lon="2.317110">
						<ele>50</ele>
						<time>2026-06-05T18:55:25Z</time>
					</trkpt>
					<trkpt lat="49.308070" lon="2.316760">
						<ele>58</ele>
						<time>2026-06-05T18:55:45Z</time>
					</trkpt>
					<trkpt lat="49.307430" lon="2.316450">
						<ele>71</ele>
						<time>2026-06-05T18:56:01Z</time>
					</trkpt>
					<trkpt lat="49.306580" lon="2.314080">
						<ele>88</ele>
						<time>2026-06-05T18:56:42Z</time>
					</trkpt>
					<trkpt lat="49.306120" lon="2.313630">
						<ele>90</ele>
						<time>2026-06-05T18:56:55Z</time>
					</trkpt>
					<trkpt lat="49.305580" lon="2.313390">
						<ele>93</ele>
						<time>2026-06-05T18:57:08Z</time>
					</trkpt>
					<trkpt lat="49.305030" lon="2.314020">
						<ele>97</ele>
						<time>2026-06-05T18:57:24Z</time>
					</trkpt>
					<trkpt lat="49.301710" lon="2.316630">
						<ele>100</ele>
						<time>2026-06-05T18:58:51Z</time>
					</trkpt>
					<trkpt lat="49.301320" lon="2.317130">
						<ele>97</ele>
						<time>2026-06-05T18:59:03Z</time>
					</trkpt>
					<trkpt lat="49.301170" lon="2.317470">
						<ele>96</ele>
						<time>2026-06-05T18:59:09Z</time>
					</trkpt>
					<trkpt lat="49.301390" lon="2.318100">
						<ele>96</ele>
						<time>2026-06-05T18:59:20Z</time>
					</trkpt>
					<trkpt lat="49.300210" lon="2.319790">
						<ele>96</ele>
						<time>2026-06-05T18:59:58Z</time>
					</trkpt>
					<trkpt lat="49.301280" lon="2.325000">
						<ele>99</ele>
						<time>2026-06-05T19:01:21Z</time>
					</trkpt>
					<trkpt lat="49.301270" lon="2.325390">
						<ele>97</ele>
						<time>2026-06-05T19:01:27Z</time>
					</trkpt>
					<trkpt lat="49.299660" lon="2.325410">
						<ele>94</ele>
						<time>2026-06-05T19:02:04Z</time>
					</trkpt>
					<trkpt lat="49.297950" lon="2.325850">
						<ele>90</ele>
						<time>2026-06-05T19:02:45Z</time>
					</trkpt>
					<trkpt lat="49.296490" lon="2.326670">
						<ele>88</ele>
						<time>2026-06-05T19:03:21Z</time>
					</trkpt>
					<trkpt lat="49.295890" lon="2.327880">
						<ele>84</ele>
						<time>2026-06-05T19:03:44Z</time>
					</trkpt>
					<trkpt lat="49.295160" lon="2.327100">
						<ele>90</ele>
						<time>2026-06-05T19:04:05Z</time>
					</trkpt>
					<trkpt lat="49.293860" lon="2.323300">
						<ele>94</ele>
						<time>2026-06-05T19:05:10Z</time>
					</trkpt>
					<trkpt lat="49.293950" lon="2.320520">
						<ele>97</ele>
						<time>2026-06-05T19:05:53Z</time>
					</trkpt>
					<trkpt lat="49.293760" lon="2.319080">
						<ele>99</ele>
						<time>2026-06-05T19:06:15Z</time>
					</trkpt>
					<trkpt lat="49.292450" lon="2.316160">
						<ele>101</ele>
						<time>2026-06-05T19:07:09Z</time>
					</trkpt>
					<trkpt lat="49.291560" lon="2.312960">
						<ele>107</ele>
						<time>2026-06-05T19:08:02Z</time>
					</trkpt>
					<trkpt lat="49.289990" lon="2.306860">
						<ele>111</ele>
						<time>2026-06-05T19:09:42Z</time>
					</trkpt>
					<trkpt lat="49.287960" lon="2.300590">
						<ele>113</ele>
						<time>2026-06-05T19:11:29Z</time>
					</trkpt>
					<trkpt lat="49.281950" lon="2.304410">
						<ele>103</ele>
						<time>2026-06-05T19:14:01Z</time>
					</trkpt>
					<trkpt lat="49.280700" lon="2.305180">
						<ele>98</ele>
						<time>2026-06-05T19:14:32Z</time>
					</trkpt>
					<trkpt lat="49.279750" lon="2.306630">
						<ele>91</ele>
						<time>2026-06-05T19:15:03Z</time>
					</trkpt>
					<trkpt lat="49.279700" lon="2.307850">
						<ele>87</ele>
						<time>2026-06-05T19:15:22Z</time>
					</trkpt>
					<trkpt lat="49.279750" lon="2.309400">
						<ele>82</ele>
						<time>2026-06-05T19:15:46Z</time>
					</trkpt>
					<trkpt lat="49.279510" lon="2.309110">
						<ele>80</ele>
						<time>2026-06-05T19:15:53Z</time>
					</trkpt>
					<trkpt lat="49.279260" lon="2.308220">
						<ele>80</ele>
						<time>2026-06-05T19:16:08Z</time>
					</trkpt>
					<trkpt lat="49.279130" lon="2.308310">
						<ele>78</ele>
						<time>2026-06-05T19:16:11Z</time>
					</trkpt>
					<trkpt lat="49.279060" lon="2.308840">
						<ele>76</ele>
						<time>2026-06-05T19:16:19Z</time>
					</trkpt>
					<trkpt lat="49.278960" lon="2.311590">
						<ele>67</ele>
						<time>2026-06-05T19:17:01Z</time>
					</trkpt>
					<trkpt lat="49.279160" lon="2.311800">
						<ele>67</ele>
						<time>2026-06-05T19:17:07Z</time>
					</trkpt>
					<trkpt lat="49.279380" lon="2.312580">
						<ele>64</ele>
						<time>2026-06-05T19:17:20Z</time>
					</trkpt>
					<trkpt lat="49.279290" lon="2.313190">
						<ele>62</ele>
						<time>2026-06-05T19:17:29Z</time>
					</trkpt>
					<trkpt lat="49.279380" lon="2.313870">
						<ele>65</ele>
						<time>2026-06-05T19:17:40Z</time>
					</trkpt>
					<trkpt lat="49.279870" lon="2.314330">
						<ele>71</ele>
						<time>2026-06-05T19:17:53Z</time>
					</trkpt>
					<trkpt lat="49.280020" lon="2.314780">
						<ele>72</ele>
						<time>2026-06-05T19:18:01Z</time>
					</trkpt>
					<trkpt lat="49.280010" lon="2.315530">
						<ele>73</ele>
						<time>2026-06-05T19:18:12Z</time>
					</trkpt>
					<trkpt lat="49.280060" lon="2.315940">
						<ele>75</ele>
						<time>2026-06-05T19:18:19Z</time>
					</trkpt>
					<trkpt lat="49.280340" lon="2.316410">
						<ele>77</ele>
						<time>2026-06-05T19:18:28Z</time>
					</trkpt>
					<trkpt lat="49.280480" lon="2.317100">
						<ele>76</ele>
						<time>2026-06-05T19:18:39Z</time>
					</trkpt>
					<trkpt lat="49.280310" lon="2.318200">
						<ele>70</ele>
						<time>2026-06-05T19:18:57Z</time>
					</trkpt>
					<trkpt lat="49.279930" lon="2.318730">
						<ele>64</ele>
						<time>2026-06-05T19:19:09Z</time>
					</trkpt>
					<trkpt lat="49.279890" lon="2.319090">
						<ele>63</ele>
						<time>2026-06-05T19:19:14Z</time>
					</trkpt>
					<trkpt lat="49.280180" lon="2.320080">
						<ele>60</ele>
						<time>2026-06-05T19:19:31Z</time>
					</trkpt>
					<trkpt lat="49.281290" lon="2.319120">
						<ele>70</ele>
						<time>2026-06-05T19:20:01Z</time>
					</trkpt>
					<trkpt lat="49.282360" lon="2.319060">
						<ele>81</ele>
						<time>2026-06-05T19:20:26Z</time>
					</trkpt>
					<trkpt lat="49.283530" lon="2.318950">
						<ele>89</ele>
						<time>2026-06-05T19:20:53Z</time>
					</trkpt>
					<trkpt lat="49.285040" lon="2.318550">
						<ele>91</ele>
						<time>2026-06-05T19:21:29Z</time>
					</trkpt>
					<trkpt lat="49.284750" lon="2.319350">
						<ele>94</ele>
						<time>2026-06-05T19:21:43Z</time>
					</trkpt>
					<trkpt lat="49.284660" lon="2.319950">
						<ele>95</ele>
						<time>2026-06-05T19:21:52Z</time>
					</trkpt>
					<trkpt lat="49.283630" lon="2.321120">
						<ele>90</ele>
						<time>2026-06-05T19:22:22Z</time>
					</trkpt>
					<trkpt lat="49.282180" lon="2.324040">
						<ele>75</ele>
						<time>2026-06-05T19:23:18Z</time>
					</trkpt>
					<trkpt lat="49.282030" lon="2.327130">
						<ele>64</ele>
						<time>2026-06-05T19:24:05Z</time>
					</trkpt>
					<trkpt lat="49.281010" lon="2.329140">
						<ele>51</ele>
						<time>2026-06-05T19:24:44Z</time>
					</trkpt>
					<trkpt lat="49.280310" lon="2.331410">
						<ele>54</ele>
						<time>2026-06-05T19:25:22Z</time>
					</trkpt>
					<trkpt lat="49.280290" lon="2.332480">
						<ele>59</ele>
						<time>2026-06-05T19:25:38Z</time>
					</trkpt>
					<trkpt lat="49.280410" lon="2.334440">
						<ele>68</ele>
						<time>2026-06-05T19:26:08Z</time>
					</trkpt>
					<trkpt lat="49.280040" lon="2.336190">
						<ele>73</ele>
						<time>2026-06-05T19:26:36Z</time>
					</trkpt>
					<trkpt lat="49.279820" lon="2.336170">
						<ele>76</ele>
						<time>2026-06-05T19:26:42Z</time>
					</trkpt>
					<trkpt lat="49.279860" lon="2.335050">
						<ele>77</ele>
						<time>2026-06-05T19:26:59Z</time>
					</trkpt>
					<trkpt lat="49.279650" lon="2.334130">
						<ele>78</ele>
						<time>2026-06-05T19:27:14Z</time>
					</trkpt>
					<trkpt lat="49.278960" lon="2.333700">
						<ele>79</ele>
						<time>2026-06-05T19:27:31Z</time>
					</trkpt>
					<trkpt lat="49.274170" lon="2.333620">
						<ele>98</ele>
						<time>2026-06-05T19:29:23Z</time>
					</trkpt>
					<trkpt lat="49.277240" lon="2.341950">
						<ele>96</ele>
						<time>2026-06-05T19:31:49Z</time>
					</trkpt>
					<trkpt lat="49.278380" lon="2.344720">
						<ele>94</ele>
						<time>2026-06-05T19:32:38Z</time>
					</trkpt>
					<trkpt lat="49.278970" lon="2.346620">
						<ele>92</ele>
						<time>2026-06-05T19:33:11Z</time>
					</trkpt>
					<trkpt lat="49.279290" lon="2.348900">
						<ele>88</ele>
						<time>2026-06-05T19:33:46Z</time>
					</trkpt>
					<trkpt lat="49.279840" lon="2.348650">
						<ele>89</ele>
						<time>2026-06-05T19:33:59Z</time>
					</trkpt>
					<trkpt lat="49.281660" lon="2.356750">
						<ele>82</ele>
						<time>2026-06-05T19:36:10Z</time>
					</trkpt>
					<trkpt lat="49.281130" lon="2.357680">
						<ele>70</ele>
						<time>2026-06-05T19:36:29Z</time>
					</trkpt>
					<trkpt lat="49.282550" lon="2.359100">
						<ele>70</ele>
						<time>2026-06-05T19:37:08Z</time>
					</trkpt>
					<trkpt lat="49.284160" lon="2.359690">
						<ele>75</ele>
						<time>2026-06-05T19:37:47Z</time>
					</trkpt>
					<trkpt lat="49.285290" lon="2.359510">
						<ele>62</ele>
						<time>2026-06-05T19:38:14Z</time>
					</trkpt>
					<trkpt lat="49.286980" lon="2.357250">
						<ele>43</ele>
						<time>2026-06-05T19:39:06Z</time>
					</trkpt>
					<trkpt lat="49.288110" lon="2.358390">
						<ele>39</ele>
						<time>2026-06-05T19:39:37Z</time>
					</trkpt>
					<trkpt lat="49.289020" lon="2.360980">
						<ele>39</ele>
						<time>2026-06-05T19:40:22Z</time>
					</trkpt>
					<trkpt lat="49.290910" lon="2.363010">
						<ele>37</ele>
						<time>2026-06-05T19:41:16Z</time>
					</trkpt>
					<trkpt lat="49.291140" lon="2.363520">
						<ele>38</ele>
						<time>2026-06-05T19:41:26Z</time>
					</trkpt>
					<trkpt lat="49.290610" lon="2.364390">
						<ele>39</ele>
						<time>2026-06-05T19:41:44Z</time>
					</trkpt>
					<trkpt lat="49.290400" lon="2.364240">
						<ele>40</ele>
						<time>2026-06-05T19:41:49Z</time>
					</trkpt>
					<trkpt lat="49.290280" lon="2.364590">
						<ele>40</ele>
						<time>2026-06-05T19:41:55Z</time>
					</trkpt>
					<trkpt lat="49.290850" lon="2.365290">
						<ele>40</ele>
						<time>2026-06-05T19:42:12Z</time>
					</trkpt>
					<trkpt lat="49.290880" lon="2.365970">
						<ele>41</ele>
						<time>2026-06-05T19:42:23Z</time>
					</trkpt>
					<trkpt lat="49.291440" lon="2.366370">
						<ele>44</ele>
						<time>2026-06-05T19:42:37Z</time>
					</trkpt>
					<trkpt lat="49.291650" lon="2.366140">
						<ele>44</ele>
						<time>2026-06-05T19:42:43Z</time>
					</trkpt>
					<trkpt lat="49.292370" lon="2.364700">
						<ele>44</ele>
						<time>2026-06-05T19:43:11Z</time>
					</trkpt>
					<trkpt lat="49.292760" lon="2.363820">
						<ele>44</ele>
						<time>2026-06-05T19:43:27Z</time>
					</trkpt>
					<trkpt lat="49.293370" lon="2.363890">
						<ele>51</ele>
						<time>2026-06-05T19:43:41Z</time>
					</trkpt>
					<trkpt lat="49.293670" lon="2.364040">
						<ele>59</ele>
						<time>2026-06-05T19:43:49Z</time>
					</trkpt>
					<trkpt lat="49.294360" lon="2.365230">
						<ele>76</ele>
						<time>2026-06-05T19:44:13Z</time>
					</trkpt>
					<trkpt lat="49.294650" lon="2.365430">
						<ele>81</ele>
						<time>2026-06-05T19:44:20Z</time>
					</trkpt>
					<trkpt lat="49.294950" lon="2.365880">
						<ele>87</ele>
						<time>2026-06-05T19:44:30Z</time>
					</trkpt>
					<trkpt lat="49.294930" lon="2.367370">
						<ele>94</ele>
						<time>2026-06-05T19:44:53Z</time>
					</trkpt>
					<trkpt lat="49.295000" lon="2.368210">
						<ele>95</ele>
						<time>2026-06-05T19:45:06Z</time>
					</trkpt>
					<trkpt lat="49.295340" lon="2.368880">
						<ele>96</ele>
						<time>2026-06-05T19:45:19Z</time>
					</trkpt>
					<trkpt lat="49.296520" lon="2.370870">
						<ele>101</ele>
						<time>2026-06-05T19:46:00Z</time>
					</trkpt>
					<trkpt lat="49.297210" lon="2.372260">
						<ele>99</ele>
						<time>2026-06-05T19:46:26Z</time>
					</trkpt>
					<trkpt lat="49.298100" lon="2.373680">
						<ele>97</ele>
						<time>2026-06-05T19:46:56Z</time>
					</trkpt>
					<trkpt lat="49.298540" lon="2.374330">
						<ele>97</ele>
						<time>2026-06-05T19:47:10Z</time>
					</trkpt>
					<trkpt lat="49.299550" lon="2.375220">
						<ele>97</ele>
						<time>2026-06-05T19:47:38Z</time>
					</trkpt>
					<trkpt lat="49.300070" lon="2.375760">
						<ele>97</ele>
						<time>2026-06-05T19:47:52Z</time>
					</trkpt>
					<trkpt lat="49.302200" lon="2.377240">
						<ele>103</ele>
						<time>2026-06-05T19:48:47Z</time>
					</trkpt>
					<trkpt lat="49.302240" lon="2.377920">
						<ele>104</ele>
						<time>2026-06-05T19:48:57Z</time>
					</trkpt>
					<trkpt lat="49.302140" lon="2.378230">
						<ele>104</ele>
						<time>2026-06-05T19:49:03Z</time>
					</trkpt>
					<trkpt lat="49.301780" lon="2.378500">
						<ele>103</ele>
						<time>2026-06-05T19:49:12Z</time>
					</trkpt>
					<trkpt lat="49.299670" lon="2.378630">
						<ele>100</ele>
						<time>2026-06-05T19:50:01Z</time>
					</trkpt>
					<trkpt lat="49.298870" lon="2.378890">
						<ele>101</ele>
						<time>2026-06-05T19:50:20Z</time>
					</trkpt>
					<trkpt lat="49.297730" lon="2.379200">
						<ele>101</ele>
						<time>2026-06-05T19:50:47Z</time>
					</trkpt>
					<trkpt lat="49.295760" lon="2.379170">
						<ele>103</ele>
						<time>2026-06-05T19:51:33Z</time>
					</trkpt>
					<trkpt lat="49.293770" lon="2.379100">
						<ele>98</ele>
						<time>2026-06-05T19:52:20Z</time>
					</trkpt>
					<trkpt lat="49.293390" lon="2.380030">
						<ele>96</ele>
						<time>2026-06-05T19:52:37Z</time>
					</trkpt>
					<trkpt lat="49.293820" lon="2.380680">
						<ele>94</ele>
						<time>2026-06-05T19:52:51Z</time>
					</trkpt>
					<trkpt lat="49.294710" lon="2.382590">
						<ele>85</ele>
						<time>2026-06-05T19:53:26Z</time>
					</trkpt>
					<trkpt lat="49.294540" lon="2.383570">
						<ele>74</ele>
						<time>2026-06-05T19:53:42Z</time>
					</trkpt>
					<trkpt lat="49.294200" lon="2.384080">
						<ele>65</ele>
						<time>2026-06-05T19:53:53Z</time>
					</trkpt>
					<trkpt lat="49.293990" lon="2.384510">
						<ele>62</ele>
						<time>2026-06-05T19:54:01Z</time>
					</trkpt>
					<trkpt lat="49.294140" lon="2.385530">
						<ele>62</ele>
						<time>2026-06-05T19:54:17Z</time>
					</trkpt>
					<trkpt lat="49.294100" lon="2.385810">
						<ele>62</ele>
						<time>2026-06-05T19:54:21Z</time>
					</trkpt>
					<trkpt lat="49.293980" lon="2.385980">
						<ele>64</ele>
						<time>2026-06-05T19:54:25Z</time>
					</trkpt>
					<trkpt lat="49.294260" lon="2.386620">
						<ele>65</ele>
						<time>2026-06-05T19:54:37Z</time>
					</trkpt>
					<trkpt lat="49.295310" lon="2.387980">
						<ele>66</ele>
						<time>2026-06-05T19:55:09Z</time>
					</trkpt>
					<trkpt lat="49.295990" lon="2.388420">
						<ele>68</ele>
						<time>2026-06-05T19:55:26Z</time>
					</trkpt>
					<trkpt lat="49.296270" lon="2.387070">
						<ele>77</ele>
						<time>2026-06-05T19:55:48Z</time>
					</trkpt>
					<trkpt lat="49.296200" lon="2.386790">
						<ele>79</ele>
						<time>2026-06-05T19:55:52Z</time>
					</trkpt>
					<trkpt lat="49.295850" lon="2.386500">
						<ele>78</ele>
						<time>2026-06-05T19:56:02Z</time>
					</trkpt>
					<trkpt lat="49.295840" lon="2.385470">
						<ele>89</ele>
						<time>2026-06-05T19:56:17Z</time>
					</trkpt>
					<trkpt lat="49.295950" lon="2.384850">
						<ele>94</ele>
						<time>2026-06-05T19:56:27Z</time>
					</trkpt>
					<trkpt lat="49.296440" lon="2.385620">
						<ele>93</ele>
						<time>2026-06-05T19:56:44Z</time>
					</trkpt>
					<trkpt lat="49.296680" lon="2.385680">
						<ele>95</ele>
						<time>2026-06-05T19:56:49Z</time>
					</trkpt>
					<trkpt lat="49.297050" lon="2.385150">
						<ele>97</ele>
						<time>2026-06-05T19:57:01Z</time>
					</trkpt>
					<trkpt lat="49.298210" lon="2.386470">
						<ele>100</ele>
						<time>2026-06-05T19:57:35Z</time>
					</trkpt>
					<trkpt lat="49.300310" lon="2.388620">
						<ele>102</ele>
						<time>2026-06-05T19:58:34Z</time>
					</trkpt>
					<trkpt lat="49.300910" lon="2.389140">
						<ele>99</ele>
						<time>2026-06-05T19:58:50Z</time>
					</trkpt>
					<trkpt lat="49.302390" lon="2.389700">
						<ele>104</ele>
						<time>2026-06-05T19:59:26Z</time>
					</trkpt>
					<trkpt lat="49.302650" lon="2.390150">
						<ele>105</ele>
						<time>2026-06-05T19:59:35Z</time>
					</trkpt>
					<trkpt lat="49.301810" lon="2.395570">
						<ele>105</ele>
						<time>2026-06-05T20:01:00Z</time>
					</trkpt>
					<trkpt lat="49.301520" lon="2.397600">
						<ele>106</ele>
						<time>2026-06-05T20:01:31Z</time>
					</trkpt>
					<trkpt lat="49.301600" lon="2.397750">
						<ele>106</ele>
						<time>2026-06-05T20:01:34Z</time>
					</trkpt>
					<trkpt lat="49.301590" lon="2.398460">
						<ele>106</ele>
						<time>2026-06-05T20:01:45Z</time>
					</trkpt>
					<trkpt lat="49.300810" lon="2.399500">
						<ele>105</ele>
						<time>2026-06-05T20:02:09Z</time>
					</trkpt>
					<trkpt lat="49.299790" lon="2.401360">
						<ele>108</ele>
						<time>2026-06-05T20:02:46Z</time>
					</trkpt>
					<trkpt lat="49.299060" lon="2.405570">
						<ele>109</ele>
						<time>2026-06-05T20:03:52Z</time>
					</trkpt>
					<trkpt lat="49.298650" lon="2.413870">
						<ele>103</ele>
						<time>2026-06-05T20:05:59Z</time>
					</trkpt>
					<trkpt lat="49.296020" lon="2.418930">
						<ele>108</ele>
						<time>2026-06-05T20:07:38Z</time>
					</trkpt>
					<trkpt lat="49.294510" lon="2.421920">
						<ele>108</ele>
						<time>2026-06-05T20:08:35Z</time>
					</trkpt>
					<trkpt lat="49.293160" lon="2.423870">
						<ele>103</ele>
						<time>2026-06-05T20:09:19Z</time>
					</trkpt>
					<trkpt lat="49.290960" lon="2.430420">
						<ele>102</ele>
						<time>2026-06-05T20:11:11Z</time>
					</trkpt>
					<trkpt lat="49.290770" lon="2.429070">
						<ele>98</ele>
						<time>2026-06-05T20:11:32Z</time>
					</trkpt>
					<trkpt lat="49.290070" lon="2.427210">
						<ele>86</ele>
						<time>2026-06-05T20:12:05Z</time>
					</trkpt>
					<trkpt lat="49.289330" lon="2.426170">
						<ele>90</ele>
						<time>2026-06-05T20:12:28Z</time>
					</trkpt>
					<trkpt lat="49.289380" lon="2.425370">
						<ele>91</ele>
						<time>2026-06-05T20:12:40Z</time>
					</trkpt>
					<trkpt lat="49.288490" lon="2.423570">
						<ele>96</ele>
						<time>2026-06-05T20:13:15Z</time>
					</trkpt>
					<trkpt lat="49.287040" lon="2.419730">
						<ele>95</ele>
						<time>2026-06-05T20:14:22Z</time>
					</trkpt>
					<trkpt lat="49.286800" lon="2.417850">
						<ele>91</ele>
						<time>2026-06-05T20:14:51Z</time>
					</trkpt>
					<trkpt lat="49.286080" lon="2.416240">
						<ele>92</ele>
						<time>2026-06-05T20:15:21Z</time>
					</trkpt>
					<trkpt lat="49.284550" lon="2.414720">
						<ele>92</ele>
						<time>2026-06-05T20:16:04Z</time>
					</trkpt>
					<trkpt lat="49.283800" lon="2.413820">
						<ele>94</ele>
						<time>2026-06-05T20:16:26Z</time>
					</trkpt>
					<trkpt lat="49.282660" lon="2.411520">
						<ele>97</ele>
						<time>2026-06-05T20:17:10Z</time>
					</trkpt>
					<trkpt lat="49.282180" lon="2.409710">
						<ele>99</ele>
						<time>2026-06-05T20:17:40Z</time>
					</trkpt>
					<trkpt lat="49.282490" lon="2.408650">
						<ele>101</ele>
						<time>2026-06-05T20:17:57Z</time>
					</trkpt>
					<trkpt lat="49.282490" lon="2.404050">
						<ele>102</ele>
						<time>2026-06-05T20:19:08Z</time>
					</trkpt>
					<trkpt lat="49.282030" lon="2.401660">
						<ele>102</ele>
						<time>2026-06-05T20:19:46Z</time>
					</trkpt>
					<trkpt lat="49.282180" lon="2.400390">
						<ele>102</ele>
						<time>2026-06-05T20:20:05Z</time>
					</trkpt>
					<trkpt lat="49.282650" lon="2.399740">
						<ele>100</ele>
						<time>2026-06-05T20:20:20Z</time>
					</trkpt>
					<trkpt lat="49.282110" lon="2.397500">
						<ele>100</ele>
						<time>2026-06-05T20:20:56Z</time>
					</trkpt>
					<trkpt lat="49.282590" lon="2.395760">
						<ele>100</ele>
						<time>2026-06-05T20:21:25Z</time>
					</trkpt>
					<trkpt lat="49.283200" lon="2.395170">
						<ele>101</ele>
						<time>2026-06-05T20:21:42Z</time>
					</trkpt>
					<trkpt lat="49.283370" lon="2.393960">
						<ele>100</ele>
						<time>2026-06-05T20:22:01Z</time>
					</trkpt>
					<trkpt lat="49.282110" lon="2.393010">
						<ele>107</ele>
						<time>2026-06-05T20:22:34Z</time>
					</trkpt>
					<trkpt lat="49.281920" lon="2.391140">
						<ele>106</ele>
						<time>2026-06-05T20:23:02Z</time>
					</trkpt>
					<trkpt lat="49.281070" lon="2.389220">
						<ele>98</ele>
						<time>2026-06-05T20:23:38Z</time>
					</trkpt>
					<trkpt lat="49.280450" lon="2.387130">
						<ele>94</ele>
						<time>2026-06-05T20:24:13Z</time>
					</trkpt>
					<trkpt lat="49.279470" lon="2.385600">
						<ele>87</ele>
						<time>2026-06-05T20:24:45Z</time>
					</trkpt>
					<trkpt lat="49.278310" lon="2.384800">
						<ele>85</ele>
						<time>2026-06-05T20:25:15Z</time>
					</trkpt>
					<trkpt lat="49.278270" lon="2.383360">
						<ele>89</ele>
						<time>2026-06-05T20:25:37Z</time>
					</trkpt>
					<trkpt lat="49.279750" lon="2.384290">
						<ele>89</ele>
						<time>2026-06-05T20:26:14Z</time>
					</trkpt>
					<trkpt lat="49.278230" lon="2.380810">
						<ele>91</ele>
						<time>2026-06-05T20:27:18Z</time>
					</trkpt>
					<trkpt lat="49.276430" lon="2.374270">
						<ele>100</ele>
						<time>2026-06-05T20:29:06Z</time>
					</trkpt>
					<trkpt lat="49.275710" lon="2.373570">
						<ele>100</ele>
						<time>2026-06-05T20:29:26Z</time>
					</trkpt>
					<trkpt lat="49.274920" lon="2.372200">
						<ele>102</ele>
						<time>2026-06-05T20:29:54Z</time>
					</trkpt>
					<trkpt lat="49.274200" lon="2.371610">
						<ele>101</ele>
						<time>2026-06-05T20:30:13Z</time>
					</trkpt>
					<trkpt lat="49.270960" lon="2.370580">
						<ele>83</ele>
						<time>2026-06-05T20:31:31Z</time>
					</trkpt>
					<trkpt lat="49.268980" lon="2.369450">
						<ele>73</ele>
						<time>2026-06-05T20:32:20Z</time>
					</trkpt>
					<trkpt lat="49.268310" lon="2.369440">
						<ele>67</ele>
						<time>2026-06-05T20:32:35Z</time>
					</trkpt>
					<trkpt lat="49.267860" lon="2.370370">
						<ele>61</ele>
						<time>2026-06-05T20:32:53Z</time>
					</trkpt>
					<trkpt lat="49.267550" lon="2.369670">
						<ele>54</ele>
						<time>2026-06-05T20:33:06Z</time>
					</trkpt>
					<trkpt lat="49.267480" lon="2.368370">
						<ele>52</ele>
						<time>2026-06-05T20:33:26Z</time>
					</trkpt>
					<trkpt lat="49.267690" lon="2.367330">
						<ele>47</ele>
						<time>2026-06-05T20:33:42Z</time>
					</trkpt>
					<trkpt lat="49.268560" lon="2.366150">
						<ele>46</ele>
						<time>2026-06-05T20:34:10Z</time>
					</trkpt>
					<trkpt lat="49.269740" lon="2.365660">
						<ele>48</ele>
						<time>2026-06-05T20:34:38Z</time>
					</trkpt>
					<trkpt lat="49.270750" lon="2.366170">
						<ele>53</ele>
						<time>2026-06-05T20:35:03Z</time>
					</trkpt>
					<trkpt lat="49.271450" lon="2.366580">
						<ele>53</ele>
						<time>2026-06-05T20:35:21Z</time>
					</trkpt>
					<trkpt lat="49.271940" lon="2.366700">
						<ele>49</ele>
						<time>2026-06-05T20:35:32Z</time>
					</trkpt>
					<trkpt lat="49.271990" lon="2.365860">
						<ele>39</ele>
						<time>2026-06-05T20:35:45Z</time>
					</trkpt>
					<trkpt lat="49.272200" lon="2.364390">
						<ele>36</ele>
						<time>2026-06-05T20:36:08Z</time>
					</trkpt>
					<trkpt lat="49.272330" lon="2.363810">
						<ele>37</ele>
						<time>2026-06-05T20:36:17Z</time>
					</trkpt>
					<trkpt lat="49.272430" lon="2.363020">
						<ele>37</ele>
						<time>2026-06-05T20:36:29Z</time>
					</trkpt>
					<trkpt lat="49.272660" lon="2.362490">
						<ele>37</ele>
						<time>2026-06-05T20:36:39Z</time>
					</trkpt>
					<trkpt lat="49.272630" lon="2.361100">
						<ele>36</ele>
						<time>2026-06-05T20:37:00Z</time>
					</trkpt>
					<trkpt lat="49.272120" lon="2.361060">
						<ele>36</ele>
						<time>2026-06-05T20:37:12Z</time>
					</trkpt>
					</trkseg>
				</trk>
			</gpx>