<?xml version="1.0" encoding="UTF-8" ?>
<gpx version="1.1" xmlns:xsi="http://www.w3.org/2001/XMLSchema-instance"
    xmlns="http://www.topografix.com/GPX/1/1"
    xsi:schemaLocation="http://www.topografix.com/GPX/1/1 http://www.topografix.com/GPX/1/1/gpx.xsd"
    creator="Openrunner - https://www.openrunner.com" >	<trk>
	                   <name>René Gérard 2026 - 28 km - 500m D+-24238438</name>
						<trkseg>
					<trkpt lat="49.272160" lon="2.361100">
						<ele>36</ele>
						<time>2026-06-05T16:57:06Z</time>
					</trkpt>
					<trkpt lat="49.272610" lon="2.361100">
						<ele>36</ele>
						<time>2026-06-05T16:57:17Z</time>
					</trkpt>
					<trkpt lat="49.272620" lon="2.357480">
						<ele>36</ele>
						<time>2026-06-05T16:58:12Z</time>
					</trkpt>
					<trkpt lat="49.272990" lon="2.356170">
						<ele>40</ele>
						<time>2026-06-05T16:58:33Z</time>
					</trkpt>
					<trkpt lat="49.273100" lon="2.355890">
						<ele>42</ele>
						<time>2026-06-05T16:58:38Z</time>
					</trkpt>
					<trkpt lat="49.273070" lon="2.355800">
						<ele>42</ele>
						<time>2026-06-05T16:58:40Z</time>
					</trkpt>
					<trkpt lat="49.272980" lon="2.355700">
						<ele>42</ele>
						<time>2026-06-05T16:58:43Z</time>
					</trkpt>
					<trkpt lat="49.272270" lon="2.355120">
						<ele>41</ele>
						<time>2026-06-05T16:59:01Z</time>
					</trkpt>
					<trkpt lat="49.271620" lon="2.354360">
						<ele>42</ele>
						<time>2026-06-05T16:59:20Z</time>
					</trkpt>
					<trkpt lat="49.271620" lon="2.354250">
						<ele>42</ele>
						<time>2026-06-05T16:59:22Z</time>
					</trkpt>
					<trkpt lat="49.271710" lon="2.354050">
						<ele>42</ele>
						<time>2026-06-05T16:59:26Z</time>
					</trkpt>
					<trkpt lat="49.271910" lon="2.353770">
						<ele>43</ele>
						<time>2026-06-05T16:59:32Z</time>
					</trkpt>
					<trkpt lat="49.272170" lon="2.353520">
						<ele>44</ele>
						<time>2026-06-05T16:59:39Z</time>
					</trkpt>
					<trkpt lat="49.272210" lon="2.353380">
						<ele>45</ele>
						<time>2026-06-05T16:59:42Z</time>
					</trkpt>
					<trkpt lat="49.272170" lon="2.353210">
						<ele>45</ele>
						<time>2026-06-05T16:59:44Z</time>
					</trkpt>
					<trkpt lat="49.272030" lon="2.352890">
						<ele>46</ele>
						<time>2026-06-05T16:59:50Z</time>
					</trkpt>
					<trkpt lat="49.271920" lon="2.352540">
						<ele>46</ele>
						<time>2026-06-05T16:59:56Z</time>
					</trkpt>
					<trkpt lat="49.271650" lon="2.351860">
						<ele>45</ele>
						<time>2026-06-05T17:00:08Z</time>
					</trkpt>
					<trkpt lat="49.271630" lon="2.351740">
						<ele>45</ele>
						<time>2026-06-05T17:00:10Z</time>
					</trkpt>
					<trkpt lat="49.271680" lon="2.351370">
						<ele>46</ele>
						<time>2026-06-05T17:00:16Z</time>
					</trkpt>
					<trkpt lat="49.271640" lon="2.351220">
						<ele>46</ele>
						<time>2026-06-05T17:00:18Z</time>
					</trkpt>
					<trkpt lat="49.271520" lon="2.350990">
						<ele>47</ele>
						<time>2026-06-05T17:00:23Z</time>
					</trkpt>
					<trkpt lat="49.270500" lon="2.349710">
						<ele>52</ele>
						<time>2026-06-05T17:00:54Z</time>
					</trkpt>
					<trkpt lat="49.270460" lon="2.349720">
						<ele>52</ele>
						<time>2026-06-05T17:00:55Z</time>
					</trkpt>
					<trkpt lat="49.270400" lon="2.349900">
						<ele>54</ele>
						<time>2026-06-05T17:00:58Z</time>
					</trkpt>
					<trkpt lat="49.270380" lon="2.349890">
						<ele>54</ele>
						<time>2026-06-05T17:00:58Z</time>
					</trkpt>
					<trkpt lat="49.270190" lon="2.349400">
						<ele>56</ele>
						<time>2026-06-05T17:01:07Z</time>
					</trkpt>
					<trkpt lat="49.270130" lon="2.349040">
						<ele>55</ele>
						<time>2026-06-05T17:01:13Z</time>
					</trkpt>
					<trkpt lat="49.270150" lon="2.348840">
						<ele>54</ele>
						<time>2026-06-05T17:01:16Z</time>
					</trkpt>
					<trkpt lat="49.270210" lon="2.348600">
						<ele>53</ele>
						<time>2026-06-05T17:01:20Z</time>
					</trkpt>
					<trkpt lat="49.270340" lon="2.348290">
						<ele>53</ele>
						<time>2026-06-05T17:01:25Z</time>
					</trkpt>
					<trkpt lat="49.270450" lon="2.348120">
						<ele>53</ele>
						<time>2026-06-05T17:01:29Z</time>
					</trkpt>
					<trkpt lat="49.270580" lon="2.347980">
						<ele>54</ele>
						<time>2026-06-05T17:01:33Z</time>
					</trkpt>
					<trkpt lat="49.270850" lon="2.347880">
						<ele>56</ele>
						<time>2026-06-05T17:01:39Z</time>
					</trkpt>
					<trkpt lat="49.271100" lon="2.347700">
						<ele>59</ele>
						<time>2026-06-05T17:01:45Z</time>
					</trkpt>
					<trkpt lat="49.271190" lon="2.347530">
						<ele>61</ele>
						<time>2026-06-05T17:01:49Z</time>
					</trkpt>
					<trkpt lat="49.271190" lon="2.347300">
						<ele>64</ele>
						<time>2026-06-05T17:01:52Z</time>
					</trkpt>
					<trkpt lat="49.271230" lon="2.347140">
						<ele>66</ele>
						<time>2026-06-05T17:01:55Z</time>
					</trkpt>
					<trkpt lat="49.271330" lon="2.347040">
						<ele>68</ele>
						<time>2026-06-05T17:01:58Z</time>
					</trkpt>
					<trkpt lat="49.271480" lon="2.346940">
						<ele>70</ele>
						<time>2026-06-05T17:02:02Z</time>
					</trkpt>
					<trkpt lat="49.271590" lon="2.346800">
						<ele>73</ele>
						<time>2026-06-05T17:02:05Z</time>
					</trkpt>
					<trkpt lat="49.271700" lon="2.346710">
						<ele>74</ele>
						<time>2026-06-05T17:02:08Z</time>
					</trkpt>
					<trkpt lat="49.271880" lon="2.346460">
						<ele>77</ele>
						<time>2026-06-05T17:02:13Z</time>
					</trkpt>
					<trkpt lat="49.271980" lon="2.346360">
						<ele>77</ele>
						<time>2026-06-05T17:02:16Z</time>
					</trkpt>
					<trkpt lat="49.272090" lon="2.346270">
						<ele>78</ele>
						<time>2026-06-05T17:02:19Z</time>
					</trkpt>
					<trkpt lat="49.272230" lon="2.346220">
						<ele>78</ele>
						<time>2026-06-05T17:02:22Z</time>
					</trkpt>
					<trkpt lat="49.272840" lon="2.345840">
						<ele>82</ele>
						<time>2026-06-05T17:02:38Z</time>
					</trkpt>
					<trkpt lat="49.273050" lon="2.345640">
						<ele>83</ele>
						<time>2026-06-05T17:02:44Z</time>
					</trkpt>
					<trkpt lat="49.273220" lon="2.345530">
						<ele>84</ele>
						<time>2026-06-05T17:02:48Z</time>
					</trkpt>
					<trkpt lat="49.273310" lon="2.345330">
						<ele>85</ele>
						<time>2026-06-05T17:02:52Z</time>
					</trkpt>
					<trkpt lat="49.272230" lon="2.341720">
						<ele>89</ele>
						<time>2026-06-05T17:03:52Z</time>
					</trkpt>
					<trkpt lat="49.272060" lon="2.341070">
						<ele>89</ele>
						<time>2026-06-05T17:04:03Z</time>
					</trkpt>
					<trkpt lat="49.271680" lon="2.339860">
						<ele>90</ele>
						<time>2026-06-05T17:04:23Z</time>
					</trkpt>
					<trkpt lat="49.271490" lon="2.339330">
						<ele>90</ele>
						<time>2026-06-05T17:04:33Z</time>
					</trkpt>
					<trkpt lat="49.270570" lon="2.337130">
						<ele>91</ele>
						<time>2026-06-05T17:05:12Z</time>
					</trkpt>
					<trkpt lat="49.269730" lon="2.335250">
						<ele>95</ele>
						<time>2026-06-05T17:05:47Z</time>
					</trkpt>
					<trkpt lat="49.268770" lon="2.332770">
						<ele>97</ele>
						<time>2026-06-05T17:06:31Z</time>
					</trkpt>
					<trkpt lat="49.268320" lon="2.331950">
						<ele>97</ele>
						<time>2026-06-05T17:06:47Z</time>
					</trkpt>
					<trkpt lat="49.268280" lon="2.331770">
						<ele>97</ele>
						<time>2026-06-05T17:06:50Z</time>
					</trkpt>
					<trkpt lat="49.268350" lon="2.331380">
						<ele>97</ele>
						<time>2026-06-05T17:06:56Z</time>
					</trkpt>
					<trkpt lat="49.268460" lon="2.331050">
						<ele>98</ele>
						<time>2026-06-05T17:07:02Z</time>
					</trkpt>
					<trkpt lat="49.269420" lon="2.326250">
						<ele>106</ele>
						<time>2026-06-05T17:08:19Z</time>
					</trkpt>
					<trkpt lat="49.270190" lon="2.322270">
						<ele>111</ele>
						<time>2026-06-05T17:09:22Z</time>
					</trkpt>
					<trkpt lat="49.270280" lon="2.321680">
						<ele>111</ele>
						<time>2026-06-05T17:09:31Z</time>
					</trkpt>
					<trkpt lat="49.270900" lon="2.318740">
						<ele>106</ele>
						<time>2026-06-05T17:10:18Z</time>
					</trkpt>
					<trkpt lat="49.271040" lon="2.318170">
						<ele>104</ele>
						<time>2026-06-05T17:10:27Z</time>
					</trkpt>
					<trkpt lat="49.271040" lon="2.318000">
						<ele>104</ele>
						<time>2026-06-05T17:10:30Z</time>
					</trkpt>
					<trkpt lat="49.270720" lon="2.317170">
						<ele>106</ele>
						<time>2026-06-05T17:10:45Z</time>
					</trkpt>
					<trkpt lat="49.269640" lon="2.314010">
						<ele>112</ele>
						<time>2026-06-05T17:11:39Z</time>
					</trkpt>
					<trkpt lat="49.269470" lon="2.313620">
						<ele>112</ele>
						<time>2026-06-05T17:11:46Z</time>
					</trkpt>
					<trkpt lat="49.269300" lon="2.313440">
						<ele>113</ele>
						<time>2026-06-05T17:11:51Z</time>
					</trkpt>
					<trkpt lat="49.268920" lon="2.313170">
						<ele>113</ele>
						<time>2026-06-05T17:12:01Z</time>
					</trkpt>
					<trkpt lat="49.268490" lon="2.312820">
						<ele>113</ele>
						<time>2026-06-05T17:12:12Z</time>
					</trkpt>
					<trkpt lat="49.265700" lon="2.310750">
						<ele>108</ele>
						<time>2026-06-05T17:13:25Z</time>
					</trkpt>
					<trkpt lat="49.265600" lon="2.310660">
						<ele>108</ele>
						<time>2026-06-05T17:13:27Z</time>
					</trkpt>
					<trkpt lat="49.265570" lon="2.310590">
						<ele>108</ele>
						<time>2026-06-05T17:13:29Z</time>
					</trkpt>
					<trkpt lat="49.265570" lon="2.310500">
						<ele>108</ele>
						<time>2026-06-05T17:13:30Z</time>
					</trkpt>
					<trkpt lat="49.265880" lon="2.309200">
						<ele>108</ele>
						<time>2026-06-05T17:13:51Z</time>
					</trkpt>
					<trkpt lat="49.266150" lon="2.308230">
						<ele>106</ele>
						<time>2026-06-05T17:14:07Z</time>
					</trkpt>
					<trkpt lat="49.266210" lon="2.307850">
						<ele>104</ele>
						<time>2026-06-05T17:14:13Z</time>
					</trkpt>
					<trkpt lat="49.266280" lon="2.306460">
						<ele>103</ele>
						<time>2026-06-05T17:14:34Z</time>
					</trkpt>
					<trkpt lat="49.266280" lon="2.306050">
						<ele>105</ele>
						<time>2026-06-05T17:14:40Z</time>
					</trkpt>
					<trkpt lat="49.266230" lon="2.305450">
						<ele>106</ele>
						<time>2026-06-05T17:14:50Z</time>
					</trkpt>
					<trkpt lat="49.266120" lon="2.304790">
						<ele>105</ele>
						<time>2026-06-05T17:15:00Z</time>
					</trkpt>
					<trkpt lat="49.266110" lon="2.304610">
						<ele>105</ele>
						<time>2026-06-05T17:15:03Z</time>
					</trkpt>
					<trkpt lat="49.266170" lon="2.304230">
						<ele>103</ele>
						<time>2026-06-05T17:15:09Z</time>
					</trkpt>
					<trkpt lat="49.266160" lon="2.303860">
						<ele>102</ele>
						<time>2026-06-05T17:15:14Z</time>
					</trkpt>
					<trkpt lat="49.266210" lon="2.303120">
						<ele>98</ele>
						<time>2026-06-05T17:15:26Z</time>
					</trkpt>
					<trkpt lat="49.266250" lon="2.302850">
						<ele>97</ele>
						<time>2026-06-05T17:15:30Z</time>
					</trkpt>
					<trkpt lat="49.266360" lon="2.302450">
						<ele>96</ele>
						<time>2026-06-05T17:15:37Z</time>
					</trkpt>
					<trkpt lat="49.266400" lon="2.302070">
						<ele>95</ele>
						<time>2026-06-05T17:15:42Z</time>
					</trkpt>
					<trkpt lat="49.266640" lon="2.301290">
						<ele>90</ele>
						<time>2026-06-05T17:15:56Z</time>
					</trkpt>
					<trkpt lat="49.266940" lon="2.300450">
						<ele>87</ele>
						<time>2026-06-05T17:16:10Z</time>
					</trkpt>
					<trkpt lat="49.267280" lon="2.299860">
						<ele>81</ele>
						<time>2026-06-05T17:16:22Z</time>
					</trkpt>
					<trkpt lat="49.267470" lon="2.299400">
						<ele>73</ele>
						<time>2026-06-05T17:16:31Z</time>
					</trkpt>
					<trkpt lat="49.267650" lon="2.298920">
						<ele>68</ele>
						<time>2026-06-05T17:16:39Z</time>
					</trkpt>
					<trkpt lat="49.267700" lon="2.298530">
						<ele>67</ele>
						<time>2026-06-05T17:16:45Z</time>
					</trkpt>
					<trkpt lat="49.267710" lon="2.298330">
						<ele>66</ele>
						<time>2026-06-05T17:16:48Z</time>
					</trkpt>
					<trkpt lat="49.267680" lon="2.298150">
						<ele>67</ele>
						<time>2026-06-05T17:16:51Z</time>
					</trkpt>
					<trkpt lat="49.267190" lon="2.296720">
						<ele>70</ele>
						<time>2026-06-05T17:17:16Z</time>
					</trkpt>
					<trkpt lat="49.267060" lon="2.296250">
						<ele>73</ele>
						<time>2026-06-05T17:17:23Z</time>
					</trkpt>
					<trkpt lat="49.267000" lon="2.294990">
						<ele>79</ele>
						<time>2026-06-05T17:17:43Z</time>
					</trkpt>
					<trkpt lat="49.267020" lon="2.294640">
						<ele>78</ele>
						<time>2026-06-05T17:17:48Z</time>
					</trkpt>
					<trkpt lat="49.267110" lon="2.294380">
						<ele>77</ele>
						<time>2026-06-05T17:17:52Z</time>
					</trkpt>
					<trkpt lat="49.269230" lon="2.290750">
						<ele>72</ele>
						<time>2026-06-05T17:19:07Z</time>
					</trkpt>
					<trkpt lat="49.269670" lon="2.290090">
						<ele>73</ele>
						<time>2026-06-05T17:19:21Z</time>
					</trkpt>
					<trkpt lat="49.269680" lon="2.289990">
						<ele>73</ele>
						<time>2026-06-05T17:19:23Z</time>
					</trkpt>
					<trkpt lat="49.269620" lon="2.289890">
						<ele>73</ele>
						<time>2026-06-05T17:19:25Z</time>
					</trkpt>
					<trkpt lat="49.269460" lon="2.289770">
						<ele>74</ele>
						<time>2026-06-05T17:19:29Z</time>
					</trkpt>
					<trkpt lat="49.269300" lon="2.289710">
						<ele>74</ele>
						<time>2026-06-05T17:19:33Z</time>
					</trkpt>
					<trkpt lat="49.269100" lon="2.289700">
						<ele>74</ele>
						<time>2026-06-05T17:19:37Z</time>
					</trkpt>
					<trkpt lat="49.268860" lon="2.289790">
						<ele>74</ele>
						<time>2026-06-05T17:19:43Z</time>
					</trkpt>
					<trkpt lat="49.268410" lon="2.290060">
						<ele>75</ele>
						<time>2026-06-05T17:19:54Z</time>
					</trkpt>
					<trkpt lat="49.267920" lon="2.290300">
						<ele>77</ele>
						<time>2026-06-05T17:20:06Z</time>
					</trkpt>
					<trkpt lat="49.267640" lon="2.290370">
						<ele>78</ele>
						<time>2026-06-05T17:20:13Z</time>
					</trkpt>
					<trkpt lat="49.267300" lon="2.290350">
						<ele>79</ele>
						<time>2026-06-05T17:20:21Z</time>
					</trkpt>
					<trkpt lat="49.267080" lon="2.290290">
						<ele>79</ele>
						<time>2026-06-05T17:20:26Z</time>
					</trkpt>
					<trkpt lat="49.266410" lon="2.290010">
						<ele>83</ele>
						<time>2026-06-05T17:20:42Z</time>
					</trkpt>
					<trkpt lat="49.265670" lon="2.289600">
						<ele>90</ele>
						<time>2026-06-05T17:21:01Z</time>
					</trkpt>
					<trkpt lat="49.265510" lon="2.289540">
						<ele>92</ele>
						<time>2026-06-05T17:21:05Z</time>
					</trkpt>
					<trkpt lat="49.265220" lon="2.289490">
						<ele>95</ele>
						<time>2026-06-05T17:21:11Z</time>
					</trkpt>
					<trkpt lat="49.264970" lon="2.289480">
						<ele>97</ele>
						<time>2026-06-05T17:21:17Z</time>
					</trkpt>
					<trkpt lat="49.264750" lon="2.289420">
						<ele>97</ele>
						<time>2026-06-05T17:21:22Z</time>
					</trkpt>
					<trkpt lat="49.264270" lon="2.289450">
						<ele>97</ele>
						<time>2026-06-05T17:21:34Z</time>
					</trkpt>
					<trkpt lat="49.263850" lon="2.289120">
						<ele>97</ele>
						<time>2026-06-05T17:21:45Z</time>
					</trkpt>
					<trkpt lat="49.263520" lon="2.288940">
						<ele>97</ele>
						<time>2026-06-05T17:21:53Z</time>
					</trkpt>
					<trkpt lat="49.263310" lon="2.288870">
						<ele>96</ele>
						<time>2026-06-05T17:21:58Z</time>
					</trkpt>
					<trkpt lat="49.263200" lon="2.288780">
						<ele>96</ele>
						<time>2026-06-05T17:22:01Z</time>
					</trkpt>
					<trkpt lat="49.262620" lon="2.287200">
						<ele>96</ele>
						<time>2026-06-05T17:22:28Z</time>
					</trkpt>
					<trkpt lat="49.262420" lon="2.286340">
						<ele>100</ele>
						<time>2026-06-05T17:22:42Z</time>
					</trkpt>
					<trkpt lat="49.262270" lon="2.285850">
						<ele>104</ele>
						<time>2026-06-05T17:22:51Z</time>
					</trkpt>
					<trkpt lat="49.262030" lon="2.285200">
						<ele>104</ele>
						<time>2026-06-05T17:23:02Z</time>
					</trkpt>
					<trkpt lat="49.261820" lon="2.284740">
						<ele>102</ele>
						<time>2026-06-05T17:23:11Z</time>
					</trkpt>
					<trkpt lat="49.261350" lon="2.283040">
						<ele>106</ele>
						<time>2026-06-05T17:23:39Z</time>
					</trkpt>
					<trkpt lat="49.260850" lon="2.281480">
						<ele>106</ele>
						<time>2026-06-05T17:24:05Z</time>
					</trkpt>
					<trkpt lat="49.260140" lon="2.279680">
						<ele>113</ele>
						<time>2026-06-05T17:24:37Z</time>
					</trkpt>
					<trkpt lat="49.260080" lon="2.279480">
						<ele>113</ele>
						<time>2026-06-05T17:24:41Z</time>
					</trkpt>
					<trkpt lat="49.259970" lon="2.278660">
						<ele>116</ele>
						<time>2026-06-05T17:24:53Z</time>
					</trkpt>
					<trkpt lat="49.259880" lon="2.277220">
						<ele>124</ele>
						<time>2026-06-05T17:25:15Z</time>
					</trkpt>
					<trkpt lat="49.259870" lon="2.275760">
						<ele>132</ele>
						<time>2026-06-05T17:25:38Z</time>
					</trkpt>
					<trkpt lat="49.259900" lon="2.274970">
						<ele>137</ele>
						<time>2026-06-05T17:25:50Z</time>
					</trkpt>
					<trkpt lat="49.260000" lon="2.274580">
						<ele>141</ele>
						<time>2026-06-05T17:25:56Z</time>
					</trkpt>
					<trkpt lat="49.260320" lon="2.273660">
						<ele>153</ele>
						<time>2026-06-05T17:26:12Z</time>
					</trkpt>
					<trkpt lat="49.260510" lon="2.272980">
						<ele>158</ele>
						<time>2026-06-05T17:26:23Z</time>
					</trkpt>
					<trkpt lat="49.261300" lon="2.271010">
						<ele>179</ele>
						<time>2026-06-05T17:26:58Z</time>
					</trkpt>
					<trkpt lat="49.261370" lon="2.270750">
						<ele>181</ele>
						<time>2026-06-05T17:27:03Z</time>
					</trkpt>
					<trkpt lat="49.261380" lon="2.270300">
						<ele>181</ele>
						<time>2026-06-05T17:27:10Z</time>
					</trkpt>
					<trkpt lat="49.261340" lon="2.270110">
						<ele>182</ele>
						<time>2026-06-05T17:27:13Z</time>
					</trkpt>
					<trkpt lat="49.261350" lon="2.269960">
						<ele>182</ele>
						<time>2026-06-05T17:27:15Z</time>
					</trkpt>
					<trkpt lat="49.261400" lon="2.269910">
						<ele>181</ele>
						<time>2026-06-05T17:27:16Z</time>
					</trkpt>
					<trkpt lat="49.261460" lon="2.269900">
						<ele>181</ele>
						<time>2026-06-05T17:27:18Z</time>
					</trkpt>
					<trkpt lat="49.261630" lon="2.269960">
						<ele>181</ele>
						<time>2026-06-05T17:27:22Z</time>
					</trkpt>
					<trkpt lat="49.261920" lon="2.269970">
						<ele>181</ele>
						<time>2026-06-05T17:27:29Z</time>
					</trkpt>
					<trkpt lat="49.262200" lon="2.270010">
						<ele>182</ele>
						<time>2026-06-05T17:27:35Z</time>
					</trkpt>
					<trkpt lat="49.262620" lon="2.270200">
						<ele>183</ele>
						<time>2026-06-05T17:27:45Z</time>
					</trkpt>
					<trkpt lat="49.263050" lon="2.270470">
						<ele>184</ele>
						<time>2026-06-05T17:27:56Z</time>
					</trkpt>
					<trkpt lat="49.263370" lon="2.270620">
						<ele>185</ele>
						<time>2026-06-05T17:28:04Z</time>
					</trkpt>
					<trkpt lat="49.263940" lon="2.270740">
						<ele>186</ele>
						<time>2026-06-05T17:28:18Z</time>
					</trkpt>
					<trkpt lat="49.264280" lon="2.270770">
						<ele>186</ele>
						<time>2026-06-05T17:28:25Z</time>
					</trkpt>
					<trkpt lat="49.264420" lon="2.270830">
						<ele>186</ele>
						<time>2026-06-05T17:28:29Z</time>
					</trkpt>
					<trkpt lat="49.264590" lon="2.270990">
						<ele>186</ele>
						<time>2026-06-05T17:28:34Z</time>
					</trkpt>
					<trkpt lat="49.264670" lon="2.271180">
						<ele>187</ele>
						<time>2026-06-05T17:28:37Z</time>
					</trkpt>
					<trkpt lat="49.264700" lon="2.271210">
						<ele>187</ele>
						<time>2026-06-05T17:28:38Z</time>
					</trkpt>
					<trkpt lat="49.264850" lon="2.271260">
						<ele>187</ele>
						<time>2026-06-05T17:28:41Z</time>
					</trkpt>
					<trkpt lat="49.265300" lon="2.271720">
						<ele>188</ele>
						<time>2026-06-05T17:28:54Z</time>
					</trkpt>
					<trkpt lat="49.265800" lon="2.272340">
						<ele>185</ele>
						<time>2026-06-05T17:29:09Z</time>
					</trkpt>
					<trkpt lat="49.266110" lon="2.272800">
						<ele>180</ele>
						<time>2026-06-05T17:29:19Z</time>
					</trkpt>
					<trkpt lat="49.266440" lon="2.273170">
						<ele>174</ele>
						<time>2026-06-05T17:29:29Z</time>
					</trkpt>
					<trkpt lat="49.266570" lon="2.273280">
						<ele>171</ele>
						<time>2026-06-05T17:29:32Z</time>
					</trkpt>
					<trkpt lat="49.266780" lon="2.273390">
						<ele>168</ele>
						<time>2026-06-05T17:29:37Z</time>
					</trkpt>
					<trkpt lat="49.266940" lon="2.273440">
						<ele>167</ele>
						<time>2026-06-05T17:29:41Z</time>
					</trkpt>
					<trkpt lat="49.267220" lon="2.273410">
						<ele>166</ele>
						<time>2026-06-05T17:29:48Z</time>
					</trkpt>
					<trkpt lat="49.267440" lon="2.273440">
						<ele>164</ele>
						<time>2026-06-05T17:29:53Z</time>
					</trkpt>
					<trkpt lat="49.267770" lon="2.273380">
						<ele>162</ele>
						<time>2026-06-05T17:30:01Z</time>
					</trkpt>
					<trkpt lat="49.267920" lon="2.273400">
						<ele>159</ele>
						<time>2026-06-05T17:30:04Z</time>
					</trkpt>
					<trkpt lat="49.268040" lon="2.273450">
						<ele>157</ele>
						<time>2026-06-05T17:30:07Z</time>
					</trkpt>
					<trkpt lat="49.268370" lon="2.273700">
						<ele>149</ele>
						<time>2026-06-05T17:30:16Z</time>
					</trkpt>
					<trkpt lat="49.268590" lon="2.273990">
						<ele>142</ele>
						<time>2026-06-05T17:30:22Z</time>
					</trkpt>
					<trkpt lat="49.268980" lon="2.274370">
						<ele>136</ele>
						<time>2026-06-05T17:30:33Z</time>
					</trkpt>
					<trkpt lat="49.269540" lon="2.274760">
						<ele>130</ele>
						<time>2026-06-05T17:30:48Z</time>
					</trkpt>
					<trkpt lat="49.269940" lon="2.275000">
						<ele>126</ele>
						<time>2026-06-05T17:30:58Z</time>
					</trkpt>
					<trkpt lat="49.270630" lon="2.275360">
						<ele>121</ele>
						<time>2026-06-05T17:31:15Z</time>
					</trkpt>
					<trkpt lat="49.270760" lon="2.275370">
						<ele>120</ele>
						<time>2026-06-05T17:31:18Z</time>
					</trkpt>
					<trkpt lat="49.270970" lon="2.275300">
						<ele>117</ele>
						<time>2026-06-05T17:31:23Z</time>
					</trkpt>
					<trkpt lat="49.271100" lon="2.275330">
						<ele>115</ele>
						<time>2026-06-05T17:31:26Z</time>
					</trkpt>
					<trkpt lat="49.271260" lon="2.275440">
						<ele>113</ele>
						<time>2026-06-05T17:31:30Z</time>
					</trkpt>
					<trkpt lat="49.271940" lon="2.276040">
						<ele>106</ele>
						<time>2026-06-05T17:31:48Z</time>
					</trkpt>
					<trkpt lat="49.272280" lon="2.276300">
						<ele>104</ele>
						<time>2026-06-05T17:31:57Z</time>
					</trkpt>
					<trkpt lat="49.272600" lon="2.276500">
						<ele>103</ele>
						<time>2026-06-05T17:32:05Z</time>
					</trkpt>
					<trkpt lat="49.272940" lon="2.276650">
						<ele>101</ele>
						<time>2026-06-05T17:32:13Z</time>
					</trkpt>
					<trkpt lat="49.273330" lon="2.276900">
						<ele>97</ele>
						<time>2026-06-05T17:32:23Z</time>
					</trkpt>
					<trkpt lat="49.273610" lon="2.277040">
						<ele>93</ele>
						<time>2026-06-05T17:32:30Z</time>
					</trkpt>
					<trkpt lat="49.273810" lon="2.277260">
						<ele>91</ele>
						<time>2026-06-05T17:32:36Z</time>
					</trkpt>
					<trkpt lat="49.274060" lon="2.277660">
						<ele>88</ele>
						<time>2026-06-05T17:32:44Z</time>
					</trkpt>
					<trkpt lat="49.274140" lon="2.277710">
						<ele>87</ele>
						<time>2026-06-05T17:32:46Z</time>
					</trkpt>
					<trkpt lat="49.274230" lon="2.277700">
						<ele>86</ele>
						<time>2026-06-05T17:32:48Z</time>
					</trkpt>
					<trkpt lat="49.274390" lon="2.277610">
						<ele>85</ele>
						<time>2026-06-05T17:32:52Z</time>
					</trkpt>
					<trkpt lat="49.274370" lon="2.277490">
						<ele>85</ele>
						<time>2026-06-05T17:32:54Z</time>
					</trkpt>
					<trkpt lat="49.274650" lon="2.277000">
						<ele>83</ele>
						<time>2026-06-05T17:33:04Z</time>
					</trkpt>
					<trkpt lat="49.274690" lon="2.276890">
						<ele>82</ele>
						<time>2026-06-05T17:33:06Z</time>
					</trkpt>
					<trkpt lat="49.274680" lon="2.276780">
						<ele>82</ele>
						<time>2026-06-05T17:33:08Z</time>
					</trkpt>
					<trkpt lat="49.274090" lon="2.274840">
						<ele>89</ele>
						<time>2026-06-05T17:33:40Z</time>
					</trkpt>
					<trkpt lat="49.273740" lon="2.273280">
						<ele>99</ele>
						<time>2026-06-05T17:34:06Z</time>
					</trkpt>
					<trkpt lat="49.273610" lon="2.272460">
						<ele>103</ele>
						<time>2026-06-05T17:34:18Z</time>
					</trkpt>
					<trkpt lat="49.273560" lon="2.271350">
						<ele>113</ele>
						<time>2026-06-05T17:34:35Z</time>
					</trkpt>
					<trkpt lat="49.273460" lon="2.270630">
						<ele>118</ele>
						<time>2026-06-05T17:34:47Z</time>
					</trkpt>
					<trkpt lat="49.273460" lon="2.269840">
						<ele>123</ele>
						<time>2026-06-05T17:34:59Z</time>
					</trkpt>
					<trkpt lat="49.273490" lon="2.269430">
						<ele>125</ele>
						<time>2026-06-05T17:35:05Z</time>
					</trkpt>
					<trkpt lat="49.273620" lon="2.268550">
						<ele>132</ele>
						<time>2026-06-05T17:35:19Z</time>
					</trkpt>
					<trkpt lat="49.273660" lon="2.267870">
						<ele>138</ele>
						<time>2026-06-05T17:35:29Z</time>
					</trkpt>
					<trkpt lat="49.273690" lon="2.267700">
						<ele>140</ele>
						<time>2026-06-05T17:35:32Z</time>
					</trkpt>
					<trkpt lat="49.273720" lon="2.267660">
						<ele>141</ele>
						<time>2026-06-05T17:35:33Z</time>
					</trkpt>
					<trkpt lat="49.273770" lon="2.267730">
						<ele>140</ele>
						<time>2026-06-05T17:35:34Z</time>
					</trkpt>
					<trkpt lat="49.274170" lon="2.269880">
						<ele>126</ele>
						<time>2026-06-05T17:36:08Z</time>
					</trkpt>
					<trkpt lat="49.274260" lon="2.270170">
						<ele>124</ele>
						<time>2026-06-05T17:36:13Z</time>
					</trkpt>
					<trkpt lat="49.274370" lon="2.270420">
						<ele>122</ele>
						<time>2026-06-05T17:36:18Z</time>
					</trkpt>
					<trkpt lat="49.274710" lon="2.270790">
						<ele>119</ele>
						<time>2026-06-05T17:36:28Z</time>
					</trkpt>
					<trkpt lat="49.275430" lon="2.271440">
						<ele>108</ele>
						<time>2026-06-05T17:36:47Z</time>
					</trkpt>
					<trkpt lat="49.276070" lon="2.272180">
						<ele>98</ele>
						<time>2026-06-05T17:37:06Z</time>
					</trkpt>
					<trkpt lat="49.276770" lon="2.273120">
						<ele>88</ele>
						<time>2026-06-05T17:37:28Z</time>
					</trkpt>
					<trkpt lat="49.276830" lon="2.273170">
						<ele>88</ele>
						<time>2026-06-05T17:37:29Z</time>
					</trkpt>
					<trkpt lat="49.276880" lon="2.273130">
						<ele>87</ele>
						<time>2026-06-05T17:37:30Z</time>
					</trkpt>
					<trkpt lat="49.276940" lon="2.272910">
						<ele>87</ele>
						<time>2026-06-05T17:37:34Z</time>
					</trkpt>
					<trkpt lat="49.277260" lon="2.271210">
						<ele>89</ele>
						<time>2026-06-05T17:38:01Z</time>
					</trkpt>
					<trkpt lat="49.277390" lon="2.270790">
						<ele>88</ele>
						<time>2026-06-05T17:38:08Z</time>
					</trkpt>
					<trkpt lat="49.277480" lon="2.270580">
						<ele>87</ele>
						<time>2026-06-05T17:38:12Z</time>
					</trkpt>
					<trkpt lat="49.277830" lon="2.269910">
						<ele>84</ele>
						<time>2026-06-05T17:38:25Z</time>
					</trkpt>
					<trkpt lat="49.278080" lon="2.269570">
						<ele>84</ele>
						<time>2026-06-05T17:38:33Z</time>
					</trkpt>
					<trkpt lat="49.278340" lon="2.269280">
						<ele>85</ele>
						<time>2026-06-05T17:38:40Z</time>
					</trkpt>
					<trkpt lat="49.278920" lon="2.268800">
						<ele>88</ele>
						<time>2026-06-05T17:38:56Z</time>
					</trkpt>
					<trkpt lat="49.279500" lon="2.268260">
						<ele>89</ele>
						<time>2026-06-05T17:39:12Z</time>
					</trkpt>
					<trkpt lat="49.279740" lon="2.267990">
						<ele>89</ele>
						<time>2026-06-05T17:39:19Z</time>
					</trkpt>
					<trkpt lat="49.279980" lon="2.267610">
						<ele>90</ele>
						<time>2026-06-05T17:39:27Z</time>
					</trkpt>
					<trkpt lat="49.280250" lon="2.267060">
						<ele>90</ele>
						<time>2026-06-05T17:39:37Z</time>
					</trkpt>
					<trkpt lat="49.280400" lon="2.266650">
						<ele>90</ele>
						<time>2026-06-05T17:39:44Z</time>
					</trkpt>
					<trkpt lat="49.280520" lon="2.266210">
						<ele>89</ele>
						<time>2026-06-05T17:39:51Z</time>
					</trkpt>
					<trkpt lat="49.280760" lon="2.264990">
						<ele>88</ele>
						<time>2026-06-05T17:40:11Z</time>
					</trkpt>
					<trkpt lat="49.280810" lon="2.264890">
						<ele>88</ele>
						<time>2026-06-05T17:40:13Z</time>
					</trkpt>
					<trkpt lat="49.280850" lon="2.264870">
						<ele>88</ele>
						<time>2026-06-05T17:40:14Z</time>
					</trkpt>
					<trkpt lat="49.280900" lon="2.264880">
						<ele>87</ele>
						<time>2026-06-05T17:40:15Z</time>
					</trkpt>
					<trkpt lat="49.281200" lon="2.265110">
						<ele>86</ele>
						<time>2026-06-05T17:40:23Z</time>
					</trkpt>
					<trkpt lat="49.281410" lon="2.265400">
						<ele>85</ele>
						<time>2026-06-05T17:40:29Z</time>
					</trkpt>
					<trkpt lat="49.281820" lon="2.266090">
						<ele>83</ele>
						<time>2026-06-05T17:40:44Z</time>
					</trkpt>
					<trkpt lat="49.281970" lon="2.266400">
						<ele>82</ele>
						<time>2026-06-05T17:40:50Z</time>
					</trkpt>
					<trkpt lat="49.282080" lon="2.266740">
						<ele>81</ele>
						<time>2026-06-05T17:40:55Z</time>
					</trkpt>
					<trkpt lat="49.282210" lon="2.267280">
						<ele>81</ele>
						<time>2026-06-05T17:41:04Z</time>
					</trkpt>
					<trkpt lat="49.282290" lon="2.267820">
						<ele>80</ele>
						<time>2026-06-05T17:41:13Z</time>
					</trkpt>
					<trkpt lat="49.282350" lon="2.267870">
						<ele>79</ele>
						<time>2026-06-05T17:41:14Z</time>
					</trkpt>
					<trkpt lat="49.282390" lon="2.267870">
						<ele>79</ele>
						<time>2026-06-05T17:41:15Z</time>
					</trkpt>
					<trkpt lat="49.282460" lon="2.267800">
						<ele>79</ele>
						<time>2026-06-05T17:41:17Z</time>
					</trkpt>
					<trkpt lat="49.282770" lon="2.267300">
						<ele>78</ele>
						<time>2026-06-05T17:41:27Z</time>
					</trkpt>
					<trkpt lat="49.283510" lon="2.266250">
						<ele>78</ele>
						<time>2026-06-05T17:41:51Z</time>
					</trkpt>
					<trkpt lat="49.283950" lon="2.265850">
						<ele>78</ele>
						<time>2026-06-05T17:42:03Z</time>
					</trkpt>
					<trkpt lat="49.284210" lon="2.265660">
						<ele>78</ele>
						<time>2026-06-05T17:42:10Z</time>
					</trkpt>
					<trkpt lat="49.284440" lon="2.265570">
						<ele>78</ele>
						<time>2026-06-05T17:42:15Z</time>
					</trkpt>
					<trkpt lat="49.285170" lon="2.265420">
						<ele>78</ele>
						<time>2026-06-05T17:42:32Z</time>
					</trkpt>
					<trkpt lat="49.285570" lon="2.265310">
						<ele>79</ele>
						<time>2026-06-05T17:42:42Z</time>
					</trkpt>
					<trkpt lat="49.287370" lon="2.264680">
						<ele>80</ele>
						<time>2026-06-05T17:43:25Z</time>
					</trkpt>
					<trkpt lat="49.287660" lon="2.264610">
						<ele>80</ele>
						<time>2026-06-05T17:43:32Z</time>
					</trkpt>
					<trkpt lat="49.288360" lon="2.264500">
						<ele>81</ele>
						<time>2026-06-05T17:43:48Z</time>
					</trkpt>
					<trkpt lat="49.288870" lon="2.264320">
						<ele>82</ele>
						<time>2026-06-05T17:44:01Z</time>
					</trkpt>
					<trkpt lat="49.288920" lon="2.264240">
						<ele>82</ele>
						<time>2026-06-05T17:44:02Z</time>
					</trkpt>
					<trkpt lat="49.288900" lon="2.264140">
						<ele>82</ele>
						<time>2026-06-05T17:44:04Z</time>
					</trkpt>
					<trkpt lat="49.288500" lon="2.263450">
						<ele>83</ele>
						<time>2026-06-05T17:44:18Z</time>
					</trkpt>
					<trkpt lat="49.287890" lon="2.261790">
						<ele>87</ele>
						<time>2026-06-05T17:44:47Z</time>
					</trkpt>
					<trkpt lat="49.287710" lon="2.261450">
						<ele>87</ele>
						<time>2026-06-05T17:44:54Z</time>
					</trkpt>
					<trkpt lat="49.287190" lon="2.260600">
						<ele>89</ele>
						<time>2026-06-05T17:45:11Z</time>
					</trkpt>
					<trkpt lat="49.286760" lon="2.259790">
						<ele>90</ele>
						<time>2026-06-05T17:45:27Z</time>
					</trkpt>
					<trkpt lat="49.286320" lon="2.258910">
						<ele>92</ele>
						<time>2026-06-05T17:45:44Z</time>
					</trkpt>
					<trkpt lat="49.286010" lon="2.258120">
						<ele>95</ele>
						<time>2026-06-05T17:45:58Z</time>
					</trkpt>
					<trkpt lat="49.286010" lon="2.258010">
						<ele>95</ele>
						<time>2026-06-05T17:46:00Z</time>
					</trkpt>
					<trkpt lat="49.286040" lon="2.257910">
						<ele>96</ele>
						<time>2026-06-05T17:46:02Z</time>
					</trkpt>
					<trkpt lat="49.286270" lon="2.257510">
						<ele>97</ele>
						<time>2026-06-05T17:46:10Z</time>
					</trkpt>
					<trkpt lat="49.287150" lon="2.255760">
						<ele>101</ele>
						<time>2026-06-05T17:46:43Z</time>
					</trkpt>
					<trkpt lat="49.287200" lon="2.255720">
						<ele>101</ele>
						<time>2026-06-05T17:46:45Z</time>
					</trkpt>
					<trkpt lat="49.287260" lon="2.255770">
						<ele>101</ele>
						<time>2026-06-05T17:46:46Z</time>
					</trkpt>
					<trkpt lat="49.287280" lon="2.255820">
						<ele>101</ele>
						<time>2026-06-05T17:46:47Z</time>
					</trkpt>
					<trkpt lat="49.287650" lon="2.256920">
						<ele>100</ele>
						<time>2026-06-05T17:47:06Z</time>
					</trkpt>
					<trkpt lat="49.288040" lon="2.257880">
						<ele>102</ele>
						<time>2026-06-05T17:47:23Z</time>
					</trkpt>
					<trkpt lat="49.288390" lon="2.258620">
						<ele>102</ele>
						<time>2026-06-05T17:47:37Z</time>
					</trkpt>
					<trkpt lat="49.288930" lon="2.259650">
						<ele>99</ele>
						<time>2026-06-05T17:47:57Z</time>
					</trkpt>
					<trkpt lat="49.289240" lon="2.260330">
						<ele>95</ele>
						<time>2026-06-05T17:48:10Z</time>
					</trkpt>
					<trkpt lat="49.289760" lon="2.261770">
						<ele>88</ele>
						<time>2026-06-05T17:48:35Z</time>
					</trkpt>
					<trkpt lat="49.289900" lon="2.262050">
						<ele>88</ele>
						<time>2026-06-05T17:48:40Z</time>
					</trkpt>
					<trkpt lat="49.290480" lon="2.262990">
						<ele>86</ele>
						<time>2026-06-05T17:49:00Z</time>
					</trkpt>
					<trkpt lat="49.290900" lon="2.263600">
						<ele>85</ele>
						<time>2026-06-05T17:49:14Z</time>
					</trkpt>
					<trkpt lat="49.291380" lon="2.264070">
						<ele>82</ele>
						<time>2026-06-05T17:49:27Z</time>
					</trkpt>
					<trkpt lat="49.291590" lon="2.264210">
						<ele>81</ele>
						<time>2026-06-05T17:49:32Z</time>
					</trkpt>
					<trkpt lat="49.292120" lon="2.264500">
						<ele>80</ele>
						<time>2026-06-05T17:49:45Z</time>
					</trkpt>
					<trkpt lat="49.292540" lon="2.264690">
						<ele>78</ele>
						<time>2026-06-05T17:49:56Z</time>
					</trkpt>
					<trkpt lat="49.293060" lon="2.264970">
						<ele>77</ele>
						<time>2026-06-05T17:50:08Z</time>
					</trkpt>
					<trkpt lat="49.293150" lon="2.265080">
						<ele>77</ele>
						<time>2026-06-05T17:50:11Z</time>
					</trkpt>
					<trkpt lat="49.293150" lon="2.265440">
						<ele>79</ele>
						<time>2026-06-05T17:50:17Z</time>
					</trkpt>
					<trkpt lat="49.293050" lon="2.265970">
						<ele>81</ele>
						<time>2026-06-05T17:50:25Z</time>
					</trkpt>
					<trkpt lat="49.292930" lon="2.266320">
						<ele>81</ele>
						<time>2026-06-05T17:50:31Z</time>
					</trkpt>
					<trkpt lat="49.292670" lon="2.266920">
						<ele>81</ele>
						<time>2026-06-05T17:50:42Z</time>
					</trkpt>
					<trkpt lat="49.292280" lon="2.267480">
						<ele>82</ele>
						<time>2026-06-05T17:50:55Z</time>
					</trkpt>
					<trkpt lat="49.291770" lon="2.268330">
						<ele>82</ele>
						<time>2026-06-05T17:51:12Z</time>
					</trkpt>
					<trkpt lat="49.291080" lon="2.269280">
						<ele>81</ele>
						<time>2026-06-05T17:51:34Z</time>
					</trkpt>
					<trkpt lat="49.291030" lon="2.269410">
						<ele>81</ele>
						<time>2026-06-05T17:51:36Z</time>
					</trkpt>
					<trkpt lat="49.291040" lon="2.269520">
						<ele>81</ele>
						<time>2026-06-05T17:51:38Z</time>
					</trkpt>
					<trkpt lat="49.291090" lon="2.269640">
						<ele>81</ele>
						<time>2026-06-05T17:51:40Z</time>
					</trkpt>
					<trkpt lat="49.291770" lon="2.270880">
						<ele>77</ele>
						<time>2026-06-05T17:52:05Z</time>
					</trkpt>
					<trkpt lat="49.291950" lon="2.271240">
						<ele>74</ele>
						<time>2026-06-05T17:52:12Z</time>
					</trkpt>
					<trkpt lat="49.292000" lon="2.271400">
						<ele>73</ele>
						<time>2026-06-05T17:52:14Z</time>
					</trkpt>
					<trkpt lat="49.291230" lon="2.272940">
						<ele>73</ele>
						<time>2026-06-05T17:52:44Z</time>
					</trkpt>
					<trkpt lat="49.291220" lon="2.273050">
						<ele>72</ele>
						<time>2026-06-05T17:52:45Z</time>
					</trkpt>
					<trkpt lat="49.291310" lon="2.273210">
						<ele>72</ele>
						<time>2026-06-05T17:52:49Z</time>
					</trkpt>
					<trkpt lat="49.291590" lon="2.273510">
						<ele>70</ele>
						<time>2026-06-05T17:52:57Z</time>
					</trkpt>
					<trkpt lat="49.292100" lon="2.273730">
						<ele>70</ele>
						<time>2026-06-05T17:53:09Z</time>
					</trkpt>
					<trkpt lat="49.292310" lon="2.273890">
						<ele>69</ele>
						<time>2026-06-05T17:53:14Z</time>
					</trkpt>
					<trkpt lat="49.292440" lon="2.274060">
						<ele>69</ele>
						<time>2026-06-05T17:53:18Z</time>
					</trkpt>
					<trkpt lat="49.292530" lon="2.274240">
						<ele>70</ele>
						<time>2026-06-05T17:53:22Z</time>
					</trkpt>
					<trkpt lat="49.292560" lon="2.274380">
						<ele>71</ele>
						<time>2026-06-05T17:53:24Z</time>
					</trkpt>
					<trkpt lat="49.292400" lon="2.275040">
						<ele>73</ele>
						<time>2026-06-05T17:53:35Z</time>
					</trkpt>
					<trkpt lat="49.292350" lon="2.275450">
						<ele>74</ele>
						<time>2026-06-05T17:53:41Z</time>
					</trkpt>
					<trkpt lat="49.292330" lon="2.276040">
						<ele>75</ele>
						<time>2026-06-05T17:53:50Z</time>
					</trkpt>
					<trkpt lat="49.292290" lon="2.276160">
						<ele>75</ele>
						<time>2026-06-05T17:53:52Z</time>
					</trkpt>
					<trkpt lat="49.292140" lon="2.276310">
						<ele>74</ele>
						<time>2026-06-05T17:53:56Z</time>
					</trkpt>
					<trkpt lat="49.291870" lon="2.276500">
						<ele>72</ele>
						<time>2026-06-05T17:54:03Z</time>
					</trkpt>
					<trkpt lat="49.291540" lon="2.277010">
						<ele>73</ele>
						<time>2026-06-05T17:54:14Z</time>
					</trkpt>
					<trkpt lat="49.291210" lon="2.277450">
						<ele>72</ele>
						<time>2026-06-05T17:54:25Z</time>
					</trkpt>
					<trkpt lat="49.290940" lon="2.277880">
						<ele>71</ele>
						<time>2026-06-05T17:54:34Z</time>
					</trkpt>
					<trkpt lat="49.290360" lon="2.279010">
						<ele>71</ele>
						<time>2026-06-05T17:54:56Z</time>
					</trkpt>
					<trkpt lat="49.290170" lon="2.279320">
						<ele>71</ele>
						<time>2026-06-05T17:55:02Z</time>
					</trkpt>
					<trkpt lat="49.290070" lon="2.279440">
						<ele>72</ele>
						<time>2026-06-05T17:55:05Z</time>
					</trkpt>
					<trkpt lat="49.289710" lon="2.279720">
						<ele>78</ele>
						<time>2026-06-05T17:55:14Z</time>
					</trkpt>
					<trkpt lat="49.289610" lon="2.279730">
						<ele>79</ele>
						<time>2026-06-05T17:55:17Z</time>
					</trkpt>
					<trkpt lat="49.289500" lon="2.279680">
						<ele>80</ele>
						<time>2026-06-05T17:55:19Z</time>
					</trkpt>
					<trkpt lat="49.289280" lon="2.279500">
						<ele>79</ele>
						<time>2026-06-05T17:55:25Z</time>
					</trkpt>
					<trkpt lat="49.288950" lon="2.279160">
						<ele>78</ele>
						<time>2026-06-05T17:55:35Z</time>
					</trkpt>
					<trkpt lat="49.288680" lon="2.278710">
						<ele>76</ele>
						<time>2026-06-05T17:55:44Z</time>
					</trkpt>
					<trkpt lat="49.288570" lon="2.278570">
						<ele>75</ele>
						<time>2026-06-05T17:55:47Z</time>
					</trkpt>
					<trkpt lat="49.287940" lon="2.278190">
						<ele>75</ele>
						<time>2026-06-05T17:56:03Z</time>
					</trkpt>
					<trkpt lat="49.287780" lon="2.278150">
						<ele>76</ele>
						<time>2026-06-05T17:56:07Z</time>
					</trkpt>
					<trkpt lat="49.287590" lon="2.278160">
						<ele>77</ele>
						<time>2026-06-05T17:56:11Z</time>
					</trkpt>
					<trkpt lat="49.287350" lon="2.278230">
						<ele>78</ele>
						<time>2026-06-05T17:56:17Z</time>
					</trkpt>
					<trkpt lat="49.287060" lon="2.278360">
						<ele>77</ele>
						<time>2026-06-05T17:56:24Z</time>
					</trkpt>
					<trkpt lat="49.286980" lon="2.278440">
						<ele>77</ele>
						<time>2026-06-05T17:56:26Z</time>
					</trkpt>
					<trkpt lat="49.286590" lon="2.279020">
						<ele>77</ele>
						<time>2026-06-05T17:56:39Z</time>
					</trkpt>
					<trkpt lat="49.286250" lon="2.279580">
						<ele>77</ele>
						<time>2026-06-05T17:56:51Z</time>
					</trkpt>
					<trkpt lat="49.286050" lon="2.279930">
						<ele>77</ele>
						<time>2026-06-05T17:56:58Z</time>
					</trkpt>
					<trkpt lat="49.285790" lon="2.280460">
						<ele>76</ele>
						<time>2026-06-05T17:57:08Z</time>
					</trkpt>
					<trkpt lat="49.285310" lon="2.281190">
						<ele>76</ele>
						<time>2026-06-05T17:57:24Z</time>
					</trkpt>
					<trkpt lat="49.285150" lon="2.281380">
						<ele>75</ele>
						<time>2026-06-05T17:57:28Z</time>
					</trkpt>
					<trkpt lat="49.284980" lon="2.281530">
						<ele>73</ele>
						<time>2026-06-05T17:57:33Z</time>
					</trkpt>
					<trkpt lat="49.284680" lon="2.281720">
						<ele>72</ele>
						<time>2026-06-05T17:57:40Z</time>
					</trkpt>
					<trkpt lat="49.284430" lon="2.281950">
						<ele>72</ele>
						<time>2026-06-05T17:57:47Z</time>
					</trkpt>
					<trkpt lat="49.284200" lon="2.282200">
						<ele>72</ele>
						<time>2026-06-05T17:57:54Z</time>
					</trkpt>
					<trkpt lat="49.283920" lon="2.282570">
						<ele>75</ele>
						<time>2026-06-05T17:58:02Z</time>
					</trkpt>
					<trkpt lat="49.283800" lon="2.282590">
						<ele>74</ele>
						<time>2026-06-05T17:58:05Z</time>
					</trkpt>
					<trkpt lat="49.283640" lon="2.282520">
						<ele>71</ele>
						<time>2026-06-05T17:58:09Z</time>
					</trkpt>
					<trkpt lat="49.283510" lon="2.282430">
						<ele>69</ele>
						<time>2026-06-05T17:58:13Z</time>
					</trkpt>
					<trkpt lat="49.283220" lon="2.282140">
						<ele>66</ele>
						<time>2026-06-05T17:58:21Z</time>
					</trkpt>
					<trkpt lat="49.283140" lon="2.282160">
						<ele>66</ele>
						<time>2026-06-05T17:58:23Z</time>
					</trkpt>
					<trkpt lat="49.282730" lon="2.282530">
						<ele>70</ele>
						<time>2026-06-05T17:58:34Z</time>
					</trkpt>
					<trkpt lat="49.282520" lon="2.282850">
						<ele>72</ele>
						<time>2026-06-05T17:58:41Z</time>
					</trkpt>
					<trkpt lat="49.281890" lon="2.283490">
						<ele>70</ele>
						<time>2026-06-05T17:58:58Z</time>
					</trkpt>
					<trkpt lat="49.281640" lon="2.283840">
						<ele>68</ele>
						<time>2026-06-05T17:59:06Z</time>
					</trkpt>
					<trkpt lat="49.281470" lon="2.284130">
						<ele>68</ele>
						<time>2026-06-05T17:59:12Z</time>
					</trkpt>
					<trkpt lat="49.281160" lon="2.284870">
						<ele>67</ele>
						<time>2026-06-05T17:59:25Z</time>
					</trkpt>
					<trkpt lat="49.280820" lon="2.285930">
						<ele>62</ele>
						<time>2026-06-05T17:59:43Z</time>
					</trkpt>
					<trkpt lat="49.280700" lon="2.286220">
						<ele>63</ele>
						<time>2026-06-05T17:59:49Z</time>
					</trkpt>
					<trkpt lat="49.280570" lon="2.286410">
						<ele>63</ele>
						<time>2026-06-05T17:59:53Z</time>
					</trkpt>
					<trkpt lat="49.280380" lon="2.286620">
						<ele>64</ele>
						<time>2026-06-05T17:59:58Z</time>
					</trkpt>
					<trkpt lat="49.280220" lon="2.286740">
						<ele>64</ele>
						<time>2026-06-05T18:00:02Z</time>
					</trkpt>
					<trkpt lat="49.279460" lon="2.287120">
						<ele>64</ele>
						<time>2026-06-05T18:00:21Z</time>
					</trkpt>
					<trkpt lat="49.279120" lon="2.287320">
						<ele>63</ele>
						<time>2026-06-05T18:00:30Z</time>
					</trkpt>
					<trkpt lat="49.278990" lon="2.287450">
						<ele>63</ele>
						<time>2026-06-05T18:00:33Z</time>
					</trkpt>
					<trkpt lat="49.278830" lon="2.287670">
						<ele>64</ele>
						<time>2026-06-05T18:00:38Z</time>
					</trkpt>
					<trkpt lat="49.278650" lon="2.287750">
						<ele>65</ele>
						<time>2026-06-05T18:00:43Z</time>
					</trkpt>
					<trkpt lat="49.278600" lon="2.287810">
						<ele>65</ele>
						<time>2026-06-05T18:00:44Z</time>
					</trkpt>
					<trkpt lat="49.278610" lon="2.287920">
						<ele>66</ele>
						<time>2026-06-05T18:00:46Z</time>
					</trkpt>
					<trkpt lat="49.278690" lon="2.288090">
						<ele>67</ele>
						<time>2026-06-05T18:00:49Z</time>
					</trkpt>
					<trkpt lat="49.278980" lon="2.288470">
						<ele>73</ele>
						<time>2026-06-05T18:00:58Z</time>
					</trkpt>
					<trkpt lat="49.279270" lon="2.288700">
						<ele>79</ele>
						<time>2026-06-05T18:01:06Z</time>
					</trkpt>
					<trkpt lat="49.279450" lon="2.288750">
						<ele>81</ele>
						<time>2026-06-05T18:01:10Z</time>
					</trkpt>
					<trkpt lat="49.279590" lon="2.288760">
						<ele>81</ele>
						<time>2026-06-05T18:01:13Z</time>
					</trkpt>
					<trkpt lat="49.279890" lon="2.288930">
						<ele>85</ele>
						<time>2026-06-05T18:01:21Z</time>
					</trkpt>
					<trkpt lat="49.280040" lon="2.289070">
						<ele>87</ele>
						<time>2026-06-05T18:01:25Z</time>
					</trkpt>
					<trkpt lat="49.280230" lon="2.289340">
						<ele>90</ele>
						<time>2026-06-05T18:01:31Z</time>
					</trkpt>
					<trkpt lat="49.280530" lon="2.289620">
						<ele>92</ele>
						<time>2026-06-05T18:01:39Z</time>
					</trkpt>
					<trkpt lat="49.280520" lon="2.289660">
						<ele>92</ele>
						<time>2026-06-05T18:01:40Z</time>
					</trkpt>
					<trkpt lat="49.280490" lon="2.289670">
						<ele>93</ele>
						<time>2026-06-05T18:01:40Z</time>
					</trkpt>
					<trkpt lat="49.280020" lon="2.289640">
						<ele>96</ele>
						<time>2026-06-05T18:01:51Z</time>
					</trkpt>
					<trkpt lat="49.279720" lon="2.289720">
						<ele>97</ele>
						<time>2026-06-05T18:01:58Z</time>
					</trkpt>
					<trkpt lat="49.279580" lon="2.289800">
						<ele>98</ele>
						<time>2026-06-05T18:02:02Z</time>
					</trkpt>
					<trkpt lat="49.279510" lon="2.289900">
						<ele>99</ele>
						<time>2026-06-05T18:02:04Z</time>
					</trkpt>
					<trkpt lat="49.279410" lon="2.289970">
						<ele>100</ele>
						<time>2026-06-05T18:02:07Z</time>
					</trkpt>
					<trkpt lat="49.279380" lon="2.290020">
						<ele>101</ele>
						<time>2026-06-05T18:02:08Z</time>
					</trkpt>
					<trkpt lat="49.279360" lon="2.290160">
						<ele>102</ele>
						<time>2026-06-05T18:02:10Z</time>
					</trkpt>
					<trkpt lat="49.279210" lon="2.290390">
						<ele>104</ele>
						<time>2026-06-05T18:02:15Z</time>
					</trkpt>
					<trkpt lat="49.278700" lon="2.290890">
						<ele>105</ele>
						<time>2026-06-05T18:02:29Z</time>
					</trkpt>
					<trkpt lat="49.278600" lon="2.290960">
						<ele>104</ele>
						<time>2026-06-05T18:02:32Z</time>
					</trkpt>
					<trkpt lat="49.278490" lon="2.291160">
						<ele>104</ele>
						<time>2026-06-05T18:02:36Z</time>
					</trkpt>
					<trkpt lat="49.278410" lon="2.291580">
						<ele>105</ele>
						<time>2026-06-05T18:02:42Z</time>
					</trkpt>
					<trkpt lat="49.278270" lon="2.291570">
						<ele>104</ele>
						<time>2026-06-05T18:02:46Z</time>
					</trkpt>
					<trkpt lat="49.278190" lon="2.291700">
						<ele>102</ele>
						<time>2026-06-05T18:02:48Z</time>
					</trkpt>
					<trkpt lat="49.278170" lon="2.291870">
						<ele>101</ele>
						<time>2026-06-05T18:02:51Z</time>
					</trkpt>
					<trkpt lat="49.278230" lon="2.292910">
						<ele>99</ele>
						<time>2026-06-05T18:03:07Z</time>
					</trkpt>
					<trkpt lat="49.278130" lon="2.295120">
						<ele>88</ele>
						<time>2026-06-05T18:03:41Z</time>
					</trkpt>
					<trkpt lat="49.278080" lon="2.295350">
						<ele>86</ele>
						<time>2026-06-05T18:03:44Z</time>
					</trkpt>
					<trkpt lat="49.278000" lon="2.295550">
						<ele>84</ele>
						<time>2026-06-05T18:03:48Z</time>
					</trkpt>
					<trkpt lat="49.277870" lon="2.295720">
						<ele>81</ele>
						<time>2026-06-05T18:03:52Z</time>
					</trkpt>
					<trkpt lat="49.277670" lon="2.295890">
						<ele>78</ele>
						<time>2026-06-05T18:03:57Z</time>
					</trkpt>
					<trkpt lat="49.277560" lon="2.296070">
						<ele>75</ele>
						<time>2026-06-05T18:04:01Z</time>
					</trkpt>
					<trkpt lat="49.277490" lon="2.296330">
						<ele>71</ele>
						<time>2026-06-05T18:04:05Z</time>
					</trkpt>
					<trkpt lat="49.277260" lon="2.297560">
						<ele>61</ele>
						<time>2026-06-05T18:04:25Z</time>
					</trkpt>
					<trkpt lat="49.277210" lon="2.297980">
						<ele>59</ele>
						<time>2026-06-05T18:04:31Z</time>
					</trkpt>
					<trkpt lat="49.277780" lon="2.300300">
						<ele>61</ele>
						<time>2026-06-05T18:05:09Z</time>
					</trkpt>
					<trkpt lat="49.277970" lon="2.301180">
						<ele>65</ele>
						<time>2026-06-05T18:05:23Z</time>
					</trkpt>
					<trkpt lat="49.278130" lon="2.301730">
						<ele>69</ele>
						<time>2026-06-05T18:05:32Z</time>
					</trkpt>
					<trkpt lat="49.278230" lon="2.302620">
						<ele>74</ele>
						<time>2026-06-05T18:05:46Z</time>
					</trkpt>
					<trkpt lat="49.278270" lon="2.302800">
						<ele>74</ele>
						<time>2026-06-05T18:05:49Z</time>
					</trkpt>
					<trkpt lat="49.278260" lon="2.303500">
						<ele>73</ele>
						<time>2026-06-05T18:06:00Z</time>
					</trkpt>
					<trkpt lat="49.278320" lon="2.304130">
						<ele>73</ele>
						<time>2026-06-05T18:06:09Z</time>
					</trkpt>
					<trkpt lat="49.278380" lon="2.304390">
						<ele>73</ele>
						<time>2026-06-05T18:06:13Z</time>
					</trkpt>
					<trkpt lat="49.278410" lon="2.304830">
						<ele>73</ele>
						<time>2026-06-05T18:06:20Z</time>
					</trkpt>
					<trkpt lat="49.278520" lon="2.305620">
						<ele>74</ele>
						<time>2026-06-05T18:06:33Z</time>
					</trkpt>
					<trkpt lat="49.278500" lon="2.305860">
						<ele>73</ele>
						<time>2026-06-05T18:06:36Z</time>
					</trkpt>
					<trkpt lat="49.278560" lon="2.306710">
						<ele>75</ele>
						<time>2026-06-05T18:06:49Z</time>
					</trkpt>
					<trkpt lat="49.278580" lon="2.307930">
						<ele>72</ele>
						<time>2026-06-05T18:07:08Z</time>
					</trkpt>
					<trkpt lat="49.278540" lon="2.308230">
						<ele>70</ele>
						<time>2026-06-05T18:07:12Z</time>
					</trkpt>
					<trkpt lat="49.278420" lon="2.308690">
						<ele>67</ele>
						<time>2026-06-05T18:07:20Z</time>
					</trkpt>
					<trkpt lat="49.278320" lon="2.309310">
						<ele>62</ele>
						<time>2026-06-05T18:07:30Z</time>
					</trkpt>
					<trkpt lat="49.278250" lon="2.309570">
						<ele>60</ele>
						<time>2026-06-05T18:07:34Z</time>
					</trkpt>
					<trkpt lat="49.278410" lon="2.309990">
						<ele>60</ele>
						<time>2026-06-05T18:07:41Z</time>
					</trkpt>
					<trkpt lat="49.278650" lon="2.311110">
						<ele>65</ele>
						<time>2026-06-05T18:07:59Z</time>
					</trkpt>
					<trkpt lat="49.278740" lon="2.311420">
						<ele>65</ele>
						<time>2026-06-05T18:08:05Z</time>
					</trkpt>
					<trkpt lat="49.278820" lon="2.311530">
						<ele>66</ele>
						<time>2026-06-05T18:08:07Z</time>
					</trkpt>
					<trkpt lat="49.279030" lon="2.311660">
						<ele>67</ele>
						<time>2026-06-05T18:08:12Z</time>
					</trkpt>
					<trkpt lat="49.279130" lon="2.311780">
						<ele>67</ele>
						<time>2026-06-05T18:08:15Z</time>
					</trkpt>
					<trkpt lat="49.279210" lon="2.311960">
						<ele>66</ele>
						<time>2026-06-05T18:08:19Z</time>
					</trkpt>
					<trkpt lat="49.279300" lon="2.312260">
						<ele>65</ele>
						<time>2026-06-05T18:08:24Z</time>
					</trkpt>
					<trkpt lat="49.279350" lon="2.312610">
						<ele>63</ele>
						<time>2026-06-05T18:08:29Z</time>
					</trkpt>
					<trkpt lat="49.279310" lon="2.313410">
						<ele>63</ele>
						<time>2026-06-05T18:08:41Z</time>
					</trkpt>
					<trkpt lat="49.279330" lon="2.313690">
						<ele>64</ele>
						<time>2026-06-05T18:08:46Z</time>
					</trkpt>
					<trkpt lat="49.279370" lon="2.313860">
						<ele>65</ele>
						<time>2026-06-05T18:08:48Z</time>
					</trkpt>
					<trkpt lat="49.279410" lon="2.313930">
						<ele>66</ele>
						<time>2026-06-05T18:08:50Z</time>
					</trkpt>
					<trkpt lat="49.279510" lon="2.314020">
						<ele>67</ele>
						<time>2026-06-05T18:08:53Z</time>
					</trkpt>
					<trkpt lat="49.279760" lon="2.314180">
						<ele>70</ele>
						<time>2026-06-05T18:08:59Z</time>
					</trkpt>
					<trkpt lat="49.279860" lon="2.314270">
						<ele>71</ele>
						<time>2026-06-05T18:09:02Z</time>
					</trkpt>
					<trkpt lat="49.279940" lon="2.314390">
						<ele>72</ele>
						<time>2026-06-05T18:09:04Z</time>
					</trkpt>
					<trkpt lat="49.280030" lon="2.314870">
						<ele>72</ele>
						<time>2026-06-05T18:09:12Z</time>
					</trkpt>
					<trkpt lat="49.280010" lon="2.315410">
						<ele>73</ele>
						<time>2026-06-05T18:09:20Z</time>
					</trkpt>
					<trkpt lat="49.280050" lon="2.315850">
						<ele>75</ele>
						<time>2026-06-05T18:09:27Z</time>
					</trkpt>
					<trkpt lat="49.280090" lon="2.316000">
						<ele>75</ele>
						<time>2026-06-05T18:09:29Z</time>
					</trkpt>
					<trkpt lat="49.280190" lon="2.316200">
						<ele>76</ele>
						<time>2026-06-05T18:09:33Z</time>
					</trkpt>
					<trkpt lat="49.280490" lon="2.316660">
						<ele>78</ele>
						<time>2026-06-05T18:09:43Z</time>
					</trkpt>
					<trkpt lat="49.280530" lon="2.316840">
						<ele>78</ele>
						<time>2026-06-05T18:09:46Z</time>
					</trkpt>
					<trkpt lat="49.280450" lon="2.317760">
						<ele>73</ele>
						<time>2026-06-05T18:10:00Z</time>
					</trkpt>
					<trkpt lat="49.280400" lon="2.318040">
						<ele>71</ele>
						<time>2026-06-05T18:10:04Z</time>
					</trkpt>
					<trkpt lat="49.280300" lon="2.318300">
						<ele>69</ele>
						<time>2026-06-05T18:10:09Z</time>
					</trkpt>
					<trkpt lat="49.279960" lon="2.318800">
						<ele>64</ele>
						<time>2026-06-05T18:10:20Z</time>
					</trkpt>
					<trkpt lat="49.279920" lon="2.318900">
						<ele>63</ele>
						<time>2026-06-05T18:10:22Z</time>
					</trkpt>
					<trkpt lat="49.279880" lon="2.319130">
						<ele>63</ele>
						<time>2026-06-05T18:10:25Z</time>
					</trkpt>
					<trkpt lat="49.279890" lon="2.319590">
						<ele>61</ele>
						<time>2026-06-05T18:10:33Z</time>
					</trkpt>
					<trkpt lat="49.279940" lon="2.319800">
						<ele>60</ele>
						<time>2026-06-05T18:10:36Z</time>
					</trkpt>
					<trkpt lat="49.280050" lon="2.320080">
						<ele>59</ele>
						<time>2026-06-05T18:10:41Z</time>
					</trkpt>
					<trkpt lat="49.280110" lon="2.320140">
						<ele>60</ele>
						<time>2026-06-05T18:10:43Z</time>
					</trkpt>
					<trkpt lat="49.280580" lon="2.319710">
						<ele>64</ele>
						<time>2026-06-05T18:10:55Z</time>
					</trkpt>
					<trkpt lat="49.281130" lon="2.319270">
						<ele>69</ele>
						<time>2026-06-05T18:11:10Z</time>
					</trkpt>
					<trkpt lat="49.281240" lon="2.319200">
						<ele>69</ele>
						<time>2026-06-05T18:11:13Z</time>
					</trkpt>
					<trkpt lat="49.281480" lon="2.319160">
						<ele>71</ele>
						<time>2026-06-05T18:11:18Z</time>
					</trkpt>
					<trkpt lat="49.281650" lon="2.319070">
						<ele>73</ele>
						<time>2026-06-05T18:11:22Z</time>
					</trkpt>
					<trkpt lat="49.282080" lon="2.319020">
						<ele>78</ele>
						<time>2026-06-05T18:11:33Z</time>
					</trkpt>
					<trkpt lat="49.282290" lon="2.319050">
						<ele>80</ele>
						<time>2026-06-05T18:11:37Z</time>
					</trkpt>
					<trkpt lat="49.282680" lon="2.319060">
						<ele>83</ele>
						<time>2026-06-05T18:11:47Z</time>
					</trkpt>
					<trkpt lat="49.282870" lon="2.319030">
						<ele>85</ele>
						<time>2026-06-05T18:11:51Z</time>
					</trkpt>
					<trkpt lat="49.283030" lon="2.319040">
						<ele>86</ele>
						<time>2026-06-05T18:11:55Z</time>
					</trkpt>
					<trkpt lat="49.284280" lon="2.318740">
						<ele>92</ele>
						<time>2026-06-05T18:12:24Z</time>
					</trkpt>
					<trkpt lat="49.284450" lon="2.318740">
						<ele>92</ele>
						<time>2026-06-05T18:12:28Z</time>
					</trkpt>
					<trkpt lat="49.284630" lon="2.318700">
						<ele>92</ele>
						<time>2026-06-05T18:12:33Z</time>
					</trkpt>
					<trkpt lat="49.284890" lon="2.318560">
						<ele>91</ele>
						<time>2026-06-05T18:12:39Z</time>
					</trkpt>
					<trkpt lat="49.284950" lon="2.318580">
						<ele>91</ele>
						<time>2026-06-05T18:12:40Z</time>
					</trkpt>
					<trkpt lat="49.284960" lon="2.318620">
						<ele>91</ele>
						<time>2026-06-05T18:12:41Z</time>
					</trkpt>
					<trkpt lat="49.284690" lon="2.319540">
						<ele>94</ele>
						<time>2026-06-05T18:12:56Z</time>
					</trkpt>
					<trkpt lat="49.284480" lon="2.320050">
						<ele>95</ele>
						<time>2026-06-05T18:13:06Z</time>
					</trkpt>
					<trkpt lat="49.284270" lon="2.320420">
						<ele>94</ele>
						<time>2026-06-05T18:13:13Z</time>
					</trkpt>
					<trkpt lat="49.284010" lon="2.320650">
						<ele>93</ele>
						<time>2026-06-05T18:13:20Z</time>
					</trkpt>
					<trkpt lat="49.283640" lon="2.321120">
						<ele>90</ele>
						<time>2026-06-05T18:13:31Z</time>
					</trkpt>
					<trkpt lat="49.282660" lon="2.322970">
						<ele>81</ele>
						<time>2026-06-05T18:14:08Z</time>
					</trkpt>
					<trkpt lat="49.282420" lon="2.323510">
						<ele>78</ele>
						<time>2026-06-05T18:14:18Z</time>
					</trkpt>
					<trkpt lat="49.282230" lon="2.324020">
						<ele>75</ele>
						<time>2026-06-05T18:14:27Z</time>
					</trkpt>
					<trkpt lat="49.282160" lon="2.324290">
						<ele>74</ele>
						<time>2026-06-05T18:14:31Z</time>
					</trkpt>
					<trkpt lat="49.282130" lon="2.324570">
						<ele>74</ele>
						<time>2026-06-05T18:14:35Z</time>
					</trkpt>
					<trkpt lat="49.282060" lon="2.325620">
						<ele>71</ele>
						<time>2026-06-05T18:14:51Z</time>
					</trkpt>
					<trkpt lat="49.282030" lon="2.326890">
						<ele>65</ele>
						<time>2026-06-05T18:15:11Z</time>
					</trkpt>
					<trkpt lat="49.281940" lon="2.327430">
						<ele>62</ele>
						<time>2026-06-05T18:15:19Z</time>
					</trkpt>
					<trkpt lat="49.281860" lon="2.327660">
						<ele>61</ele>
						<time>2026-06-05T18:15:23Z</time>
					</trkpt>
					<trkpt lat="49.281740" lon="2.327900">
						<ele>58</ele>
						<time>2026-06-05T18:15:28Z</time>
					</trkpt>
					<trkpt lat="49.281360" lon="2.328470">
						<ele>53</ele>
						<time>2026-06-05T18:15:40Z</time>
					</trkpt>
					<trkpt lat="49.281220" lon="2.328790">
						<ele>52</ele>
						<time>2026-06-05T18:15:46Z</time>
					</trkpt>
					<trkpt lat="49.281020" lon="2.329020">
						<ele>51</ele>
						<time>2026-06-05T18:15:52Z</time>
					</trkpt>
					<trkpt lat="49.280950" lon="2.329150">
						<ele>51</ele>
						<time>2026-06-05T18:15:54Z</time>
					</trkpt>
					<trkpt lat="49.280890" lon="2.329460">
						<ele>50</ele>
						<time>2026-06-05T18:15:59Z</time>
					</trkpt>
					<trkpt lat="49.280300" lon="2.331600">
						<ele>56</ele>
						<time>2026-06-05T18:16:35Z</time>
					</trkpt>
					<trkpt lat="49.280240" lon="2.332000">
						<ele>58</ele>
						<time>2026-06-05T18:16:41Z</time>
					</trkpt>
					<trkpt lat="49.280220" lon="2.332580">
						<ele>60</ele>
						<time>2026-06-05T18:16:50Z</time>
					</trkpt>
					<trkpt lat="49.280260" lon="2.332830">
						<ele>61</ele>
						<time>2026-06-05T18:16:54Z</time>
					</trkpt>
					<trkpt lat="49.280290" lon="2.333330">
						<ele>63</ele>
						<time>2026-06-05T18:17:01Z</time>
					</trkpt>
					<trkpt lat="49.280410" lon="2.334240">
						<ele>68</ele>
						<time>2026-06-05T18:17:16Z</time>
					</trkpt>
					<trkpt lat="49.280420" lon="2.334520">
						<ele>67</ele>
						<time>2026-06-05T18:17:20Z</time>
					</trkpt>
					<trkpt lat="49.280370" lon="2.334840">
						<ele>68</ele>
						<time>2026-06-05T18:17:25Z</time>
					</trkpt>
					<trkpt lat="49.279970" lon="2.336240">
						<ele>74</ele>
						<time>2026-06-05T18:17:48Z</time>
					</trkpt>
					<trkpt lat="49.279920" lon="2.336260">
						<ele>74</ele>
						<time>2026-06-05T18:17:49Z</time>
					</trkpt>
					<trkpt lat="49.279900" lon="2.336240">
						<ele>75</ele>
						<time>2026-06-05T18:17:50Z</time>
					</trkpt>
					<trkpt lat="49.279860" lon="2.336160">
						<ele>75</ele>
						<time>2026-06-05T18:17:51Z</time>
					</trkpt>
					<trkpt lat="49.279850" lon="2.336060">
						<ele>76</ele>
						<time>2026-06-05T18:17:53Z</time>
					</trkpt>
					<trkpt lat="49.279950" lon="2.335060">
						<ele>76</ele>
						<time>2026-06-05T18:18:08Z</time>
					</trkpt>
					<trkpt lat="49.279900" lon="2.334680">
						<ele>76</ele>
						<time>2026-06-05T18:18:14Z</time>
					</trkpt>
					<trkpt lat="49.279770" lon="2.334370">
						<ele>77</ele>
						<time>2026-06-05T18:18:20Z</time>
					</trkpt>
					<trkpt lat="49.279580" lon="2.334040">
						<ele>77</ele>
						<time>2026-06-05T18:18:27Z</time>
					</trkpt>
					<trkpt lat="49.279290" lon="2.333790">
						<ele>78</ele>
						<time>2026-06-05T18:18:34Z</time>
					</trkpt>
					<trkpt lat="49.278860" lon="2.333720">
						<ele>80</ele>
						<time>2026-06-05T18:18:45Z</time>
					</trkpt>
					<trkpt lat="49.277900" lon="2.333680">
						<ele>83</ele>
						<time>2026-06-05T18:19:07Z</time>
					</trkpt>
					<trkpt lat="49.276930" lon="2.333710">
						<ele>87</ele>
						<time>2026-06-05T18:19:30Z</time>
					</trkpt>
					<trkpt lat="49.275900" lon="2.333620">
						<ele>91</ele>
						<time>2026-06-05T18:19:54Z</time>
					</trkpt>
					<trkpt lat="49.275380" lon="2.333620">
						<ele>93</ele>
						<time>2026-06-05T18:20:06Z</time>
					</trkpt>
					<trkpt lat="49.274210" lon="2.333560">
						<ele>97</ele>
						<time>2026-06-05T18:20:33Z</time>
					</trkpt>
					<trkpt lat="49.274150" lon="2.333570">
						<ele>98</ele>
						<time>2026-06-05T18:20:35Z</time>
					</trkpt>
					<trkpt lat="49.274120" lon="2.333600">
						<ele>98</ele>
						<time>2026-06-05T18:20:35Z</time>
					</trkpt>
					<trkpt lat="49.274120" lon="2.333650">
						<ele>98</ele>
						<time>2026-06-05T18:20:36Z</time>
					</trkpt>
					<trkpt lat="49.274680" lon="2.335120">
						<ele>97</ele>
						<time>2026-06-05T18:21:02Z</time>
					</trkpt>
					<trkpt lat="49.277080" lon="2.341360">
						<ele>96</ele>
						<time>2026-06-05T18:22:52Z</time>
					</trkpt>
					<trkpt lat="49.277350" lon="2.342130">
						<ele>95</ele>
						<time>2026-06-05T18:23:06Z</time>
					</trkpt>
					<trkpt lat="49.278410" lon="2.344720">
						<ele>94</ele>
						<time>2026-06-05T18:23:52Z</time>
					</trkpt>
					<trkpt lat="49.279020" lon="2.346930">
						<ele>92</ele>
						<time>2026-06-05T18:24:29Z</time>
					</trkpt>
					<trkpt lat="49.279150" lon="2.347580">
						<ele>90</ele>
						<time>2026-06-05T18:24:39Z</time>
					</trkpt>
					<trkpt lat="49.279220" lon="2.348130">
						<ele>89</ele>
						<time>2026-06-05T18:24:48Z</time>
					</trkpt>
					<trkpt lat="49.279260" lon="2.348860">
						<ele>88</ele>
						<time>2026-06-05T18:24:59Z</time>
					</trkpt>
					<trkpt lat="49.279740" lon="2.348680">
						<ele>89</ele>
						<time>2026-06-05T18:25:11Z</time>
					</trkpt>
					<trkpt lat="49.279920" lon="2.349180">
						<ele>88</ele>
						<time>2026-06-05T18:25:19Z</time>
					</trkpt>
					<trkpt lat="49.281660" lon="2.356760">
						<ele>82</ele>
						<time>2026-06-05T18:27:22Z</time>
					</trkpt>
					<trkpt lat="49.281130" lon="2.357710">
						<ele>70</ele>
						<time>2026-06-05T18:27:41Z</time>
					</trkpt>
					<trkpt lat="49.279700" lon="2.356320">
						<ele>61</ele>
						<time>2026-06-05T18:28:20Z</time>
					</trkpt>
					<trkpt lat="49.279690" lon="2.355980">
						<ele>63</ele>
						<time>2026-06-05T18:28:25Z</time>
					</trkpt>
					<trkpt lat="49.279620" lon="2.355830">
						<ele>63</ele>
						<time>2026-06-05T18:28:28Z</time>
					</trkpt>
					<trkpt lat="49.279620" lon="2.354800">
						<ele>71</ele>
						<time>2026-06-05T18:28:44Z</time>
					</trkpt>
					<trkpt lat="49.279530" lon="2.353910">
						<ele>77</ele>
						<time>2026-06-05T18:28:58Z</time>
					</trkpt>
					<trkpt lat="49.279340" lon="2.352950">
						<ele>82</ele>
						<time>2026-06-05T18:29:13Z</time>
					</trkpt>
					<trkpt lat="49.279200" lon="2.353140">
						<ele>81</ele>
						<time>2026-06-05T18:29:17Z</time>
					</trkpt>
					<trkpt lat="49.279120" lon="2.353350">
						<ele>82</ele>
						<time>2026-06-05T18:29:21Z</time>
					</trkpt>
					<trkpt lat="49.279070" lon="2.353720">
						<ele>80</ele>
						<time>2026-06-05T18:29:27Z</time>
					</trkpt>
					<trkpt lat="49.279010" lon="2.353950">
						<ele>79</ele>
						<time>2026-06-05T18:29:31Z</time>
					</trkpt>
					<trkpt lat="49.278910" lon="2.354180">
						<ele>79</ele>
						<time>2026-06-05T18:29:35Z</time>
					</trkpt>
					<trkpt lat="49.278330" lon="2.355030">
						<ele>71</ele>
						<time>2026-06-05T18:29:53Z</time>
					</trkpt>
					<trkpt lat="49.278070" lon="2.355300">
						<ele>68</ele>
						<time>2026-06-05T18:30:01Z</time>
					</trkpt>
					<trkpt lat="49.277950" lon="2.355350">
						<ele>68</ele>
						<time>2026-06-05T18:30:04Z</time>
					</trkpt>
					<trkpt lat="49.277640" lon="2.355370">
						<ele>71</ele>
						<time>2026-06-05T18:30:11Z</time>
					</trkpt>
					<trkpt lat="49.277540" lon="2.355420">
						<ele>71</ele>
						<time>2026-06-05T18:30:13Z</time>
					</trkpt>
					<trkpt lat="49.277520" lon="2.355650">
						<ele>68</ele>
						<time>2026-06-05T18:30:17Z</time>
					</trkpt>
					<trkpt lat="49.277540" lon="2.356000">
						<ele>62</ele>
						<time>2026-06-05T18:30:22Z</time>
					</trkpt>
					<trkpt lat="49.277510" lon="2.356270">
						<ele>57</ele>
						<time>2026-06-05T18:30:26Z</time>
					</trkpt>
					<trkpt lat="49.277300" lon="2.357320">
						<ele>44</ele>
						<time>2026-06-05T18:30:43Z</time>
					</trkpt>
					<trkpt lat="49.277280" lon="2.357630">
						<ele>42</ele>
						<time>2026-06-05T18:30:48Z</time>
					</trkpt>
					<trkpt lat="49.277200" lon="2.357760">
						<ele>41</ele>
						<time>2026-06-05T18:30:51Z</time>
					</trkpt>
					<trkpt lat="49.276940" lon="2.357750">
						<ele>41</ele>
						<time>2026-06-05T18:30:57Z</time>
					</trkpt>
					<trkpt lat="49.276890" lon="2.357820">
						<ele>40</ele>
						<time>2026-06-05T18:30:58Z</time>
					</trkpt>
					<trkpt lat="49.276780" lon="2.359140">
						<ele>38</ele>
						<time>2026-06-05T18:31:19Z</time>
					</trkpt>
					<trkpt lat="49.276860" lon="2.359840">
						<ele>38</ele>
						<time>2026-06-05T18:31:29Z</time>
					</trkpt>
					<trkpt lat="49.276950" lon="2.360020">
						<ele>38</ele>
						<time>2026-06-05T18:31:33Z</time>
					</trkpt>
					<trkpt lat="49.276980" lon="2.360140">
						<ele>38</ele>
						<time>2026-06-05T18:31:35Z</time>
					</trkpt>
					<trkpt lat="49.277120" lon="2.361310">
						<ele>39</ele>
						<time>2026-06-05T18:31:53Z</time>
					</trkpt>
					<trkpt lat="49.277110" lon="2.361450">
						<ele>39</ele>
						<time>2026-06-05T18:31:55Z</time>
					</trkpt>
					<trkpt lat="49.277060" lon="2.361560">
						<ele>39</ele>
						<time>2026-06-05T18:31:57Z</time>
					</trkpt>
					<trkpt lat="49.276740" lon="2.362000">
						<ele>39</ele>
						<time>2026-06-05T18:32:07Z</time>
					</trkpt>
					<trkpt lat="49.276630" lon="2.362090">
						<ele>38</ele>
						<time>2026-06-05T18:32:10Z</time>
					</trkpt>
					<trkpt lat="49.276520" lon="2.362120">
						<ele>38</ele>
						<time>2026-06-05T18:32:13Z</time>
					</trkpt>
					<trkpt lat="49.275960" lon="2.362160">
						<ele>38</ele>
						<time>2026-06-05T18:32:26Z</time>
					</trkpt>
					<trkpt lat="49.275600" lon="2.362280">
						<ele>38</ele>
						<time>2026-06-05T18:32:34Z</time>
					</trkpt>
					<trkpt lat="49.275260" lon="2.362440">
						<ele>38</ele>
						<time>2026-06-05T18:32:43Z</time>
					</trkpt>
					<trkpt lat="49.274910" lon="2.362540">
						<ele>38</ele>
						<time>2026-06-05T18:32:51Z</time>
					</trkpt>
					<trkpt lat="49.274450" lon="2.362580">
						<ele>37</ele>
						<time>2026-06-05T18:33:02Z</time>
					</trkpt>
					<trkpt lat="49.274110" lon="2.362570">
						<ele>36</ele>
						<time>2026-06-05T18:33:10Z</time>
					</trkpt>
					<trkpt lat="49.273940" lon="2.362600">
						<ele>36</ele>
						<time>2026-06-05T18:33:14Z</time>
					</trkpt>
					<trkpt lat="49.273770" lon="2.362670">
						<ele>35</ele>
						<time>2026-06-05T18:33:18Z</time>
					</trkpt>
					<trkpt lat="49.273490" lon="2.362920">
						<ele>35</ele>
						<time>2026-06-05T18:33:25Z</time>
					</trkpt>
					<trkpt lat="49.273300" lon="2.363030">
						<ele>35</ele>
						<time>2026-06-05T18:33:30Z</time>
					</trkpt>
					<trkpt lat="49.273200" lon="2.363010">
						<ele>35</ele>
						<time>2026-06-05T18:33:33Z</time>
					</trkpt>
					<trkpt lat="49.272930" lon="2.362680">
						<ele>36</ele>
						<time>2026-06-05T18:33:41Z</time>
					</trkpt>
					<trkpt lat="49.272670" lon="2.362450">
						<ele>37</ele>
						<time>2026-06-05T18:33:48Z</time>
					</trkpt>
					<trkpt lat="49.272650" lon="2.362280">
						<ele>36</ele>
						<time>2026-06-05T18:33:50Z</time>
					</trkpt>
					<trkpt lat="49.272670" lon="2.361750">
						<ele>36</ele>
						<time>2026-06-05T18:33:58Z</time>
					</trkpt>
					<trkpt lat="49.272660" lon="2.361110">
						<ele>36</ele>
						<time>2026-06-05T18:34:08Z</time>
					</trkpt>
					<trkpt lat="49.272250" lon="2.361110">
						<ele>36</ele>
						<time>2026-06-05T18:34:18Z</time>
					</trkpt>
					</trkseg>
				</trk>
			</gpx>